{
"type": "FeatureCollection",
"name": "UHI_Guanajuato",
"crs": { "type": "name", "properties": { "name": "urn:ogc:def:crs:OGC:1.3:CRS84" } },
"features": [
{ "type": "Feature", "properties": { "ZONA_MET": "Guanajuato", "INTENSIDAD": "Intensa", "T_PROM_POL": 4.0, "T_MIN_CIUD": 3.0, "DIF_TERMIC": 1.0 }, "geometry": { "type": "MultiPolygon", "coordinates": [ [ [ [ -101.255583543156945, 21.04105923687473 ], [ -101.255044553986465, 21.04105923687473 ], [ -101.255044553986465, 21.039981258533786 ], [ -101.254505564816, 21.039981258533786 ], [ -101.254505564816, 21.040250753119022 ], [ -101.25423607023076, 21.040250753119022 ], [ -101.25423607023076, 21.039711763948549 ], [ -101.255583543156945, 21.039711763948549 ], [ -101.255583543156945, 21.039981258533786 ], [ -101.255314048571705, 21.039981258533786 ], [ -101.255314048571705, 21.040520247704258 ], [ -101.255583543156945, 21.040520247704258 ], [ -101.255583543156945, 21.04105923687473 ] ] ] ] } },
{ "type": "Feature", "properties": { "ZONA_MET": "Guanajuato", "INTENSIDAD": "Extrema", "T_PROM_POL": 4.0, "T_MIN_CIUD": 3.0, "DIF_TERMIC": 1.0 }, "geometry": { "type": "MultiPolygon", "coordinates": [ [ [ [ -101.254505564816, 21.038633785607608 ], [ -101.253966575645535, 21.038633785607608 ], [ -101.253966575645535, 21.038094796437136 ], [ -101.253697081060295, 21.038094796437136 ], [ -101.253697081060295, 21.038364291022372 ], [ -101.253427586475055, 21.038364291022372 ], [ -101.253427586475055, 21.038094796437136 ], [ -101.253158091889816, 21.038094796437136 ], [ -101.253158091889816, 21.037286312681427 ], [ -101.253427586475055, 21.037286312681427 ], [ -101.253427586475055, 21.036747323510955 ], [ -101.254505564816, 21.036747323510955 ], [ -101.254505564816, 21.037016818096191 ], [ -101.25477505940124, 21.037016818096191 ], [ -101.25477505940124, 21.037555807266664 ], [ -101.254505564816, 21.037555807266664 ], [ -101.254505564816, 21.038094796437136 ], [ -101.25477505940124, 21.038094796437136 ], [ -101.25477505940124, 21.038364291022372 ], [ -101.254505564816, 21.038364291022372 ], [ -101.254505564816, 21.038633785607608 ] ] ] ] } },
{ "type": "Feature", "properties": { "ZONA_MET": "Guanajuato", "INTENSIDAD": "Intensa", "T_PROM_POL": 4.0, "T_MIN_CIUD": 3.0, "DIF_TERMIC": 1.0 }, "geometry": { "type": "MultiPolygon", "coordinates": [ [ [ [ -101.286036431288593, 21.01114533791355 ], [ -101.284958452947649, 21.01114533791355 ], [ -101.284958452947649, 21.010067359572606 ], [ -101.284149969191944, 21.010067359572606 ], [ -101.284149969191944, 21.00979786498737 ], [ -101.284419463777184, 21.00979786498737 ], [ -101.284419463777184, 21.009258875816901 ], [ -101.284958452947649, 21.009258875816901 ], [ -101.284958452947649, 21.008989381231665 ], [ -101.285227947532888, 21.008989381231665 ], [ -101.285227947532888, 21.009528370402137 ], [ -101.285497442118128, 21.009528370402137 ], [ -101.285497442118128, 21.008989381231665 ], [ -101.286036431288593, 21.008989381231665 ], [ -101.286036431288593, 21.00979786498737 ], [ -101.285227947532888, 21.00979786498737 ], [ -101.285227947532888, 21.010336854157842 ], [ -101.285497442118128, 21.010336854157842 ], [ -101.285497442118128, 21.010606348743078 ], [ -101.285766936703354, 21.010606348743078 ], [ -101.285766936703354, 21.010875843328314 ], [ -101.286036431288593, 21.010875843328314 ], [ -101.286036431288593, 21.01114533791355 ] ], [ [ -101.284958452947649, 21.00979786498737 ], [ -101.284958452947649, 21.009528370402137 ], [ -101.284688958362409, 21.009528370402137 ], [ -101.284688958362409, 21.00979786498737 ], [ -101.284958452947649, 21.00979786498737 ] ] ] ] } },
{ "type": "Feature", "properties": { "ZONA_MET": "Guanajuato", "INTENSIDAD": "Intensa", "T_PROM_POL": 4.0, "T_MIN_CIUD": 3.0, "DIF_TERMIC": 1.0 }, "geometry": { "type": "MultiPolygon", "coordinates": [ [ [ [ -101.293851774260432, 21.005755446208834 ], [ -101.293043290504727, 21.005755446208834 ], [ -101.293043290504727, 21.004946962453126 ], [ -101.293312785089967, 21.004946962453126 ], [ -101.293312785089967, 21.004677467867889 ], [ -101.293851774260432, 21.004677467867889 ], [ -101.293851774260432, 21.004407973282653 ], [ -101.294390763430911, 21.004407973282653 ], [ -101.294390763430911, 21.004138478697417 ], [ -101.294660258016137, 21.004138478697417 ], [ -101.294660258016137, 21.003868984112181 ], [ -101.294929752601377, 21.003868984112181 ], [ -101.294929752601377, 21.004407973282653 ], [ -101.294660258016137, 21.004407973282653 ], [ -101.294660258016137, 21.004677467867889 ], [ -101.294390763430911, 21.004677467867889 ], [ -101.294390763430911, 21.004946962453126 ], [ -101.294121268845672, 21.004946962453126 ], [ -101.294121268845672, 21.005485951623598 ], [ -101.293851774260432, 21.005485951623598 ], [ -101.293851774260432, 21.005755446208834 ] ] ] ] } },
{ "type": "Feature", "properties": { "ZONA_MET": "Guanajuato", "INTENSIDAD": "Intensa", "T_PROM_POL": 4.0, "T_MIN_CIUD": 3.0, "DIF_TERMIC": 1.0 }, "geometry": { "type": "MultiPolygon", "coordinates": [ [ [ [ -101.30382307391416, 21.004946962453126 ], [ -101.303284084743694, 21.004946962453126 ], [ -101.303284084743694, 21.004407973282653 ], [ -101.302745095573215, 21.004407973282653 ], [ -101.302745095573215, 21.004138478697417 ], [ -101.30220610640275, 21.004138478697417 ], [ -101.30220610640275, 21.003868984112181 ], [ -101.30193661181751, 21.003868984112181 ], [ -101.30193661181751, 21.003060500356476 ], [ -101.30220610640275, 21.003060500356476 ], [ -101.30220610640275, 21.003599489526945 ], [ -101.302475600987975, 21.003599489526945 ], [ -101.302475600987975, 21.003868984112181 ], [ -101.30355357932892, 21.003868984112181 ], [ -101.30355357932892, 21.004407973282653 ], [ -101.304092568499399, 21.004407973282653 ], [ -101.304092568499399, 21.004677467867889 ], [ -101.30382307391416, 21.004677467867889 ], [ -101.30382307391416, 21.004946962453126 ] ] ] ] } },
{ "type": "Feature", "properties": { "ZONA_MET": "Guanajuato", "INTENSIDAD": "Extrema", "T_PROM_POL": 4.0, "T_MIN_CIUD": 3.0, "DIF_TERMIC": 1.0 }, "geometry": { "type": "MultiPolygon", "coordinates": [ [ [ [ -101.298163687624211, 20.999287576163173 ], [ -101.297894193038971, 20.999287576163173 ], [ -101.297894193038971, 20.998209597822228 ], [ -101.298163687624211, 20.998209597822228 ], [ -101.298163687624211, 20.997401114066523 ], [ -101.297894193038971, 20.997401114066523 ], [ -101.297894193038971, 20.996862124896051 ], [ -101.298433182209436, 20.996862124896051 ], [ -101.298433182209436, 20.997401114066523 ], [ -101.298702676794676, 20.997401114066523 ], [ -101.298702676794676, 20.997940103236992 ], [ -101.298433182209436, 20.997940103236992 ], [ -101.298433182209436, 20.998748586992701 ], [ -101.298163687624211, 20.998748586992701 ], [ -101.298163687624211, 20.999287576163173 ] ] ] ] } },
{ "type": "Feature", "properties": { "ZONA_MET": "Guanajuato", "INTENSIDAD": "Intensa", "T_PROM_POL": 4.0, "T_MIN_CIUD": 3.0, "DIF_TERMIC": 1.0 }, "geometry": { "type": "MultiPolygon", "coordinates": [ [ [ [ -101.296007730942321, 20.994975662799398 ], [ -101.294929752601377, 20.994975662799398 ], [ -101.294929752601377, 20.993897684458457 ], [ -101.295738236357082, 20.993897684458457 ], [ -101.295738236357082, 20.994436673628929 ], [ -101.296007730942321, 20.994436673628929 ], [ -101.296007730942321, 20.994975662799398 ] ] ] ] } },
{ "type": "Feature", "properties": { "ZONA_MET": "Guanajuato", "INTENSIDAD": "Intensa", "T_PROM_POL": 4.0, "T_MIN_CIUD": 3.0, "DIF_TERMIC": 1.0 }, "geometry": { "type": "MultiPolygon", "coordinates": [ [ [ [ -101.303284084743694, 20.991741727776567 ], [ -101.302745095573215, 20.991741727776567 ], [ -101.302745095573215, 20.990124760265154 ], [ -101.303284084743694, 20.990124760265154 ], [ -101.303284084743694, 20.988777287338973 ], [ -101.304092568499399, 20.988777287338973 ], [ -101.304092568499399, 20.989046781924209 ], [ -101.304631557669865, 20.989046781924209 ], [ -101.304631557669865, 20.990124760265154 ], [ -101.304362063084625, 20.990124760265154 ], [ -101.304362063084625, 20.989585771094681 ], [ -101.304092568499399, 20.989585771094681 ], [ -101.304092568499399, 20.990124760265154 ], [ -101.30382307391416, 20.990124760265154 ], [ -101.30382307391416, 20.990933244020862 ], [ -101.30355357932892, 20.990933244020862 ], [ -101.30355357932892, 20.991202738606098 ], [ -101.303284084743694, 20.991202738606098 ], [ -101.303284084743694, 20.991741727776567 ] ] ] ] } },
{ "type": "Feature", "properties": { "ZONA_MET": "Guanajuato", "INTENSIDAD": "Intensa", "T_PROM_POL": 4.0, "T_MIN_CIUD": 3.0, "DIF_TERMIC": 1.0 }, "geometry": { "type": "MultiPolygon", "coordinates": [ [ [ [ -101.305170546840344, 20.990124760265154 ], [ -101.304901052255104, 20.990124760265154 ], [ -101.304901052255104, 20.989316276509445 ], [ -101.305170546840344, 20.989316276509445 ], [ -101.305170546840344, 20.989046781924209 ], [ -101.304901052255104, 20.989046781924209 ], [ -101.304901052255104, 20.988777287338973 ], [ -101.305170546840344, 20.988777287338973 ], [ -101.305170546840344, 20.98850779275374 ], [ -101.304901052255104, 20.98850779275374 ], [ -101.304901052255104, 20.988238298168504 ], [ -101.305170546840344, 20.988238298168504 ], [ -101.305170546840344, 20.987968803583268 ], [ -101.304901052255104, 20.987968803583268 ], [ -101.304901052255104, 20.986082341486615 ], [ -101.305170546840344, 20.986082341486615 ], [ -101.305170546840344, 20.986621330657087 ], [ -101.30544004142557, 20.986621330657087 ], [ -101.30544004142557, 20.987429814412796 ], [ -101.305709536010809, 20.987429814412796 ], [ -101.305709536010809, 20.987699308998032 ], [ -101.30544004142557, 20.987699308998032 ], [ -101.30544004142557, 20.987968803583268 ], [ -101.305709536010809, 20.987968803583268 ], [ -101.305709536010809, 20.988777287338973 ], [ -101.30544004142557, 20.988777287338973 ], [ -101.30544004142557, 20.989585771094681 ], [ -101.305170546840344, 20.989585771094681 ], [ -101.305170546840344, 20.990124760265154 ] ] ] ] } },
{ "type": "Feature", "properties": { "ZONA_MET": "Guanajuato", "INTENSIDAD": "Intensa", "T_PROM_POL": 4.0, "T_MIN_CIUD": 3.0, "DIF_TERMIC": 1.0 }, "geometry": { "type": "MultiPolygon", "coordinates": [ [ [ [ -101.308404481863164, 20.98527385773091 ], [ -101.307595998107459, 20.98527385773091 ], [ -101.307595998107459, 20.984734868560437 ], [ -101.307865492692699, 20.984734868560437 ], [ -101.307865492692699, 20.984465373975201 ], [ -101.308134987277938, 20.984465373975201 ], [ -101.308134987277938, 20.984195879389965 ], [ -101.308943471033643, 20.984195879389965 ], [ -101.308943471033643, 20.985004363145674 ], [ -101.308404481863164, 20.985004363145674 ], [ -101.308404481863164, 20.98527385773091 ] ] ] ] } },
{ "type": "Feature", "properties": { "ZONA_MET": "Guanajuato", "INTENSIDAD": "Intensa", "T_PROM_POL": 4.0, "T_MIN_CIUD": 3.0, "DIF_TERMIC": 1.0 }, "geometry": { "type": "MultiPolygon", "coordinates": [ [ [ [ -101.309751954789348, 20.984195879389965 ], [ -101.309212965618883, 20.984195879389965 ], [ -101.309212965618883, 20.983926384804729 ], [ -101.308943471033643, 20.983926384804729 ], [ -101.308943471033643, 20.983387395634256 ], [ -101.308673976448404, 20.983387395634256 ], [ -101.308673976448404, 20.98311790104902 ], [ -101.308943471033643, 20.98311790104902 ], [ -101.308943471033643, 20.982848406463784 ], [ -101.309482460204109, 20.982848406463784 ], [ -101.309482460204109, 20.98311790104902 ], [ -101.309751954789348, 20.98311790104902 ], [ -101.309751954789348, 20.984195879389965 ] ] ] ] } },
{ "type": "Feature", "properties": { "ZONA_MET": "Guanajuato", "INTENSIDAD": "Intensa", "T_PROM_POL": 4.0, "T_MIN_CIUD": 3.0, "DIF_TERMIC": 1.0 }, "geometry": { "type": "MultiPolygon", "coordinates": [ [ [ [ -101.311907911471238, 20.982848406463784 ], [ -101.311368922300758, 20.982848406463784 ], [ -101.311368922300758, 20.982578911878552 ], [ -101.311099427715533, 20.982578911878552 ], [ -101.311099427715533, 20.982309417293315 ], [ -101.310829933130293, 20.982309417293315 ], [ -101.310829933130293, 20.982039922708079 ], [ -101.311368922300758, 20.982039922708079 ], [ -101.311368922300758, 20.981770428122843 ], [ -101.311099427715533, 20.981770428122843 ], [ -101.311099427715533, 20.981500933537607 ], [ -101.311638416885998, 20.981500933537607 ], [ -101.311638416885998, 20.981770428122843 ], [ -101.311907911471238, 20.981770428122843 ], [ -101.311907911471238, 20.982039922708079 ], [ -101.311638416885998, 20.982039922708079 ], [ -101.311638416885998, 20.982309417293315 ], [ -101.311907911471238, 20.982309417293315 ], [ -101.311907911471238, 20.982848406463784 ] ] ] ] } },
{ "type": "Feature", "properties": { "ZONA_MET": "Guanajuato", "INTENSIDAD": "Intensa", "T_PROM_POL": 4.0, "T_MIN_CIUD": 3.0, "DIF_TERMIC": 1.0 }, "geometry": { "type": "MultiPolygon", "coordinates": [ [ [ [ -101.288192387970483, 20.979075482270485 ], [ -101.287922893385243, 20.979075482270485 ], [ -101.287922893385243, 20.978536493100012 ], [ -101.287114409629538, 20.978536493100012 ], [ -101.287114409629538, 20.978266998514776 ], [ -101.287922893385243, 20.978266998514776 ], [ -101.287922893385243, 20.977458514759068 ], [ -101.288192387970483, 20.977458514759068 ], [ -101.288192387970483, 20.977728009344304 ], [ -101.288731377140948, 20.977728009344304 ], [ -101.288731377140948, 20.97799750392954 ], [ -101.288192387970483, 20.97799750392954 ], [ -101.288192387970483, 20.978266998514776 ], [ -101.288461882555723, 20.978266998514776 ], [ -101.288461882555723, 20.978536493100012 ], [ -101.288192387970483, 20.978536493100012 ], [ -101.288192387970483, 20.979075482270485 ] ] ] ] } },
{ "type": "Feature", "properties": { "ZONA_MET": "Guanajuato", "INTENSIDAD": "Intensa", "T_PROM_POL": 4.0, "T_MIN_CIUD": 3.0, "DIF_TERMIC": 1.0 }, "geometry": { "type": "MultiPolygon", "coordinates": [ [ [ [ -101.288731377140948, 20.976650031003363 ], [ -101.288461882555723, 20.976650031003363 ], [ -101.288461882555723, 20.976380536418127 ], [ -101.287922893385243, 20.976380536418127 ], [ -101.287922893385243, 20.975572052662418 ], [ -101.288461882555723, 20.975572052662418 ], [ -101.288461882555723, 20.975033063491946 ], [ -101.288731377140948, 20.975033063491946 ], [ -101.288731377140948, 20.975841547247654 ], [ -101.289000871726188, 20.975841547247654 ], [ -101.289000871726188, 20.97611104183289 ], [ -101.289270366311428, 20.97611104183289 ], [ -101.289270366311428, 20.976380536418127 ], [ -101.288731377140948, 20.976380536418127 ], [ -101.288731377140948, 20.976650031003363 ] ] ] ] } },
{ "type": "Feature", "properties": { "ZONA_MET": "Guanajuato", "INTENSIDAD": "Intensa", "T_PROM_POL": 4.0, "T_MIN_CIUD": 3.0, "DIF_TERMIC": 1.0 }, "geometry": { "type": "MultiPolygon", "coordinates": [ [ [ [ -101.282802496265759, 20.973955085151001 ], [ -101.282263507095294, 20.973955085151001 ], [ -101.282263507095294, 20.973685590565768 ], [ -101.281994012510054, 20.973685590565768 ], [ -101.281994012510054, 20.973416095980532 ], [ -101.282802496265759, 20.973416095980532 ], [ -101.282802496265759, 20.973146601395296 ], [ -101.283071990850999, 20.973146601395296 ], [ -101.283071990850999, 20.97287710681006 ], [ -101.283341485436239, 20.97287710681006 ], [ -101.283341485436239, 20.972607612224824 ], [ -101.283880474606704, 20.972607612224824 ], [ -101.283880474606704, 20.97287710681006 ], [ -101.283610980021479, 20.97287710681006 ], [ -101.283610980021479, 20.973416095980532 ], [ -101.283071990850999, 20.973416095980532 ], [ -101.283071990850999, 20.973685590565768 ], [ -101.282802496265759, 20.973685590565768 ], [ -101.282802496265759, 20.973955085151001 ] ] ] ] } },
{ "type": "Feature", "properties": { "ZONA_MET": "Guanajuato", "INTENSIDAD": "Intensa", "T_PROM_POL": 4.0, "T_MIN_CIUD": 3.0, "DIF_TERMIC": 1.0 }, "geometry": { "type": "MultiPolygon", "coordinates": [ [ [ [ -101.290078850067133, 20.973416095980532 ], [ -101.289000871726188, 20.973416095980532 ], [ -101.289000871726188, 20.972068623054351 ], [ -101.289809355481893, 20.972068623054351 ], [ -101.289809355481893, 20.972338117639588 ], [ -101.290078850067133, 20.972338117639588 ], [ -101.290078850067133, 20.973416095980532 ] ] ] ] } },
{ "type": "Feature", "properties": { "ZONA_MET": "Guanajuato", "INTENSIDAD": "Intensa", "T_PROM_POL": 4.0, "T_MIN_CIUD": 3.0, "DIF_TERMIC": 1.0 }, "geometry": { "type": "MultiPolygon", "coordinates": [ [ [ [ -101.284688958362409, 20.977189020173832 ], [ -101.283341485436239, 20.977189020173832 ], [ -101.283341485436239, 20.975572052662418 ], [ -101.283610980021479, 20.975572052662418 ], [ -101.283610980021479, 20.976380536418127 ], [ -101.283880474606704, 20.976380536418127 ], [ -101.283880474606704, 20.976919525588595 ], [ -101.284419463777184, 20.976919525588595 ], [ -101.284419463777184, 20.975572052662418 ], [ -101.284958452947649, 20.975572052662418 ], [ -101.284958452947649, 20.975302558077182 ], [ -101.285227947532888, 20.975302558077182 ], [ -101.285227947532888, 20.974224579736237 ], [ -101.284958452947649, 20.974224579736237 ], [ -101.284958452947649, 20.973416095980532 ], [ -101.285227947532888, 20.973416095980532 ], [ -101.285227947532888, 20.97287710681006 ], [ -101.285497442118128, 20.97287710681006 ], [ -101.285497442118128, 20.972607612224824 ], [ -101.285227947532888, 20.972607612224824 ], [ -101.285227947532888, 20.972338117639588 ], [ -101.284149969191944, 20.972338117639588 ], [ -101.284149969191944, 20.972068623054351 ], [ -101.284958452947649, 20.972068623054351 ], [ -101.284958452947649, 20.971799128469115 ], [ -101.284688958362409, 20.971799128469115 ], [ -101.284688958362409, 20.971260139298643 ], [ -101.284958452947649, 20.971260139298643 ], [ -101.284958452947649, 20.970990644713407 ], [ -101.285227947532888, 20.970990644713407 ], [ -101.285227947532888, 20.971260139298643 ], [ -101.286036431288593, 20.971260139298643 ], [ -101.286036431288593, 20.970990644713407 ], [ -101.286844915044298, 20.970990644713407 ], [ -101.286844915044298, 20.971260139298643 ], [ -101.286575420459073, 20.971260139298643 ], [ -101.286575420459073, 20.971529633883879 ], [ -101.287114409629538, 20.971529633883879 ], [ -101.287114409629538, 20.972068623054351 ], [ -101.287653398800003, 20.972068623054351 ], [ -101.287653398800003, 20.971799128469115 ], [ -101.287922893385243, 20.971799128469115 ], [ -101.287922893385243, 20.972338117639588 ], [ -101.288192387970483, 20.972338117639588 ], [ -101.288192387970483, 20.972607612224824 ], [ -101.287383904214778, 20.972607612224824 ], [ -101.287383904214778, 20.97287710681006 ], [ -101.285766936703354, 20.97287710681006 ], [ -101.285766936703354, 20.973146601395296 ], [ -101.286036431288593, 20.973146601395296 ], [ -101.286036431288593, 20.973416095980532 ], [ -101.285766936703354, 20.973416095980532 ], [ -101.285766936703354, 20.973685590565768 ], [ -101.285497442118128, 20.973685590565768 ], [ -101.285497442118128, 20.973955085151001 ], [ -101.286036431288593, 20.973955085151001 ], [ -101.286036431288593, 20.97611104183289 ], [ -101.285766936703354, 20.97611104183289 ], [ -101.285766936703354, 20.976919525588595 ], [ -101.285497442118128, 20.976919525588595 ], [ -101.285497442118128, 20.976650031003363 ], [ -101.284958452947649, 20.976650031003363 ], [ -101.284958452947649, 20.976919525588595 ], [ -101.284688958362409, 20.976919525588595 ], [ -101.284688958362409, 20.977189020173832 ] ] ] ] } },
{ "type": "Feature", "properties": { "ZONA_MET": "Guanajuato", "INTENSIDAD": "Intensa", "T_PROM_POL": 4.0, "T_MIN_CIUD": 3.0, "DIF_TERMIC": 1.0 }, "geometry": { "type": "MultiPolygon", "coordinates": [ [ [ [ -101.30355357932892, 20.971260139298643 ], [ -101.302475600987975, 20.971260139298643 ], [ -101.302475600987975, 20.970990644713407 ], [ -101.30166711723227, 20.970990644713407 ], [ -101.30166711723227, 20.970721150128171 ], [ -101.30193661181751, 20.970721150128171 ], [ -101.30193661181751, 20.970451655542938 ], [ -101.30220610640275, 20.970451655542938 ], [ -101.30220610640275, 20.970721150128171 ], [ -101.302475600987975, 20.970721150128171 ], [ -101.302475600987975, 20.970451655542938 ], [ -101.302745095573215, 20.970451655542938 ], [ -101.302745095573215, 20.970182160957702 ], [ -101.30220610640275, 20.970182160957702 ], [ -101.30220610640275, 20.969912666372466 ], [ -101.30355357932892, 20.969912666372466 ], [ -101.30355357932892, 20.971260139298643 ] ], [ [ -101.303284084743694, 20.970721150128171 ], [ -101.303284084743694, 20.970451655542938 ], [ -101.302745095573215, 20.970451655542938 ], [ -101.302745095573215, 20.970721150128171 ], [ -101.303284084743694, 20.970721150128171 ] ] ] ] } },
{ "type": "Feature", "properties": { "ZONA_MET": "Guanajuato", "INTENSIDAD": "Intensa", "T_PROM_POL": 4.0, "T_MIN_CIUD": 3.0, "DIF_TERMIC": 1.0 }, "geometry": { "type": "MultiPolygon", "coordinates": [ [ [ [ -101.298702676794676, 20.970990644713407 ], [ -101.297624698453731, 20.970990644713407 ], [ -101.297624698453731, 20.970721150128171 ], [ -101.296816214698026, 20.970721150128171 ], [ -101.296816214698026, 20.970451655542938 ], [ -101.297355203868506, 20.970451655542938 ], [ -101.297355203868506, 20.970182160957702 ], [ -101.298163687624211, 20.970182160957702 ], [ -101.298163687624211, 20.969912666372466 ], [ -101.298702676794676, 20.969912666372466 ], [ -101.298702676794676, 20.970182160957702 ], [ -101.298433182209436, 20.970182160957702 ], [ -101.298433182209436, 20.970451655542938 ], [ -101.298702676794676, 20.970451655542938 ], [ -101.298702676794676, 20.970990644713407 ] ] ] ] } },
{ "type": "Feature", "properties": { "ZONA_MET": "Guanajuato", "INTENSIDAD": "Intensa", "T_PROM_POL": 4.0, "T_MIN_CIUD": 3.0, "DIF_TERMIC": 1.0 }, "geometry": { "type": "MultiPolygon", "coordinates": [ [ [ [ -101.306518019766514, 20.969104182616757 ], [ -101.305979030596049, 20.969104182616757 ], [ -101.305979030596049, 20.968834688031521 ], [ -101.305709536010809, 20.968834688031521 ], [ -101.305709536010809, 20.969104182616757 ], [ -101.304362063084625, 20.969104182616757 ], [ -101.304362063084625, 20.968834688031521 ], [ -101.304631557669865, 20.968834688031521 ], [ -101.304631557669865, 20.968026204275812 ], [ -101.304901052255104, 20.968026204275812 ], [ -101.304901052255104, 20.968565193446285 ], [ -101.305709536010809, 20.968565193446285 ], [ -101.305709536010809, 20.968295698861048 ], [ -101.306248525181289, 20.968295698861048 ], [ -101.306248525181289, 20.968026204275812 ], [ -101.306787514351754, 20.968026204275812 ], [ -101.306787514351754, 20.968295698861048 ], [ -101.307057008936994, 20.968295698861048 ], [ -101.307057008936994, 20.968565193446285 ], [ -101.306787514351754, 20.968565193446285 ], [ -101.306787514351754, 20.968834688031521 ], [ -101.306518019766514, 20.968834688031521 ], [ -101.306518019766514, 20.969104182616757 ] ] ] ] } },
{ "type": "Feature", "properties": { "ZONA_MET": "Guanajuato", "INTENSIDAD": "Intensa", "T_PROM_POL": 4.0, "T_MIN_CIUD": 3.0, "DIF_TERMIC": 1.0 }, "geometry": { "type": "MultiPolygon", "coordinates": [ [ [ [ -101.299241665965155, 20.968834688031521 ], [ -101.298163687624211, 20.968834688031521 ], [ -101.298163687624211, 20.968295698861048 ], [ -101.298972171379916, 20.968295698861048 ], [ -101.298972171379916, 20.968026204275812 ], [ -101.299511160550381, 20.968026204275812 ], [ -101.299511160550381, 20.967756709690576 ], [ -101.299780655135621, 20.967756709690576 ], [ -101.299780655135621, 20.968295698861048 ], [ -101.299511160550381, 20.968295698861048 ], [ -101.299511160550381, 20.968565193446285 ], [ -101.299241665965155, 20.968565193446285 ], [ -101.299241665965155, 20.968834688031521 ] ] ] ] } },
{ "type": "Feature", "properties": { "ZONA_MET": "Guanajuato", "INTENSIDAD": "Intensa", "T_PROM_POL": 4.0, "T_MIN_CIUD": 3.0, "DIF_TERMIC": 1.0 }, "geometry": { "type": "MultiPolygon", "coordinates": [ [ [ [ -101.291965312163782, 20.969373677201993 ], [ -101.291426322993317, 20.969373677201993 ], [ -101.291426322993317, 20.968834688031521 ], [ -101.291156828408077, 20.968834688031521 ], [ -101.291156828408077, 20.968295698861048 ], [ -101.290078850067133, 20.968295698861048 ], [ -101.290078850067133, 20.968026204275812 ], [ -101.291156828408077, 20.968026204275812 ], [ -101.291156828408077, 20.967487215105344 ], [ -101.291426322993317, 20.967487215105344 ], [ -101.291426322993317, 20.967756709690576 ], [ -101.291695817578542, 20.967756709690576 ], [ -101.291695817578542, 20.968026204275812 ], [ -101.291426322993317, 20.968026204275812 ], [ -101.291426322993317, 20.968295698861048 ], [ -101.291695817578542, 20.968295698861048 ], [ -101.291695817578542, 20.968565193446285 ], [ -101.292234806749022, 20.968565193446285 ], [ -101.292234806749022, 20.968295698861048 ], [ -101.291965312163782, 20.968295698861048 ], [ -101.291965312163782, 20.967217720520107 ], [ -101.292234806749022, 20.967217720520107 ], [ -101.292234806749022, 20.966948225934871 ], [ -101.292773795919487, 20.966948225934871 ], [ -101.292773795919487, 20.967217720520107 ], [ -101.293043290504727, 20.967217720520107 ], [ -101.293043290504727, 20.967487215105344 ], [ -101.292773795919487, 20.967487215105344 ], [ -101.292773795919487, 20.967756709690576 ], [ -101.292504301334262, 20.967756709690576 ], [ -101.292504301334262, 20.968295698861048 ], [ -101.292773795919487, 20.968295698861048 ], [ -101.292773795919487, 20.968565193446285 ], [ -101.293043290504727, 20.968565193446285 ], [ -101.293043290504727, 20.968834688031521 ], [ -101.292773795919487, 20.968834688031521 ], [ -101.292773795919487, 20.969104182616757 ], [ -101.291965312163782, 20.969104182616757 ], [ -101.291965312163782, 20.969373677201993 ] ] ] ] } },
{ "type": "Feature", "properties": { "ZONA_MET": "Guanajuato", "INTENSIDAD": "Intensa", "T_PROM_POL": 4.0, "T_MIN_CIUD": 3.0, "DIF_TERMIC": 1.0 }, "geometry": { "type": "MultiPolygon", "coordinates": [ [ [ [ -101.269866756174437, 20.965331258423454 ], [ -101.269058272418732, 20.965331258423454 ], [ -101.269058272418732, 20.964253280082513 ], [ -101.268519283248267, 20.964253280082513 ], [ -101.268519283248267, 20.963714290912041 ], [ -101.269327767003972, 20.963714290912041 ], [ -101.269327767003972, 20.964253280082513 ], [ -101.269866756174437, 20.964253280082513 ], [ -101.269866756174437, 20.965331258423454 ] ] ] ] } },
{ "type": "Feature", "properties": { "ZONA_MET": "Guanajuato", "INTENSIDAD": "Intensa", "T_PROM_POL": 4.0, "T_MIN_CIUD": 3.0, "DIF_TERMIC": 1.0 }, "geometry": { "type": "MultiPolygon", "coordinates": [ [ [ [ -101.293043290504727, 20.966948225934871 ], [ -101.292773795919487, 20.966948225934871 ], [ -101.292773795919487, 20.966678731349635 ], [ -101.292234806749022, 20.966678731349635 ], [ -101.292234806749022, 20.966409236764399 ], [ -101.291426322993317, 20.966409236764399 ], [ -101.291426322993317, 20.966948225934871 ], [ -101.291156828408077, 20.966948225934871 ], [ -101.291156828408077, 20.966678731349635 ], [ -101.290887333822837, 20.966678731349635 ], [ -101.290887333822837, 20.966139742179163 ], [ -101.290617839237598, 20.966139742179163 ], [ -101.290617839237598, 20.965061763838218 ], [ -101.290348344652372, 20.965061763838218 ], [ -101.290348344652372, 20.964792269252982 ], [ -101.290078850067133, 20.964792269252982 ], [ -101.290078850067133, 20.964522774667749 ], [ -101.289539860896667, 20.964522774667749 ], [ -101.289539860896667, 20.963983785497277 ], [ -101.290078850067133, 20.963983785497277 ], [ -101.290078850067133, 20.963714290912041 ], [ -101.290617839237598, 20.963714290912041 ], [ -101.290617839237598, 20.964522774667749 ], [ -101.291426322993317, 20.964522774667749 ], [ -101.291426322993317, 20.964792269252982 ], [ -101.291695817578542, 20.964792269252982 ], [ -101.291695817578542, 20.965061763838218 ], [ -101.291426322993317, 20.965061763838218 ], [ -101.291426322993317, 20.966139742179163 ], [ -101.292773795919487, 20.966139742179163 ], [ -101.292773795919487, 20.966409236764399 ], [ -101.293043290504727, 20.966409236764399 ], [ -101.293043290504727, 20.966948225934871 ] ] ] ] } },
{ "type": "Feature", "properties": { "ZONA_MET": "Guanajuato", "INTENSIDAD": "Intensa", "T_PROM_POL": 4.0, "T_MIN_CIUD": 3.0, "DIF_TERMIC": 1.0 }, "geometry": { "type": "MultiPolygon", "coordinates": [ [ [ [ -101.296007730942321, 20.964253280082513 ], [ -101.295738236357082, 20.964253280082513 ], [ -101.295738236357082, 20.963983785497277 ], [ -101.295199247186616, 20.963983785497277 ], [ -101.295199247186616, 20.963714290912041 ], [ -101.294929752601377, 20.963714290912041 ], [ -101.294929752601377, 20.963175301741568 ], [ -101.294660258016137, 20.963175301741568 ], [ -101.294660258016137, 20.962905807156332 ], [ -101.296007730942321, 20.962905807156332 ], [ -101.296007730942321, 20.964253280082513 ] ] ] ] } },
{ "type": "Feature", "properties": { "ZONA_MET": "Guanajuato", "INTENSIDAD": "Intensa", "T_PROM_POL": 4.0, "T_MIN_CIUD": 3.0, "DIF_TERMIC": 1.0 }, "geometry": { "type": "MultiPolygon", "coordinates": [ [ [ [ -101.287922893385243, 20.963983785497277 ], [ -101.287383904214778, 20.963983785497277 ], [ -101.287383904214778, 20.962905807156332 ], [ -101.288461882555723, 20.962905807156332 ], [ -101.288461882555723, 20.963444796326804 ], [ -101.287922893385243, 20.963444796326804 ], [ -101.287922893385243, 20.963983785497277 ] ] ] ] } },
{ "type": "Feature", "properties": { "ZONA_MET": "Guanajuato", "INTENSIDAD": "Intensa", "T_PROM_POL": 4.0, "T_MIN_CIUD": 3.0, "DIF_TERMIC": 1.0 }, "geometry": { "type": "MultiPolygon", "coordinates": [ [ [ [ -101.279568561242939, 20.963444796326804 ], [ -101.27876007748722, 20.963444796326804 ], [ -101.27876007748722, 20.963175301741568 ], [ -101.278221088316755, 20.963175301741568 ], [ -101.278221088316755, 20.962636312571096 ], [ -101.278490582901995, 20.962636312571096 ], [ -101.278490582901995, 20.962905807156332 ], [ -101.27876007748722, 20.962905807156332 ], [ -101.27876007748722, 20.962636312571096 ], [ -101.2792990666577, 20.962636312571096 ], [ -101.2792990666577, 20.96236681798586 ], [ -101.279838055828165, 20.96236681798586 ], [ -101.279838055828165, 20.962097323400624 ], [ -101.280107550413405, 20.962097323400624 ], [ -101.280107550413405, 20.962636312571096 ], [ -101.279838055828165, 20.962636312571096 ], [ -101.279838055828165, 20.963175301741568 ], [ -101.279568561242939, 20.963175301741568 ], [ -101.279568561242939, 20.963444796326804 ] ] ] ] } },
{ "type": "Feature", "properties": { "ZONA_MET": "Guanajuato", "INTENSIDAD": "Intensa", "T_PROM_POL": 4.0, "T_MIN_CIUD": 3.0, "DIF_TERMIC": 1.0 }, "geometry": { "type": "MultiPolygon", "coordinates": [ [ [ [ -101.293043290504727, 20.964253280082513 ], [ -101.292504301334262, 20.964253280082513 ], [ -101.292504301334262, 20.963983785497277 ], [ -101.292234806749022, 20.963983785497277 ], [ -101.292234806749022, 20.964253280082513 ], [ -101.290887333822837, 20.964253280082513 ], [ -101.290887333822837, 20.963714290912041 ], [ -101.291156828408077, 20.963714290912041 ], [ -101.291156828408077, 20.963444796326804 ], [ -101.290887333822837, 20.963444796326804 ], [ -101.290887333822837, 20.962636312571096 ], [ -101.290617839237598, 20.962636312571096 ], [ -101.290617839237598, 20.96236681798586 ], [ -101.290887333822837, 20.96236681798586 ], [ -101.290887333822837, 20.962097323400624 ], [ -101.291156828408077, 20.962097323400624 ], [ -101.291156828408077, 20.961827828815387 ], [ -101.291426322993317, 20.961827828815387 ], [ -101.291426322993317, 20.96236681798586 ], [ -101.291156828408077, 20.96236681798586 ], [ -101.291156828408077, 20.962636312571096 ], [ -101.291965312163782, 20.962636312571096 ], [ -101.291965312163782, 20.962905807156332 ], [ -101.292234806749022, 20.962905807156332 ], [ -101.292234806749022, 20.963444796326804 ], [ -101.292773795919487, 20.963444796326804 ], [ -101.292773795919487, 20.963714290912041 ], [ -101.293043290504727, 20.963714290912041 ], [ -101.293043290504727, 20.964253280082513 ] ], [ [ -101.291695817578542, 20.963444796326804 ], [ -101.291695817578542, 20.962905807156332 ], [ -101.291426322993317, 20.962905807156332 ], [ -101.291426322993317, 20.963444796326804 ], [ -101.291695817578542, 20.963444796326804 ] ] ] ] } },
{ "type": "Feature", "properties": { "ZONA_MET": "Guanajuato", "INTENSIDAD": "Intensa", "T_PROM_POL": 4.0, "T_MIN_CIUD": 3.0, "DIF_TERMIC": 1.0 }, "geometry": { "type": "MultiPolygon", "coordinates": [ [ [ [ -101.296816214698026, 20.965061763838218 ], [ -101.295738236357082, 20.965061763838218 ], [ -101.295738236357082, 20.964792269252982 ], [ -101.296277225527561, 20.964792269252982 ], [ -101.296277225527561, 20.964522774667749 ], [ -101.296007730942321, 20.964522774667749 ], [ -101.296007730942321, 20.964253280082513 ], [ -101.296546720112786, 20.964253280082513 ], [ -101.296546720112786, 20.963714290912041 ], [ -101.296277225527561, 20.963714290912041 ], [ -101.296277225527561, 20.963175301741568 ], [ -101.296546720112786, 20.963175301741568 ], [ -101.296546720112786, 20.963444796326804 ], [ -101.297085709283266, 20.963444796326804 ], [ -101.297085709283266, 20.963175301741568 ], [ -101.296816214698026, 20.963175301741568 ], [ -101.296816214698026, 20.96236681798586 ], [ -101.296546720112786, 20.96236681798586 ], [ -101.296546720112786, 20.961827828815387 ], [ -101.296277225527561, 20.961827828815387 ], [ -101.296277225527561, 20.961558334230155 ], [ -101.297085709283266, 20.961558334230155 ], [ -101.297085709283266, 20.961827828815387 ], [ -101.297355203868506, 20.961827828815387 ], [ -101.297355203868506, 20.962905807156332 ], [ -101.297894193038971, 20.962905807156332 ], [ -101.297894193038971, 20.962097323400624 ], [ -101.298163687624211, 20.962097323400624 ], [ -101.298163687624211, 20.961558334230155 ], [ -101.298702676794676, 20.961558334230155 ], [ -101.298702676794676, 20.961288839644919 ], [ -101.298972171379916, 20.961288839644919 ], [ -101.298972171379916, 20.961019345059682 ], [ -101.299780655135621, 20.961019345059682 ], [ -101.299780655135621, 20.961558334230155 ], [ -101.299241665965155, 20.961558334230155 ], [ -101.299241665965155, 20.962097323400624 ], [ -101.298972171379916, 20.962097323400624 ], [ -101.298972171379916, 20.96236681798586 ], [ -101.298702676794676, 20.96236681798586 ], [ -101.298702676794676, 20.963175301741568 ], [ -101.298433182209436, 20.963175301741568 ], [ -101.298433182209436, 20.963444796326804 ], [ -101.297894193038971, 20.963444796326804 ], [ -101.297894193038971, 20.963175301741568 ], [ -101.297624698453731, 20.963175301741568 ], [ -101.297624698453731, 20.963444796326804 ], [ -101.297355203868506, 20.963444796326804 ], [ -101.297355203868506, 20.963714290912041 ], [ -101.296816214698026, 20.963714290912041 ], [ -101.296816214698026, 20.964522774667749 ], [ -101.297085709283266, 20.964522774667749 ], [ -101.297085709283266, 20.964792269252982 ], [ -101.296816214698026, 20.964792269252982 ], [ -101.296816214698026, 20.965061763838218 ] ] ] ] } },
{ "type": "Feature", "properties": { "ZONA_MET": "Guanajuato", "INTENSIDAD": "Intensa", "T_PROM_POL": 4.0, "T_MIN_CIUD": 3.0, "DIF_TERMIC": 1.0 }, "geometry": { "type": "MultiPolygon", "coordinates": [ [ [ [ -101.286844915044298, 20.96236681798586 ], [ -101.285497442118128, 20.96236681798586 ], [ -101.285497442118128, 20.962097323400624 ], [ -101.285227947532888, 20.962097323400624 ], [ -101.285227947532888, 20.961558334230155 ], [ -101.286305925873833, 20.961558334230155 ], [ -101.286305925873833, 20.961288839644919 ], [ -101.286575420459073, 20.961288839644919 ], [ -101.286575420459073, 20.960749850474446 ], [ -101.287114409629538, 20.960749850474446 ], [ -101.287114409629538, 20.961288839644919 ], [ -101.286844915044298, 20.961288839644919 ], [ -101.286844915044298, 20.96236681798586 ] ] ] ] } },
{ "type": "Feature", "properties": { "ZONA_MET": "Guanajuato", "INTENSIDAD": "Intensa", "T_PROM_POL": 4.0, "T_MIN_CIUD": 3.0, "DIF_TERMIC": 1.0 }, "geometry": { "type": "MultiPolygon", "coordinates": [ [ [ [ -101.276873615390571, 20.961019345059682 ], [ -101.276065131634866, 20.961019345059682 ], [ -101.276065131634866, 20.959941366718738 ], [ -101.277951593731515, 20.959941366718738 ], [ -101.277951593731515, 20.960210861303974 ], [ -101.27741260456105, 20.960210861303974 ], [ -101.27741260456105, 20.96048035588921 ], [ -101.276873615390571, 20.96048035588921 ], [ -101.276873615390571, 20.961019345059682 ] ] ] ] } },
{ "type": "Feature", "properties": { "ZONA_MET": "Guanajuato", "INTENSIDAD": "Extrema", "T_PROM_POL": 4.0, "T_MIN_CIUD": 3.0, "DIF_TERMIC": 1.0 }, "geometry": { "type": "MultiPolygon", "coordinates": [ [ [ [ -101.287383904214778, 20.962905807156332 ], [ -101.286844915044298, 20.962905807156332 ], [ -101.286844915044298, 20.961288839644919 ], [ -101.287114409629538, 20.961288839644919 ], [ -101.287114409629538, 20.960749850474446 ], [ -101.287383904214778, 20.960749850474446 ], [ -101.287383904214778, 20.96048035588921 ], [ -101.287653398800003, 20.96048035588921 ], [ -101.287653398800003, 20.960210861303974 ], [ -101.287922893385243, 20.960210861303974 ], [ -101.287922893385243, 20.959402377548265 ], [ -101.288731377140948, 20.959402377548265 ], [ -101.288731377140948, 20.959132882963029 ], [ -101.289270366311428, 20.959132882963029 ], [ -101.289270366311428, 20.959402377548265 ], [ -101.289000871726188, 20.959402377548265 ], [ -101.289000871726188, 20.959671872133502 ], [ -101.288731377140948, 20.959671872133502 ], [ -101.288731377140948, 20.959941366718738 ], [ -101.288461882555723, 20.959941366718738 ], [ -101.288461882555723, 20.960749850474446 ], [ -101.288192387970483, 20.960749850474446 ], [ -101.288192387970483, 20.961019345059682 ], [ -101.287922893385243, 20.961019345059682 ], [ -101.287922893385243, 20.961288839644919 ], [ -101.287653398800003, 20.961288839644919 ], [ -101.287653398800003, 20.961558334230155 ], [ -101.287383904214778, 20.961558334230155 ], [ -101.287383904214778, 20.962905807156332 ] ] ] ] } },
{ "type": "Feature", "properties": { "ZONA_MET": "Guanajuato", "INTENSIDAD": "Intensa", "T_PROM_POL": 4.0, "T_MIN_CIUD": 3.0, "DIF_TERMIC": 1.0 }, "geometry": { "type": "MultiPolygon", "coordinates": [ [ [ [ -101.280377044998644, 20.961827828815387 ], [ -101.279838055828165, 20.961827828815387 ], [ -101.279838055828165, 20.961558334230155 ], [ -101.279568561242939, 20.961558334230155 ], [ -101.279568561242939, 20.960749850474446 ], [ -101.280107550413405, 20.960749850474446 ], [ -101.280107550413405, 20.959941366718738 ], [ -101.279568561242939, 20.959941366718738 ], [ -101.279568561242939, 20.959671872133502 ], [ -101.280107550413405, 20.959671872133502 ], [ -101.280107550413405, 20.959402377548265 ], [ -101.279568561242939, 20.959402377548265 ], [ -101.279568561242939, 20.959132882963029 ], [ -101.27902957207246, 20.959132882963029 ], [ -101.27902957207246, 20.95859389379256 ], [ -101.279568561242939, 20.95859389379256 ], [ -101.279568561242939, 20.958863388377793 ], [ -101.279838055828165, 20.958863388377793 ], [ -101.279838055828165, 20.959132882963029 ], [ -101.280377044998644, 20.959132882963029 ], [ -101.280377044998644, 20.959402377548265 ], [ -101.280646539583884, 20.959402377548265 ], [ -101.280646539583884, 20.959941366718738 ], [ -101.280377044998644, 20.959941366718738 ], [ -101.280377044998644, 20.961019345059682 ], [ -101.280107550413405, 20.961019345059682 ], [ -101.280107550413405, 20.961288839644919 ], [ -101.280377044998644, 20.961288839644919 ], [ -101.280377044998644, 20.961827828815387 ] ] ] ] } },
{ "type": "Feature", "properties": { "ZONA_MET": "Guanajuato", "INTENSIDAD": "Intensa", "T_PROM_POL": 4.0, "T_MIN_CIUD": 3.0, "DIF_TERMIC": 1.0 }, "geometry": { "type": "MultiPolygon", "coordinates": [ [ [ [ -101.287922893385243, 20.960210861303974 ], [ -101.287383904214778, 20.960210861303974 ], [ -101.287383904214778, 20.959941366718738 ], [ -101.287114409629538, 20.959941366718738 ], [ -101.287114409629538, 20.959671872133502 ], [ -101.286844915044298, 20.959671872133502 ], [ -101.286844915044298, 20.959402377548265 ], [ -101.286036431288593, 20.959402377548265 ], [ -101.286036431288593, 20.959132882963029 ], [ -101.286305925873833, 20.959132882963029 ], [ -101.286305925873833, 20.958863388377793 ], [ -101.286036431288593, 20.958863388377793 ], [ -101.286036431288593, 20.95859389379256 ], [ -101.286575420459073, 20.95859389379256 ], [ -101.286575420459073, 20.958863388377793 ], [ -101.287114409629538, 20.958863388377793 ], [ -101.287114409629538, 20.958324399207324 ], [ -101.287383904214778, 20.958324399207324 ], [ -101.287383904214778, 20.95859389379256 ], [ -101.287653398800003, 20.95859389379256 ], [ -101.287653398800003, 20.958863388377793 ], [ -101.287922893385243, 20.958863388377793 ], [ -101.287922893385243, 20.959132882963029 ], [ -101.288192387970483, 20.959132882963029 ], [ -101.288192387970483, 20.95859389379256 ], [ -101.289270366311428, 20.95859389379256 ], [ -101.289270366311428, 20.959132882963029 ], [ -101.288731377140948, 20.959132882963029 ], [ -101.288731377140948, 20.959402377548265 ], [ -101.287922893385243, 20.959402377548265 ], [ -101.287922893385243, 20.960210861303974 ] ] ] ] } },
{ "type": "Feature", "properties": { "ZONA_MET": "Guanajuato", "INTENSIDAD": "Intensa", "T_PROM_POL": 4.0, "T_MIN_CIUD": 3.0, "DIF_TERMIC": 1.0 }, "geometry": { "type": "MultiPolygon", "coordinates": [ [ [ [ -101.290078850067133, 20.958054904622088 ], [ -101.289000871726188, 20.958054904622088 ], [ -101.289000871726188, 20.95724642086638 ], [ -101.290348344652372, 20.95724642086638 ], [ -101.290348344652372, 20.957515915451616 ], [ -101.290078850067133, 20.957515915451616 ], [ -101.290078850067133, 20.958054904622088 ] ] ] ] } },
{ "type": "Feature", "properties": { "ZONA_MET": "Guanajuato", "INTENSIDAD": "Intensa", "T_PROM_POL": 4.0, "T_MIN_CIUD": 3.0, "DIF_TERMIC": 1.0 }, "geometry": { "type": "MultiPolygon", "coordinates": [ [ [ [ -101.299780655135621, 20.959671872133502 ], [ -101.299511160550381, 20.959671872133502 ], [ -101.299511160550381, 20.959402377548265 ], [ -101.299241665965155, 20.959402377548265 ], [ -101.299241665965155, 20.959671872133502 ], [ -101.298972171379916, 20.959671872133502 ], [ -101.298972171379916, 20.957515915451616 ], [ -101.298702676794676, 20.957515915451616 ], [ -101.298702676794676, 20.95724642086638 ], [ -101.299241665965155, 20.95724642086638 ], [ -101.299241665965155, 20.956976926281143 ], [ -101.299511160550381, 20.956976926281143 ], [ -101.299511160550381, 20.956707431695907 ], [ -101.3003196443061, 20.956707431695907 ], [ -101.3003196443061, 20.956976926281143 ], [ -101.300589138891326, 20.956976926281143 ], [ -101.300589138891326, 20.95724642086638 ], [ -101.300858633476565, 20.95724642086638 ], [ -101.300858633476565, 20.957515915451616 ], [ -101.301128128061805, 20.957515915451616 ], [ -101.301128128061805, 20.957785410036852 ], [ -101.30166711723227, 20.957785410036852 ], [ -101.30166711723227, 20.957515915451616 ], [ -101.30220610640275, 20.957515915451616 ], [ -101.30220610640275, 20.958054904622088 ], [ -101.300589138891326, 20.958054904622088 ], [ -101.300589138891326, 20.957785410036852 ], [ -101.30005014972086, 20.957785410036852 ], [ -101.30005014972086, 20.958863388377793 ], [ -101.299780655135621, 20.958863388377793 ], [ -101.299780655135621, 20.959671872133502 ] ], [ [ -101.299780655135621, 20.95859389379256 ], [ -101.299780655135621, 20.958054904622088 ], [ -101.299511160550381, 20.958054904622088 ], [ -101.299511160550381, 20.957785410036852 ], [ -101.299241665965155, 20.957785410036852 ], [ -101.299241665965155, 20.95859389379256 ], [ -101.299780655135621, 20.95859389379256 ] ] ] ] } },
{ "type": "Feature", "properties": { "ZONA_MET": "Guanajuato", "INTENSIDAD": "Intensa", "T_PROM_POL": 4.0, "T_MIN_CIUD": 3.0, "DIF_TERMIC": 1.0 }, "geometry": { "type": "MultiPolygon", "coordinates": [ [ [ [ -101.314063868153127, 20.957515915451616 ], [ -101.313255384397408, 20.957515915451616 ], [ -101.313255384397408, 20.956437937110671 ], [ -101.313794373567887, 20.956437937110671 ], [ -101.313794373567887, 20.956707431695907 ], [ -101.314063868153127, 20.956707431695907 ], [ -101.314063868153127, 20.956976926281143 ], [ -101.314333362738353, 20.956976926281143 ], [ -101.314333362738353, 20.95724642086638 ], [ -101.314063868153127, 20.95724642086638 ], [ -101.314063868153127, 20.957515915451616 ] ] ] ] } },
{ "type": "Feature", "properties": { "ZONA_MET": "Guanajuato", "INTENSIDAD": "Intensa", "T_PROM_POL": 4.0, "T_MIN_CIUD": 3.0, "DIF_TERMIC": 1.0 }, "geometry": { "type": "MultiPolygon", "coordinates": [ [ [ [ -101.296816214698026, 20.955090464184494 ], [ -101.296007730942321, 20.955090464184494 ], [ -101.296007730942321, 20.954820969599258 ], [ -101.295468741771842, 20.954820969599258 ], [ -101.295468741771842, 20.954551475014021 ], [ -101.295738236357082, 20.954551475014021 ], [ -101.295738236357082, 20.954281980428785 ], [ -101.294929752601377, 20.954281980428785 ], [ -101.294929752601377, 20.954012485843549 ], [ -101.295468741771842, 20.954012485843549 ], [ -101.295468741771842, 20.953473496673077 ], [ -101.295738236357082, 20.953473496673077 ], [ -101.295738236357082, 20.953742991258313 ], [ -101.296277225527561, 20.953742991258313 ], [ -101.296277225527561, 20.954281980428785 ], [ -101.296546720112786, 20.954281980428785 ], [ -101.296546720112786, 20.954820969599258 ], [ -101.296816214698026, 20.954820969599258 ], [ -101.296816214698026, 20.955090464184494 ] ] ] ] } },
{ "type": "Feature", "properties": { "ZONA_MET": "Guanajuato", "INTENSIDAD": "Extrema", "T_PROM_POL": 4.0, "T_MIN_CIUD": 3.0, "DIF_TERMIC": 1.0 }, "geometry": { "type": "MultiPolygon", "coordinates": [ [ [ [ -101.286575420459073, 20.953742991258313 ], [ -101.286305925873833, 20.953742991258313 ], [ -101.286305925873833, 20.953473496673077 ], [ -101.285497442118128, 20.953473496673077 ], [ -101.285497442118128, 20.953204002087841 ], [ -101.283071990850999, 20.953204002087841 ], [ -101.283071990850999, 20.952934507502604 ], [ -101.285766936703354, 20.952934507502604 ], [ -101.285766936703354, 20.953204002087841 ], [ -101.286844915044298, 20.953204002087841 ], [ -101.286844915044298, 20.953473496673077 ], [ -101.286575420459073, 20.953473496673077 ], [ -101.286575420459073, 20.953742991258313 ] ] ] ] } },
{ "type": "Feature", "properties": { "ZONA_MET": "Guanajuato", "INTENSIDAD": "Intensa", "T_PROM_POL": 4.0, "T_MIN_CIUD": 3.0, "DIF_TERMIC": 1.0 }, "geometry": { "type": "MultiPolygon", "coordinates": [ [ [ [ -101.266093831981138, 20.954281980428785 ], [ -101.265554842810673, 20.954281980428785 ], [ -101.265554842810673, 20.954012485843549 ], [ -101.265285348225433, 20.954012485843549 ], [ -101.265285348225433, 20.953742991258313 ], [ -101.264746359054968, 20.953742991258313 ], [ -101.264746359054968, 20.953473496673077 ], [ -101.265015853640193, 20.953473496673077 ], [ -101.265015853640193, 20.953204002087841 ], [ -101.264746359054968, 20.953204002087841 ], [ -101.264746359054968, 20.952934507502604 ], [ -101.265015853640193, 20.952934507502604 ], [ -101.265015853640193, 20.952665012917372 ], [ -101.265285348225433, 20.952665012917372 ], [ -101.265285348225433, 20.953204002087841 ], [ -101.266093831981138, 20.953204002087841 ], [ -101.266093831981138, 20.953473496673077 ], [ -101.265824337395912, 20.953473496673077 ], [ -101.265824337395912, 20.954012485843549 ], [ -101.266093831981138, 20.954012485843549 ], [ -101.266093831981138, 20.954281980428785 ] ] ] ] } },
{ "type": "Feature", "properties": { "ZONA_MET": "Guanajuato", "INTENSIDAD": "Intensa", "T_PROM_POL": 4.0, "T_MIN_CIUD": 3.0, "DIF_TERMIC": 1.0 }, "geometry": { "type": "MultiPolygon", "coordinates": [ [ [ [ -101.293312785089967, 20.952395518332136 ], [ -101.292504301334262, 20.952395518332136 ], [ -101.292504301334262, 20.952126023746899 ], [ -101.291426322993317, 20.952126023746899 ], [ -101.291426322993317, 20.952395518332136 ], [ -101.291156828408077, 20.952395518332136 ], [ -101.291156828408077, 20.952126023746899 ], [ -101.290887333822837, 20.952126023746899 ], [ -101.290887333822837, 20.951587034576427 ], [ -101.292773795919487, 20.951587034576427 ], [ -101.292773795919487, 20.952126023746899 ], [ -101.293312785089967, 20.952126023746899 ], [ -101.293312785089967, 20.952395518332136 ] ] ] ] } },
{ "type": "Feature", "properties": { "ZONA_MET": "Guanajuato", "INTENSIDAD": "Intensa", "T_PROM_POL": 4.0, "T_MIN_CIUD": 3.0, "DIF_TERMIC": 1.0 }, "geometry": { "type": "MultiPolygon", "coordinates": [ [ [ [ -101.283880474606704, 20.952395518332136 ], [ -101.283341485436239, 20.952395518332136 ], [ -101.283341485436239, 20.952126023746899 ], [ -101.282263507095294, 20.952126023746899 ], [ -101.282263507095294, 20.951856529161663 ], [ -101.282533001680534, 20.951856529161663 ], [ -101.282533001680534, 20.951587034576427 ], [ -101.282263507095294, 20.951587034576427 ], [ -101.282263507095294, 20.951317539991191 ], [ -101.283341485436239, 20.951317539991191 ], [ -101.283341485436239, 20.951048045405955 ], [ -101.283610980021479, 20.951048045405955 ], [ -101.283610980021479, 20.952126023746899 ], [ -101.283880474606704, 20.952126023746899 ], [ -101.283880474606704, 20.952395518332136 ] ] ] ] } },
{ "type": "Feature", "properties": { "ZONA_MET": "Guanajuato", "INTENSIDAD": "Intensa", "T_PROM_POL": 4.0, "T_MIN_CIUD": 3.0, "DIF_TERMIC": 1.0 }, "geometry": { "type": "MultiPolygon", "coordinates": [ [ [ [ -101.286305925873833, 20.95724642086638 ], [ -101.286036431288593, 20.95724642086638 ], [ -101.286036431288593, 20.956707431695907 ], [ -101.286305925873833, 20.956707431695907 ], [ -101.286305925873833, 20.956437937110671 ], [ -101.286575420459073, 20.956437937110671 ], [ -101.286575420459073, 20.955090464184494 ], [ -101.286844915044298, 20.955090464184494 ], [ -101.286844915044298, 20.954551475014021 ], [ -101.287114409629538, 20.954551475014021 ], [ -101.287114409629538, 20.953742991258313 ], [ -101.286844915044298, 20.953742991258313 ], [ -101.286844915044298, 20.953204002087841 ], [ -101.287383904214778, 20.953204002087841 ], [ -101.287383904214778, 20.952395518332136 ], [ -101.287653398800003, 20.952395518332136 ], [ -101.287653398800003, 20.952126023746899 ], [ -101.287922893385243, 20.952126023746899 ], [ -101.287922893385243, 20.951587034576427 ], [ -101.288192387970483, 20.951587034576427 ], [ -101.288192387970483, 20.951317539991191 ], [ -101.288461882555723, 20.951317539991191 ], [ -101.288461882555723, 20.951048045405955 ], [ -101.289809355481893, 20.951048045405955 ], [ -101.289809355481893, 20.951317539991191 ], [ -101.290887333822837, 20.951317539991191 ], [ -101.290887333822837, 20.951587034576427 ], [ -101.290617839237598, 20.951587034576427 ], [ -101.290617839237598, 20.952126023746899 ], [ -101.290348344652372, 20.952126023746899 ], [ -101.290348344652372, 20.952395518332136 ], [ -101.290617839237598, 20.952395518332136 ], [ -101.290617839237598, 20.952934507502604 ], [ -101.290348344652372, 20.952934507502604 ], [ -101.290348344652372, 20.953473496673077 ], [ -101.290617839237598, 20.953473496673077 ], [ -101.290617839237598, 20.953742991258313 ], [ -101.290348344652372, 20.953742991258313 ], [ -101.290348344652372, 20.954012485843549 ], [ -101.290078850067133, 20.954012485843549 ], [ -101.290078850067133, 20.953742991258313 ], [ -101.289539860896667, 20.953742991258313 ], [ -101.289539860896667, 20.953473496673077 ], [ -101.289270366311428, 20.953473496673077 ], [ -101.289270366311428, 20.953742991258313 ], [ -101.289000871726188, 20.953742991258313 ], [ -101.289000871726188, 20.954012485843549 ], [ -101.287922893385243, 20.954012485843549 ], [ -101.287922893385243, 20.954551475014021 ], [ -101.287653398800003, 20.954551475014021 ], [ -101.287653398800003, 20.954820969599258 ], [ -101.287922893385243, 20.954820969599258 ], [ -101.287922893385243, 20.955090464184494 ], [ -101.287383904214778, 20.955090464184494 ], [ -101.287383904214778, 20.95535995876973 ], [ -101.287653398800003, 20.95535995876973 ], [ -101.287653398800003, 20.955629453354966 ], [ -101.287383904214778, 20.955629453354966 ], [ -101.287383904214778, 20.956168442525435 ], [ -101.286844915044298, 20.956168442525435 ], [ -101.286844915044298, 20.956707431695907 ], [ -101.286575420459073, 20.956707431695907 ], [ -101.286575420459073, 20.956976926281143 ], [ -101.286305925873833, 20.956976926281143 ], [ -101.286305925873833, 20.95724642086638 ] ], [ [ -101.287922893385243, 20.954012485843549 ], [ -101.287922893385243, 20.953742991258313 ], [ -101.287653398800003, 20.953742991258313 ], [ -101.287653398800003, 20.954012485843549 ], [ -101.287922893385243, 20.954012485843549 ] ], [ [ -101.290078850067133, 20.953473496673077 ], [ -101.290078850067133, 20.953204002087841 ], [ -101.289539860896667, 20.953204002087841 ], [ -101.289539860896667, 20.953473496673077 ], [ -101.290078850067133, 20.953473496673077 ] ], [ [ -101.289270366311428, 20.953204002087841 ], [ -101.289270366311428, 20.952934507502604 ], [ -101.289539860896667, 20.952934507502604 ], [ -101.289539860896667, 20.951587034576427 ], [ -101.289270366311428, 20.951587034576427 ], [ -101.289270366311428, 20.951856529161663 ], [ -101.289000871726188, 20.951856529161663 ], [ -101.289000871726188, 20.951317539991191 ], [ -101.288731377140948, 20.951317539991191 ], [ -101.288731377140948, 20.951856529161663 ], [ -101.288461882555723, 20.951856529161663 ], [ -101.288461882555723, 20.952126023746899 ], [ -101.288192387970483, 20.952126023746899 ], [ -101.288192387970483, 20.952665012917372 ], [ -101.287922893385243, 20.952665012917372 ], [ -101.287922893385243, 20.952934507502604 ], [ -101.288192387970483, 20.952934507502604 ], [ -101.288192387970483, 20.953204002087841 ], [ -101.289270366311428, 20.953204002087841 ] ], [ [ -101.290078850067133, 20.952395518332136 ], [ -101.290078850067133, 20.952126023746899 ], [ -101.289809355481893, 20.952126023746899 ], [ -101.289809355481893, 20.952395518332136 ], [ -101.290078850067133, 20.952395518332136 ] ] ] ] } },
{ "type": "Feature", "properties": { "ZONA_MET": "Guanajuato", "INTENSIDAD": "Intensa", "T_PROM_POL": 4.0, "T_MIN_CIUD": 3.0, "DIF_TERMIC": 1.0 }, "geometry": { "type": "MultiPolygon", "coordinates": [ [ [ [ -101.299511160550381, 20.950778550820718 ], [ -101.298702676794676, 20.950778550820718 ], [ -101.298702676794676, 20.950509056235482 ], [ -101.298433182209436, 20.950509056235482 ], [ -101.298433182209436, 20.950239561650246 ], [ -101.297894193038971, 20.950239561650246 ], [ -101.297894193038971, 20.94997006706501 ], [ -101.298163687624211, 20.94997006706501 ], [ -101.298163687624211, 20.949700572479777 ], [ -101.298702676794676, 20.949700572479777 ], [ -101.298702676794676, 20.949161583309305 ], [ -101.298972171379916, 20.949161583309305 ], [ -101.298972171379916, 20.94997006706501 ], [ -101.299241665965155, 20.94997006706501 ], [ -101.299241665965155, 20.950509056235482 ], [ -101.299511160550381, 20.950509056235482 ], [ -101.299511160550381, 20.950778550820718 ] ] ] ] } },
{ "type": "Feature", "properties": { "ZONA_MET": "Guanajuato", "INTENSIDAD": "Intensa", "T_PROM_POL": 4.0, "T_MIN_CIUD": 3.0, "DIF_TERMIC": 1.0 }, "geometry": { "type": "MultiPolygon", "coordinates": [ [ [ [ -101.291695817578542, 20.947005626627416 ], [ -101.291426322993317, 20.947005626627416 ], [ -101.291426322993317, 20.946736132042183 ], [ -101.290887333822837, 20.946736132042183 ], [ -101.290887333822837, 20.946197142871711 ], [ -101.291965312163782, 20.946197142871711 ], [ -101.291965312163782, 20.945927648286474 ], [ -101.292504301334262, 20.945927648286474 ], [ -101.292504301334262, 20.946197142871711 ], [ -101.292234806749022, 20.946197142871711 ], [ -101.292234806749022, 20.946736132042183 ], [ -101.291695817578542, 20.946736132042183 ], [ -101.291695817578542, 20.947005626627416 ] ] ] ] } },
{ "type": "Feature", "properties": { "ZONA_MET": "Guanajuato", "INTENSIDAD": "Intensa", "T_PROM_POL": 4.0, "T_MIN_CIUD": 3.0, "DIF_TERMIC": 1.0 }, "geometry": { "type": "MultiPolygon", "coordinates": [ [ [ [ -101.289000871726188, 20.945119164530766 ], [ -101.288461882555723, 20.945119164530766 ], [ -101.288461882555723, 20.944041186189821 ], [ -101.287383904214778, 20.944041186189821 ], [ -101.287383904214778, 20.943771691604589 ], [ -101.287653398800003, 20.943771691604589 ], [ -101.287653398800003, 20.943502197019352 ], [ -101.288192387970483, 20.943502197019352 ], [ -101.288192387970483, 20.943232702434116 ], [ -101.288461882555723, 20.943232702434116 ], [ -101.288461882555723, 20.943771691604589 ], [ -101.288731377140948, 20.943771691604589 ], [ -101.288731377140948, 20.944041186189821 ], [ -101.289539860896667, 20.944041186189821 ], [ -101.289539860896667, 20.944310680775057 ], [ -101.289809355481893, 20.944310680775057 ], [ -101.289809355481893, 20.944580175360294 ], [ -101.289000871726188, 20.944580175360294 ], [ -101.289000871726188, 20.945119164530766 ] ] ] ] } },
{ "type": "Feature", "properties": { "ZONA_MET": "Guanajuato", "INTENSIDAD": "Intensa", "T_PROM_POL": 4.0, "T_MIN_CIUD": 3.0, "DIF_TERMIC": 1.0 }, "geometry": { "type": "MultiPolygon", "coordinates": [ [ [ [ -101.281994012510054, 20.943771691604589 ], [ -101.281455023339589, 20.943771691604589 ], [ -101.281455023339589, 20.943502197019352 ], [ -101.28091603416911, 20.943502197019352 ], [ -101.28091603416911, 20.943771691604589 ], [ -101.280377044998644, 20.943771691604589 ], [ -101.280377044998644, 20.943232702434116 ], [ -101.280646539583884, 20.943232702434116 ], [ -101.280646539583884, 20.94296320784888 ], [ -101.28091603416911, 20.94296320784888 ], [ -101.28091603416911, 20.943232702434116 ], [ -101.281455023339589, 20.943232702434116 ], [ -101.281455023339589, 20.94296320784888 ], [ -101.281724517924815, 20.94296320784888 ], [ -101.281724517924815, 20.943232702434116 ], [ -101.281994012510054, 20.943232702434116 ], [ -101.281994012510054, 20.943771691604589 ] ] ] ] } },
{ "type": "Feature", "properties": { "ZONA_MET": "Guanajuato", "INTENSIDAD": "Intensa", "T_PROM_POL": 4.0, "T_MIN_CIUD": 3.0, "DIF_TERMIC": 1.0 }, "geometry": { "type": "MultiPolygon", "coordinates": [ [ [ [ -101.286575420459073, 20.944310680775057 ], [ -101.286036431288593, 20.944310680775057 ], [ -101.286036431288593, 20.944041186189821 ], [ -101.285227947532888, 20.944041186189821 ], [ -101.285227947532888, 20.943771691604589 ], [ -101.284419463777184, 20.943771691604589 ], [ -101.284419463777184, 20.94296320784888 ], [ -101.284149969191944, 20.94296320784888 ], [ -101.284149969191944, 20.941885229507935 ], [ -101.284688958362409, 20.941885229507935 ], [ -101.284688958362409, 20.942154724093172 ], [ -101.284419463777184, 20.942154724093172 ], [ -101.284419463777184, 20.942693713263644 ], [ -101.285766936703354, 20.942693713263644 ], [ -101.285766936703354, 20.94296320784888 ], [ -101.285497442118128, 20.94296320784888 ], [ -101.285497442118128, 20.943232702434116 ], [ -101.286575420459073, 20.943232702434116 ], [ -101.286575420459073, 20.944310680775057 ] ] ] ] } },
{ "type": "Feature", "properties": { "ZONA_MET": "Guanajuato", "INTENSIDAD": "Intensa", "T_PROM_POL": 4.0, "T_MIN_CIUD": 3.0, "DIF_TERMIC": 1.0 }, "geometry": { "type": "MultiPolygon", "coordinates": [ [ [ [ -101.280377044998644, 20.943232702434116 ], [ -101.2792990666577, 20.943232702434116 ], [ -101.2792990666577, 20.94296320784888 ], [ -101.27876007748722, 20.94296320784888 ], [ -101.27876007748722, 20.941885229507935 ], [ -101.2792990666577, 20.941885229507935 ], [ -101.2792990666577, 20.941346240337463 ], [ -101.280107550413405, 20.941346240337463 ], [ -101.280107550413405, 20.941615734922699 ], [ -101.280377044998644, 20.941615734922699 ], [ -101.280377044998644, 20.941346240337463 ], [ -101.28091603416911, 20.941346240337463 ], [ -101.28091603416911, 20.941615734922699 ], [ -101.281185528754349, 20.941615734922699 ], [ -101.281185528754349, 20.941885229507935 ], [ -101.28091603416911, 20.941885229507935 ], [ -101.28091603416911, 20.942424218678408 ], [ -101.280377044998644, 20.942424218678408 ], [ -101.280377044998644, 20.943232702434116 ] ], [ [ -101.280107550413405, 20.942693713263644 ], [ -101.280107550413405, 20.942424218678408 ], [ -101.279838055828165, 20.942424218678408 ], [ -101.279838055828165, 20.942693713263644 ], [ -101.280107550413405, 20.942693713263644 ] ], [ [ -101.280377044998644, 20.942424218678408 ], [ -101.280377044998644, 20.941885229507935 ], [ -101.280107550413405, 20.941885229507935 ], [ -101.280107550413405, 20.942424218678408 ], [ -101.280377044998644, 20.942424218678408 ] ] ] ] } },
{ "type": "Feature", "properties": { "ZONA_MET": "Guanajuato", "INTENSIDAD": "Intensa", "T_PROM_POL": 4.0, "T_MIN_CIUD": 3.0, "DIF_TERMIC": 1.0 }, "geometry": { "type": "MultiPolygon", "coordinates": [ [ [ [ -101.278221088316755, 20.944310680775057 ], [ -101.277951593731515, 20.944310680775057 ], [ -101.277951593731515, 20.944041186189821 ], [ -101.27741260456105, 20.944041186189821 ], [ -101.27741260456105, 20.943502197019352 ], [ -101.27714310997581, 20.943502197019352 ], [ -101.27714310997581, 20.943232702434116 ], [ -101.276873615390571, 20.943232702434116 ], [ -101.276873615390571, 20.94296320784888 ], [ -101.27714310997581, 20.94296320784888 ], [ -101.27714310997581, 20.941885229507935 ], [ -101.276873615390571, 20.941885229507935 ], [ -101.276873615390571, 20.940807251166994 ], [ -101.27741260456105, 20.940807251166994 ], [ -101.27741260456105, 20.940537756581758 ], [ -101.27876007748722, 20.940537756581758 ], [ -101.27876007748722, 20.940807251166994 ], [ -101.27902957207246, 20.940807251166994 ], [ -101.27902957207246, 20.941615734922699 ], [ -101.27876007748722, 20.941615734922699 ], [ -101.27876007748722, 20.941885229507935 ], [ -101.277951593731515, 20.941885229507935 ], [ -101.277951593731515, 20.942154724093172 ], [ -101.27741260456105, 20.942154724093172 ], [ -101.27741260456105, 20.943232702434116 ], [ -101.27768209914629, 20.943232702434116 ], [ -101.27768209914629, 20.943502197019352 ], [ -101.277951593731515, 20.943502197019352 ], [ -101.277951593731515, 20.943232702434116 ], [ -101.278490582901995, 20.943232702434116 ], [ -101.278490582901995, 20.944041186189821 ], [ -101.278221088316755, 20.944041186189821 ], [ -101.278221088316755, 20.944310680775057 ] ] ] ] } },
{ "type": "Feature", "properties": { "ZONA_MET": "Guanajuato", "INTENSIDAD": "Extrema", "T_PROM_POL": 4.0, "T_MIN_CIUD": 3.0, "DIF_TERMIC": 1.0 }, "geometry": { "type": "MultiPolygon", "coordinates": [ [ [ [ -101.280107550413405, 20.941346240337463 ], [ -101.2792990666577, 20.941346240337463 ], [ -101.2792990666577, 20.941076745752227 ], [ -101.27902957207246, 20.941076745752227 ], [ -101.27902957207246, 20.940807251166994 ], [ -101.27876007748722, 20.940807251166994 ], [ -101.27876007748722, 20.940537756581758 ], [ -101.27902957207246, 20.940537756581758 ], [ -101.27902957207246, 20.940268261996522 ], [ -101.279568561242939, 20.940268261996522 ], [ -101.279568561242939, 20.940537756581758 ], [ -101.280107550413405, 20.940537756581758 ], [ -101.280107550413405, 20.941346240337463 ] ] ] ] } },
{ "type": "Feature", "properties": { "ZONA_MET": "Guanajuato", "INTENSIDAD": "Intensa", "T_PROM_POL": 4.0, "T_MIN_CIUD": 3.0, "DIF_TERMIC": 1.0 }, "geometry": { "type": "MultiPolygon", "coordinates": [ [ [ [ -101.272292207441566, 20.940268261996522 ], [ -101.272022712856327, 20.940268261996522 ], [ -101.272022712856327, 20.93972927282605 ], [ -101.272292207441566, 20.93972927282605 ], [ -101.272292207441566, 20.939459778240813 ], [ -101.271753218271101, 20.939459778240813 ], [ -101.271753218271101, 20.939190283655577 ], [ -101.271483723685861, 20.939190283655577 ], [ -101.271483723685861, 20.938651294485105 ], [ -101.271753218271101, 20.938651294485105 ], [ -101.271753218271101, 20.938920789070341 ], [ -101.272292207441566, 20.938920789070341 ], [ -101.272292207441566, 20.938651294485105 ], [ -101.272561702026806, 20.938651294485105 ], [ -101.272561702026806, 20.939459778240813 ], [ -101.272831196612032, 20.939459778240813 ], [ -101.272831196612032, 20.93972927282605 ], [ -101.272561702026806, 20.93972927282605 ], [ -101.272561702026806, 20.939998767411286 ], [ -101.272292207441566, 20.939998767411286 ], [ -101.272292207441566, 20.940268261996522 ] ] ] ] } },
{ "type": "Feature", "properties": { "ZONA_MET": "Guanajuato", "INTENSIDAD": "Intensa", "T_PROM_POL": 4.0, "T_MIN_CIUD": 3.0, "DIF_TERMIC": 1.0 }, "geometry": { "type": "MultiPolygon", "coordinates": [ [ [ [ -101.280107550413405, 20.940537756581758 ], [ -101.279568561242939, 20.940537756581758 ], [ -101.279568561242939, 20.939998767411286 ], [ -101.2792990666577, 20.939998767411286 ], [ -101.2792990666577, 20.939459778240813 ], [ -101.27902957207246, 20.939459778240813 ], [ -101.27902957207246, 20.938381799899869 ], [ -101.27876007748722, 20.938381799899869 ], [ -101.27876007748722, 20.937573316144164 ], [ -101.278490582901995, 20.937573316144164 ], [ -101.278490582901995, 20.937303821558928 ], [ -101.27902957207246, 20.937303821558928 ], [ -101.27902957207246, 20.938112305314633 ], [ -101.2792990666577, 20.938112305314633 ], [ -101.2792990666577, 20.938651294485105 ], [ -101.279568561242939, 20.938651294485105 ], [ -101.279568561242939, 20.938920789070341 ], [ -101.280646539583884, 20.938920789070341 ], [ -101.280646539583884, 20.939190283655577 ], [ -101.280377044998644, 20.939190283655577 ], [ -101.280377044998644, 20.939459778240813 ], [ -101.280107550413405, 20.939459778240813 ], [ -101.280107550413405, 20.939998767411286 ], [ -101.280377044998644, 20.939998767411286 ], [ -101.280377044998644, 20.940268261996522 ], [ -101.280107550413405, 20.940268261996522 ], [ -101.280107550413405, 20.940537756581758 ] ] ] ] } },
{ "type": "Feature", "properties": { "ZONA_MET": "Guanajuato", "INTENSIDAD": "Intensa", "T_PROM_POL": 4.0, "T_MIN_CIUD": 3.0, "DIF_TERMIC": 1.0 }, "geometry": { "type": "MultiPolygon", "coordinates": [ [ [ [ -101.286844915044298, 20.938381799899869 ], [ -101.286036431288593, 20.938381799899869 ], [ -101.286036431288593, 20.938112305314633 ], [ -101.286575420459073, 20.938112305314633 ], [ -101.286575420459073, 20.937303821558928 ], [ -101.285766936703354, 20.937303821558928 ], [ -101.285766936703354, 20.937034326973691 ], [ -101.285497442118128, 20.937034326973691 ], [ -101.285497442118128, 20.936495337803219 ], [ -101.285766936703354, 20.936495337803219 ], [ -101.285766936703354, 20.936225843217983 ], [ -101.286036431288593, 20.936225843217983 ], [ -101.286036431288593, 20.936495337803219 ], [ -101.286305925873833, 20.936495337803219 ], [ -101.286305925873833, 20.936764832388455 ], [ -101.286575420459073, 20.936764832388455 ], [ -101.286575420459073, 20.936495337803219 ], [ -101.287114409629538, 20.936495337803219 ], [ -101.287114409629538, 20.9378428107294 ], [ -101.286844915044298, 20.9378428107294 ], [ -101.286844915044298, 20.938381799899869 ] ] ] ] } },
{ "type": "Feature", "properties": { "ZONA_MET": "Guanajuato", "INTENSIDAD": "Intensa", "T_PROM_POL": 4.0, "T_MIN_CIUD": 3.0, "DIF_TERMIC": 1.0 }, "geometry": { "type": "MultiPolygon", "coordinates": [ [ [ [ -101.268249788663027, 20.938112305314633 ], [ -101.267980294077788, 20.938112305314633 ], [ -101.267980294077788, 20.936764832388455 ], [ -101.268249788663027, 20.936764832388455 ], [ -101.268249788663027, 20.936495337803219 ], [ -101.267980294077788, 20.936495337803219 ], [ -101.267980294077788, 20.935956348632747 ], [ -101.268249788663027, 20.935956348632747 ], [ -101.268249788663027, 20.936225843217983 ], [ -101.268788777833507, 20.936225843217983 ], [ -101.268788777833507, 20.936764832388455 ], [ -101.268519283248267, 20.936764832388455 ], [ -101.268519283248267, 20.937303821558928 ], [ -101.268249788663027, 20.937303821558928 ], [ -101.268249788663027, 20.938112305314633 ] ] ] ] } },
{ "type": "Feature", "properties": { "ZONA_MET": "Guanajuato", "INTENSIDAD": "Intensa", "T_PROM_POL": 4.0, "T_MIN_CIUD": 3.0, "DIF_TERMIC": 1.0 }, "geometry": { "type": "MultiPolygon", "coordinates": [ [ [ [ -101.286844915044298, 20.935417359462274 ], [ -101.286305925873833, 20.935417359462274 ], [ -101.286305925873833, 20.935147864877038 ], [ -101.286036431288593, 20.935147864877038 ], [ -101.286036431288593, 20.935417359462274 ], [ -101.285497442118128, 20.935417359462274 ], [ -101.285497442118128, 20.934878370291802 ], [ -101.285227947532888, 20.934878370291802 ], [ -101.285227947532888, 20.934608875706569 ], [ -101.285766936703354, 20.934608875706569 ], [ -101.285766936703354, 20.932991908195152 ], [ -101.286036431288593, 20.932991908195152 ], [ -101.286036431288593, 20.933261402780388 ], [ -101.286305925873833, 20.933261402780388 ], [ -101.286305925873833, 20.933800391950861 ], [ -101.286036431288593, 20.933800391950861 ], [ -101.286036431288593, 20.934878370291802 ], [ -101.286844915044298, 20.934878370291802 ], [ -101.286844915044298, 20.935417359462274 ] ] ] ] } },
{ "type": "Feature", "properties": { "ZONA_MET": "Guanajuato", "INTENSIDAD": "Intensa", "T_PROM_POL": 4.0, "T_MIN_CIUD": 3.0, "DIF_TERMIC": 1.0 }, "geometry": { "type": "MultiPolygon", "coordinates": [ [ [ [ -101.282263507095294, 20.934878370291802 ], [ -101.281994012510054, 20.934878370291802 ], [ -101.281994012510054, 20.934608875706569 ], [ -101.281724517924815, 20.934608875706569 ], [ -101.281724517924815, 20.934069886536097 ], [ -101.281994012510054, 20.934069886536097 ], [ -101.281994012510054, 20.933261402780388 ], [ -101.281455023339589, 20.933261402780388 ], [ -101.281455023339589, 20.932991908195152 ], [ -101.281994012510054, 20.932991908195152 ], [ -101.281994012510054, 20.932722413609916 ], [ -101.281455023339589, 20.932722413609916 ], [ -101.281455023339589, 20.93245291902468 ], [ -101.282263507095294, 20.93245291902468 ], [ -101.282263507095294, 20.932183424439444 ], [ -101.281185528754349, 20.932183424439444 ], [ -101.281185528754349, 20.931105446098503 ], [ -101.28091603416911, 20.931105446098503 ], [ -101.28091603416911, 20.930296962342794 ], [ -101.281185528754349, 20.930296962342794 ], [ -101.281185528754349, 20.93056645692803 ], [ -101.281455023339589, 20.93056645692803 ], [ -101.281455023339589, 20.930027467757558 ], [ -101.281994012510054, 20.930027467757558 ], [ -101.281994012510054, 20.931105446098503 ], [ -101.281724517924815, 20.931105446098503 ], [ -101.281724517924815, 20.931374940683739 ], [ -101.281455023339589, 20.931374940683739 ], [ -101.281455023339589, 20.931913929854208 ], [ -101.282533001680534, 20.931913929854208 ], [ -101.282533001680534, 20.931374940683739 ], [ -101.282802496265759, 20.931374940683739 ], [ -101.282802496265759, 20.931644435268975 ], [ -101.283071990850999, 20.931644435268975 ], [ -101.283071990850999, 20.931913929854208 ], [ -101.283880474606704, 20.931913929854208 ], [ -101.283880474606704, 20.932183424439444 ], [ -101.283610980021479, 20.932183424439444 ], [ -101.283610980021479, 20.93245291902468 ], [ -101.283341485436239, 20.93245291902468 ], [ -101.283341485436239, 20.932183424439444 ], [ -101.283071990850999, 20.932183424439444 ], [ -101.283071990850999, 20.932722413609916 ], [ -101.282802496265759, 20.932722413609916 ], [ -101.282802496265759, 20.932991908195152 ], [ -101.283341485436239, 20.932991908195152 ], [ -101.283341485436239, 20.933261402780388 ], [ -101.282533001680534, 20.933261402780388 ], [ -101.282533001680534, 20.934069886536097 ], [ -101.282263507095294, 20.934069886536097 ], [ -101.282263507095294, 20.934878370291802 ] ] ] ] } },
{ "type": "Feature", "properties": { "ZONA_MET": "Guanajuato", "INTENSIDAD": "Intensa", "T_PROM_POL": 4.0, "T_MIN_CIUD": 3.0, "DIF_TERMIC": 1.0 }, "geometry": { "type": "MultiPolygon", "coordinates": [ [ [ [ -101.274717658708695, 20.931105446098503 ], [ -101.274178669538216, 20.931105446098503 ], [ -101.274178669538216, 20.93056645692803 ], [ -101.273639680367751, 20.93056645692803 ], [ -101.273639680367751, 20.930835951513266 ], [ -101.273370185782511, 20.930835951513266 ], [ -101.273370185782511, 20.93056645692803 ], [ -101.272831196612032, 20.93056645692803 ], [ -101.272831196612032, 20.930296962342794 ], [ -101.273100691197271, 20.930296962342794 ], [ -101.273100691197271, 20.929757973172322 ], [ -101.273370185782511, 20.929757973172322 ], [ -101.273370185782511, 20.930296962342794 ], [ -101.273909174952976, 20.930296962342794 ], [ -101.273909174952976, 20.929757973172322 ], [ -101.274448164123456, 20.929757973172322 ], [ -101.274448164123456, 20.929488478587086 ], [ -101.274717658708695, 20.929488478587086 ], [ -101.274717658708695, 20.929757973172322 ], [ -101.274987153293921, 20.929757973172322 ], [ -101.274987153293921, 20.929218984001849 ], [ -101.275256647879161, 20.929218984001849 ], [ -101.275256647879161, 20.928949489416613 ], [ -101.2755261424644, 20.928949489416613 ], [ -101.2755261424644, 20.930027467757558 ], [ -101.274987153293921, 20.930027467757558 ], [ -101.274987153293921, 20.93056645692803 ], [ -101.274717658708695, 20.93056645692803 ], [ -101.274717658708695, 20.931105446098503 ] ] ] ] } },
{ "type": "Feature", "properties": { "ZONA_MET": "Guanajuato", "INTENSIDAD": "Intensa", "T_PROM_POL": 4.0, "T_MIN_CIUD": 3.0, "DIF_TERMIC": 1.0 }, "geometry": { "type": "MultiPolygon", "coordinates": [ [ [ [ -101.28091603416911, 20.930027467757558 ], [ -101.280646539583884, 20.930027467757558 ], [ -101.280646539583884, 20.929757973172322 ], [ -101.280377044998644, 20.929757973172322 ], [ -101.280377044998644, 20.928949489416613 ], [ -101.280646539583884, 20.928949489416613 ], [ -101.280646539583884, 20.928679994831381 ], [ -101.28091603416911, 20.928679994831381 ], [ -101.28091603416911, 20.928141005660908 ], [ -101.281724517924815, 20.928141005660908 ], [ -101.281724517924815, 20.928410500246144 ], [ -101.281455023339589, 20.928410500246144 ], [ -101.281455023339589, 20.928679994831381 ], [ -101.281185528754349, 20.928679994831381 ], [ -101.281185528754349, 20.929757973172322 ], [ -101.28091603416911, 20.929757973172322 ], [ -101.28091603416911, 20.930027467757558 ] ] ] ] } },
{ "type": "Feature", "properties": { "ZONA_MET": "Guanajuato", "INTENSIDAD": "Intensa", "T_PROM_POL": 4.0, "T_MIN_CIUD": 3.0, "DIF_TERMIC": 1.0 }, "geometry": { "type": "MultiPolygon", "coordinates": [ [ [ [ -101.274448164123456, 20.929218984001849 ], [ -101.273370185782511, 20.929218984001849 ], [ -101.273370185782511, 20.928949489416613 ], [ -101.273909174952976, 20.928949489416613 ], [ -101.273909174952976, 20.927871511075672 ], [ -101.274178669538216, 20.927871511075672 ], [ -101.274178669538216, 20.928141005660908 ], [ -101.274717658708695, 20.928141005660908 ], [ -101.274717658708695, 20.928410500246144 ], [ -101.274448164123456, 20.928410500246144 ], [ -101.274448164123456, 20.929218984001849 ] ] ] ] } },
{ "type": "Feature", "properties": { "ZONA_MET": "Guanajuato", "INTENSIDAD": "Intensa", "T_PROM_POL": 4.0, "T_MIN_CIUD": 3.0, "DIF_TERMIC": 1.0 }, "geometry": { "type": "MultiPolygon", "coordinates": [ [ [ [ -101.279838055828165, 20.927871511075672 ], [ -101.279568561242939, 20.927871511075672 ], [ -101.279568561242939, 20.927602016490436 ], [ -101.2792990666577, 20.927602016490436 ], [ -101.2792990666577, 20.926793532734727 ], [ -101.279568561242939, 20.926793532734727 ], [ -101.279568561242939, 20.926254543564255 ], [ -101.2792990666577, 20.926254543564255 ], [ -101.2792990666577, 20.925985048979019 ], [ -101.279568561242939, 20.925985048979019 ], [ -101.279568561242939, 20.925715554393786 ], [ -101.280107550413405, 20.925715554393786 ], [ -101.280107550413405, 20.925985048979019 ], [ -101.280377044998644, 20.925985048979019 ], [ -101.280377044998644, 20.926254543564255 ], [ -101.280107550413405, 20.926254543564255 ], [ -101.280107550413405, 20.927602016490436 ], [ -101.279838055828165, 20.927602016490436 ], [ -101.279838055828165, 20.927871511075672 ] ] ] ] } },
{ "type": "Feature", "properties": { "ZONA_MET": "Guanajuato", "INTENSIDAD": "Intensa", "T_PROM_POL": 4.0, "T_MIN_CIUD": 3.0, "DIF_TERMIC": 1.0 }, "geometry": { "type": "MultiPolygon", "coordinates": [ [ [ [ -101.273909174952976, 20.926793532734727 ], [ -101.273100691197271, 20.926793532734727 ], [ -101.273100691197271, 20.925985048979019 ], [ -101.271753218271101, 20.925985048979019 ], [ -101.271753218271101, 20.925715554393786 ], [ -101.272561702026806, 20.925715554393786 ], [ -101.272561702026806, 20.92544605980855 ], [ -101.273100691197271, 20.92544605980855 ], [ -101.273100691197271, 20.925715554393786 ], [ -101.273370185782511, 20.925715554393786 ], [ -101.273370185782511, 20.925985048979019 ], [ -101.273909174952976, 20.925985048979019 ], [ -101.273909174952976, 20.926793532734727 ] ] ] ] } }
]
}
