{
"type": "FeatureCollection",
"name": "UHI_Chetumal",
"crs": { "type": "name", "properties": { "name": "urn:ogc:def:crs:OGC:1.3:CRS84" } },
"features": [
{ "type": "Feature", "properties": { "ZONA_MET": "Chetumal", "INTENSIDAD": "Intensa", "T_PROM_POL": 4.0, "T_MIN_CIUD": 3.0, "DIF_TERMIC": 9.0 }, "geometry": { "type": "MultiPolygon", "coordinates": [ [ [ [ -88.291277025800824, 18.533951110425559 ], [ -88.290738036630358, 18.533951110425559 ], [ -88.290738036630358, 18.533412121255086 ], [ -88.291007531215598, 18.533412121255086 ], [ -88.291007531215598, 18.532603637499378 ], [ -88.291546520386063, 18.532603637499378 ], [ -88.291546520386063, 18.532873132084614 ], [ -88.291816014971303, 18.532873132084614 ], [ -88.291816014971303, 18.533412121255086 ], [ -88.291277025800824, 18.533412121255086 ], [ -88.291277025800824, 18.533951110425559 ] ] ] ] } },
{ "type": "Feature", "properties": { "ZONA_MET": "Chetumal", "INTENSIDAD": "Intensa", "T_PROM_POL": 4.0, "T_MIN_CIUD": 3.0, "DIF_TERMIC": 9.0 }, "geometry": { "type": "MultiPolygon", "coordinates": [ [ [ [ -88.317956989739173, 18.527752734965134 ], [ -88.317687495153947, 18.527752734965134 ], [ -88.317687495153947, 18.527483240379897 ], [ -88.317418000568708, 18.527483240379897 ], [ -88.317418000568708, 18.526944251209425 ], [ -88.317148505983468, 18.526944251209425 ], [ -88.317148505983468, 18.526405262038953 ], [ -88.317418000568708, 18.526405262038953 ], [ -88.317418000568708, 18.526135767453717 ], [ -88.317956989739173, 18.526135767453717 ], [ -88.317956989739173, 18.527752734965134 ] ] ] ] } },
{ "type": "Feature", "properties": { "ZONA_MET": "Chetumal", "INTENSIDAD": "Intensa", "T_PROM_POL": 4.0, "T_MIN_CIUD": 3.0, "DIF_TERMIC": 9.0 }, "geometry": { "type": "MultiPolygon", "coordinates": [ [ [ [ -88.294780455408898, 18.526674756624189 ], [ -88.294241466238418, 18.526674756624189 ], [ -88.294241466238418, 18.526405262038953 ], [ -88.293702477067953, 18.526405262038953 ], [ -88.293702477067953, 18.52586627286848 ], [ -88.293432982482713, 18.52586627286848 ], [ -88.293432982482713, 18.525327283698008 ], [ -88.293702477067953, 18.525327283698008 ], [ -88.293702477067953, 18.525057789112772 ], [ -88.294510960823658, 18.525057789112772 ], [ -88.294510960823658, 18.524788294527539 ], [ -88.294780455408898, 18.524788294527539 ], [ -88.294780455408898, 18.524518799942303 ], [ -88.295049949994137, 18.524518799942303 ], [ -88.295049949994137, 18.523979810771831 ], [ -88.295319444579363, 18.523979810771831 ], [ -88.295319444579363, 18.525057789112772 ], [ -88.295049949994137, 18.525057789112772 ], [ -88.295049949994137, 18.525327283698008 ], [ -88.294510960823658, 18.525327283698008 ], [ -88.294510960823658, 18.525596778283244 ], [ -88.295049949994137, 18.525596778283244 ], [ -88.295049949994137, 18.52586627286848 ], [ -88.295588939164602, 18.52586627286848 ], [ -88.295588939164602, 18.526135767453717 ], [ -88.294780455408898, 18.526135767453717 ], [ -88.294780455408898, 18.526674756624189 ] ], [ [ -88.294780455408898, 18.526135767453717 ], [ -88.294780455408898, 18.52586627286848 ], [ -88.294510960823658, 18.52586627286848 ], [ -88.294510960823658, 18.526135767453717 ], [ -88.294780455408898, 18.526135767453717 ] ], [ [ -88.294241466238418, 18.52586627286848 ], [ -88.294241466238418, 18.525596778283244 ], [ -88.293971971653193, 18.525596778283244 ], [ -88.293971971653193, 18.52586627286848 ], [ -88.294241466238418, 18.52586627286848 ] ] ] ] } },
{ "type": "Feature", "properties": { "ZONA_MET": "Chetumal", "INTENSIDAD": "Intensa", "T_PROM_POL": 4.0, "T_MIN_CIUD": 3.0, "DIF_TERMIC": 8.0 }, "geometry": { "type": "MultiPolygon", "coordinates": [ [ [ [ -88.321460419347247, 18.524788294527539 ], [ -88.321190924762007, 18.524788294527539 ], [ -88.321190924762007, 18.524518799942303 ], [ -88.320921430176767, 18.524518799942303 ], [ -88.320921430176767, 18.524249305357067 ], [ -88.320112946421062, 18.524249305357067 ], [ -88.320112946421062, 18.524518799942303 ], [ -88.319843451835837, 18.524518799942303 ], [ -88.319843451835837, 18.52263233784565 ], [ -88.320112946421062, 18.52263233784565 ], [ -88.320112946421062, 18.522901832430886 ], [ -88.320382441006302, 18.522901832430886 ], [ -88.320382441006302, 18.523171327016122 ], [ -88.321190924762007, 18.523171327016122 ], [ -88.321190924762007, 18.524249305357067 ], [ -88.321729913932487, 18.524249305357067 ], [ -88.321729913932487, 18.524518799942303 ], [ -88.321460419347247, 18.524518799942303 ], [ -88.321460419347247, 18.524788294527539 ] ], [ [ -88.320921430176767, 18.523710316186595 ], [ -88.320921430176767, 18.523440821601358 ], [ -88.320651935591542, 18.523440821601358 ], [ -88.320651935591542, 18.523710316186595 ], [ -88.320921430176767, 18.523710316186595 ] ] ] ] } },
{ "type": "Feature", "properties": { "ZONA_MET": "Chetumal", "INTENSIDAD": "Intensa", "T_PROM_POL": 4.0, "T_MIN_CIUD": 3.0, "DIF_TERMIC": 9.0 }, "geometry": { "type": "MultiPolygon", "coordinates": [ [ [ [ -88.308524679255925, 18.523979810771831 ], [ -88.307985690085459, 18.523979810771831 ], [ -88.307985690085459, 18.523710316186595 ], [ -88.30744670091498, 18.523710316186595 ], [ -88.30744670091498, 18.523979810771831 ], [ -88.306099227988796, 18.523979810771831 ], [ -88.306099227988796, 18.523440821601358 ], [ -88.306368722574035, 18.523440821601358 ], [ -88.306368722574035, 18.523171327016122 ], [ -88.306638217159275, 18.523171327016122 ], [ -88.306638217159275, 18.523440821601358 ], [ -88.30717720632974, 18.523440821601358 ], [ -88.30717720632974, 18.523171327016122 ], [ -88.30744670091498, 18.523171327016122 ], [ -88.30744670091498, 18.522901832430886 ], [ -88.30717720632974, 18.522901832430886 ], [ -88.30717720632974, 18.52263233784565 ], [ -88.30771619550022, 18.52263233784565 ], [ -88.30771619550022, 18.522901832430886 ], [ -88.308255184670685, 18.522901832430886 ], [ -88.308255184670685, 18.523171327016122 ], [ -88.308524679255925, 18.523171327016122 ], [ -88.308524679255925, 18.523979810771831 ] ] ] ] } },
{ "type": "Feature", "properties": { "ZONA_MET": "Chetumal", "INTENSIDAD": "Intensa", "T_PROM_POL": 4.0, "T_MIN_CIUD": 3.0, "DIF_TERMIC": 9.0 }, "geometry": { "type": "MultiPolygon", "coordinates": [ [ [ [ -88.321190924762007, 18.521015370334236 ], [ -88.320382441006302, 18.521015370334236 ], [ -88.320382441006302, 18.520745875749 ], [ -88.320112946421062, 18.520745875749 ], [ -88.320112946421062, 18.521015370334236 ], [ -88.318765473494892, 18.521015370334236 ], [ -88.318765473494892, 18.519398402822819 ], [ -88.319034968080118, 18.519398402822819 ], [ -88.319034968080118, 18.519937391993292 ], [ -88.319573957250597, 18.519937391993292 ], [ -88.319573957250597, 18.520206886578528 ], [ -88.319843451835837, 18.520206886578528 ], [ -88.319843451835837, 18.519937391993292 ], [ -88.320112946421062, 18.519937391993292 ], [ -88.320112946421062, 18.520206886578528 ], [ -88.320651935591542, 18.520206886578528 ], [ -88.320651935591542, 18.520745875749 ], [ -88.321190924762007, 18.520745875749 ], [ -88.321190924762007, 18.521015370334236 ] ] ] ] } },
{ "type": "Feature", "properties": { "ZONA_MET": "Chetumal", "INTENSIDAD": "Intensa", "T_PROM_POL": 4.0, "T_MIN_CIUD": 3.0, "DIF_TERMIC": 8.0 }, "geometry": { "type": "MultiPolygon", "coordinates": [ [ [ [ -88.296397422920307, 18.520476381163764 ], [ -88.296127928335082, 18.520476381163764 ], [ -88.296127928335082, 18.520206886578528 ], [ -88.295858433749842, 18.520206886578528 ], [ -88.295858433749842, 18.519937391993292 ], [ -88.295319444579363, 18.519937391993292 ], [ -88.295319444579363, 18.519667897408056 ], [ -88.294780455408898, 18.519667897408056 ], [ -88.294780455408898, 18.519398402822819 ], [ -88.296666917505547, 18.519398402822819 ], [ -88.296666917505547, 18.519937391993292 ], [ -88.296397422920307, 18.519937391993292 ], [ -88.296397422920307, 18.520476381163764 ] ] ] ] } },
{ "type": "Feature", "properties": { "ZONA_MET": "Chetumal", "INTENSIDAD": "Extrema", "T_PROM_POL": 4.0, "T_MIN_CIUD": 3.0, "DIF_TERMIC": 1.0 }, "geometry": { "type": "MultiPolygon", "coordinates": [ [ [ [ -88.322538397688191, 18.520476381163764 ], [ -88.322268903102952, 18.520476381163764 ], [ -88.322268903102952, 18.519667897408056 ], [ -88.321729913932487, 18.519667897408056 ], [ -88.321729913932487, 18.519937391993292 ], [ -88.321999408517712, 18.519937391993292 ], [ -88.321999408517712, 18.520206886578528 ], [ -88.321460419347247, 18.520206886578528 ], [ -88.321460419347247, 18.519667897408056 ], [ -88.321190924762007, 18.519667897408056 ], [ -88.321190924762007, 18.519937391993292 ], [ -88.320651935591542, 18.519937391993292 ], [ -88.320651935591542, 18.519667897408056 ], [ -88.320382441006302, 18.519667897408056 ], [ -88.320382441006302, 18.519128908237583 ], [ -88.320651935591542, 18.519128908237583 ], [ -88.320651935591542, 18.518859413652351 ], [ -88.321999408517712, 18.518859413652351 ], [ -88.321999408517712, 18.519128908237583 ], [ -88.322538397688191, 18.519128908237583 ], [ -88.322538397688191, 18.519398402822819 ], [ -88.323077386858657, 18.519398402822819 ], [ -88.323077386858657, 18.519128908237583 ], [ -88.323346881443896, 18.519128908237583 ], [ -88.323346881443896, 18.518859413652351 ], [ -88.324424859784841, 18.518859413652351 ], [ -88.324424859784841, 18.519128908237583 ], [ -88.324155365199601, 18.519128908237583 ], [ -88.324155365199601, 18.519667897408056 ], [ -88.323616376029136, 18.519667897408056 ], [ -88.323616376029136, 18.519937391993292 ], [ -88.323346881443896, 18.519937391993292 ], [ -88.323346881443896, 18.520206886578528 ], [ -88.323077386858657, 18.520206886578528 ], [ -88.323077386858657, 18.519667897408056 ], [ -88.322538397688191, 18.519667897408056 ], [ -88.322538397688191, 18.520476381163764 ] ], [ [ -88.321999408517712, 18.519398402822819 ], [ -88.321999408517712, 18.519128908237583 ], [ -88.321729913932487, 18.519128908237583 ], [ -88.321729913932487, 18.519398402822819 ], [ -88.321999408517712, 18.519398402822819 ] ] ] ] } },
{ "type": "Feature", "properties": { "ZONA_MET": "Chetumal", "INTENSIDAD": "Intensa", "T_PROM_POL": 4.0, "T_MIN_CIUD": 3.0, "DIF_TERMIC": 9.0 }, "geometry": { "type": "MultiPolygon", "coordinates": [ [ [ [ -88.290738036630358, 18.520476381163764 ], [ -88.290468542045119, 18.520476381163764 ], [ -88.290468542045119, 18.520206886578528 ], [ -88.290199047459893, 18.520206886578528 ], [ -88.290199047459893, 18.519398402822819 ], [ -88.290468542045119, 18.519398402822819 ], [ -88.290468542045119, 18.518050929896642 ], [ -88.290738036630358, 18.518050929896642 ], [ -88.290738036630358, 18.518859413652351 ], [ -88.291007531215598, 18.518859413652351 ], [ -88.291007531215598, 18.519398402822819 ], [ -88.291277025800824, 18.519398402822819 ], [ -88.291277025800824, 18.519937391993292 ], [ -88.291007531215598, 18.519937391993292 ], [ -88.291007531215598, 18.520206886578528 ], [ -88.290738036630358, 18.520206886578528 ], [ -88.290738036630358, 18.520476381163764 ] ] ] ] } },
{ "type": "Feature", "properties": { "ZONA_MET": "Chetumal", "INTENSIDAD": "Intensa", "T_PROM_POL": 4.0, "T_MIN_CIUD": 3.0, "DIF_TERMIC": 9.0 }, "geometry": { "type": "MultiPolygon", "coordinates": [ [ [ [ -88.30582973340357, 18.519398402822819 ], [ -88.304482260477386, 18.519398402822819 ], [ -88.304482260477386, 18.519128908237583 ], [ -88.304212765892146, 18.519128908237583 ], [ -88.304212765892146, 18.518589919067114 ], [ -88.304482260477386, 18.518589919067114 ], [ -88.304482260477386, 18.518320424481878 ], [ -88.305290744233091, 18.518320424481878 ], [ -88.305290744233091, 18.517781435311406 ], [ -88.30556023881833, 18.517781435311406 ], [ -88.30556023881833, 18.518589919067114 ], [ -88.30582973340357, 18.518589919067114 ], [ -88.30582973340357, 18.518859413652351 ], [ -88.306099227988796, 18.518859413652351 ], [ -88.306099227988796, 18.519128908237583 ], [ -88.30582973340357, 18.519128908237583 ], [ -88.30582973340357, 18.519398402822819 ] ], [ [ -88.305021249647865, 18.519128908237583 ], [ -88.305021249647865, 18.518859413652351 ], [ -88.304751755062625, 18.518859413652351 ], [ -88.304751755062625, 18.519128908237583 ], [ -88.305021249647865, 18.519128908237583 ] ] ] ] } },
{ "type": "Feature", "properties": { "ZONA_MET": "Chetumal", "INTENSIDAD": "Intensa", "T_PROM_POL": 4.0, "T_MIN_CIUD": 3.0, "DIF_TERMIC": 8.0 }, "geometry": { "type": "MultiPolygon", "coordinates": [ [ [ [ -88.319304462665357, 18.517781435311406 ], [ -88.318765473494892, 18.517781435311406 ], [ -88.318765473494892, 18.517242446140934 ], [ -88.317956989739173, 18.517242446140934 ], [ -88.317956989739173, 18.51751194072617 ], [ -88.317687495153947, 18.51751194072617 ], [ -88.317687495153947, 18.517242446140934 ], [ -88.317418000568708, 18.517242446140934 ], [ -88.317418000568708, 18.516972951555697 ], [ -88.318495978909652, 18.516972951555697 ], [ -88.318495978909652, 18.516703456970461 ], [ -88.318765473494892, 18.516703456970461 ], [ -88.318765473494892, 18.516972951555697 ], [ -88.319034968080118, 18.516972951555697 ], [ -88.319034968080118, 18.517242446140934 ], [ -88.319304462665357, 18.517242446140934 ], [ -88.319304462665357, 18.517781435311406 ] ] ] ] } },
{ "type": "Feature", "properties": { "ZONA_MET": "Chetumal", "INTENSIDAD": "Intensa", "T_PROM_POL": 4.0, "T_MIN_CIUD": 3.0, "DIF_TERMIC": 8.0 }, "geometry": { "type": "MultiPolygon", "coordinates": [ [ [ [ -88.287504101607524, 18.518589919067114 ], [ -88.286156628681354, 18.518589919067114 ], [ -88.286156628681354, 18.518320424481878 ], [ -88.28642612326658, 18.518320424481878 ], [ -88.28642612326658, 18.518050929896642 ], [ -88.286695617851819, 18.518050929896642 ], [ -88.286695617851819, 18.51751194072617 ], [ -88.286965112437059, 18.51751194072617 ], [ -88.286965112437059, 18.516972951555697 ], [ -88.286695617851819, 18.516972951555697 ], [ -88.286695617851819, 18.516703456970461 ], [ -88.287504101607524, 18.516703456970461 ], [ -88.287504101607524, 18.516972951555697 ], [ -88.288043090778004, 18.516972951555697 ], [ -88.288043090778004, 18.517781435311406 ], [ -88.287504101607524, 18.517781435311406 ], [ -88.287504101607524, 18.518050929896642 ], [ -88.287773596192764, 18.518050929896642 ], [ -88.287773596192764, 18.518320424481878 ], [ -88.287504101607524, 18.518320424481878 ], [ -88.287504101607524, 18.518589919067114 ] ] ] ] } },
{ "type": "Feature", "properties": { "ZONA_MET": "Chetumal", "INTENSIDAD": "Intensa", "T_PROM_POL": 4.0, "T_MIN_CIUD": 3.0, "DIF_TERMIC": 9.0 }, "geometry": { "type": "MultiPolygon", "coordinates": [ [ [ [ -88.301248325454551, 18.518050929896642 ], [ -88.300978830869326, 18.518050929896642 ], [ -88.300978830869326, 18.51751194072617 ], [ -88.300709336284086, 18.51751194072617 ], [ -88.300709336284086, 18.516972951555697 ], [ -88.300978830869326, 18.516972951555697 ], [ -88.300978830869326, 18.516703456970461 ], [ -88.301787314625031, 18.516703456970461 ], [ -88.301787314625031, 18.516972951555697 ], [ -88.302326303795496, 18.516972951555697 ], [ -88.302326303795496, 18.517242446140934 ], [ -88.301787314625031, 18.517242446140934 ], [ -88.301787314625031, 18.51751194072617 ], [ -88.301248325454551, 18.51751194072617 ], [ -88.301248325454551, 18.518050929896642 ] ] ] ] } },
{ "type": "Feature", "properties": { "ZONA_MET": "Chetumal", "INTENSIDAD": "Intensa", "T_PROM_POL": 4.0, "T_MIN_CIUD": 3.0, "DIF_TERMIC": 9.0 }, "geometry": { "type": "MultiPolygon", "coordinates": [ [ [ [ -88.324694354370081, 18.519667897408056 ], [ -88.324155365199601, 18.519667897408056 ], [ -88.324155365199601, 18.519128908237583 ], [ -88.324424859784841, 18.519128908237583 ], [ -88.324424859784841, 18.518859413652351 ], [ -88.323346881443896, 18.518859413652351 ], [ -88.323346881443896, 18.519128908237583 ], [ -88.323077386858657, 18.519128908237583 ], [ -88.323077386858657, 18.519398402822819 ], [ -88.322538397688191, 18.519398402822819 ], [ -88.322538397688191, 18.519128908237583 ], [ -88.322807892273431, 18.519128908237583 ], [ -88.322807892273431, 18.518859413652351 ], [ -88.322538397688191, 18.518859413652351 ], [ -88.322538397688191, 18.518589919067114 ], [ -88.322268903102952, 18.518589919067114 ], [ -88.322268903102952, 18.518320424481878 ], [ -88.323077386858657, 18.518320424481878 ], [ -88.323077386858657, 18.517781435311406 ], [ -88.322807892273431, 18.517781435311406 ], [ -88.322807892273431, 18.51751194072617 ], [ -88.323077386858657, 18.51751194072617 ], [ -88.323077386858657, 18.516972951555697 ], [ -88.323885870614362, 18.516972951555697 ], [ -88.323885870614362, 18.515894973214753 ], [ -88.324424859784841, 18.515894973214753 ], [ -88.324424859784841, 18.516164467799989 ], [ -88.324694354370081, 18.516164467799989 ], [ -88.324694354370081, 18.515894973214753 ], [ -88.324963848955306, 18.515894973214753 ], [ -88.324963848955306, 18.516433962385225 ], [ -88.325233343540546, 18.516433962385225 ], [ -88.325233343540546, 18.518859413652351 ], [ -88.324963848955306, 18.518859413652351 ], [ -88.324963848955306, 18.519128908237583 ], [ -88.324694354370081, 18.519128908237583 ], [ -88.324694354370081, 18.519667897408056 ] ], [ [ -88.323616376029136, 18.518589919067114 ], [ -88.323616376029136, 18.518050929896642 ], [ -88.323346881443896, 18.518050929896642 ], [ -88.323346881443896, 18.518589919067114 ], [ -88.323616376029136, 18.518589919067114 ] ], [ [ -88.324694354370081, 18.518320424481878 ], [ -88.324694354370081, 18.518050929896642 ], [ -88.324963848955306, 18.518050929896642 ], [ -88.324963848955306, 18.51751194072617 ], [ -88.323885870614362, 18.51751194072617 ], [ -88.323885870614362, 18.517781435311406 ], [ -88.324155365199601, 18.517781435311406 ], [ -88.324155365199601, 18.518050929896642 ], [ -88.324424859784841, 18.518050929896642 ], [ -88.324424859784841, 18.518320424481878 ], [ -88.324694354370081, 18.518320424481878 ] ], [ [ -88.324694354370081, 18.516972951555697 ], [ -88.324694354370081, 18.516703456970461 ], [ -88.324155365199601, 18.516703456970461 ], [ -88.324155365199601, 18.516972951555697 ], [ -88.324694354370081, 18.516972951555697 ] ] ] ] } },
{ "type": "Feature", "properties": { "ZONA_MET": "Chetumal", "INTENSIDAD": "Intensa", "T_PROM_POL": 4.0, "T_MIN_CIUD": 3.0, "DIF_TERMIC": 9.0 }, "geometry": { "type": "MultiPolygon", "coordinates": [ [ [ [ -88.305021249647865, 18.517781435311406 ], [ -88.304482260477386, 18.517781435311406 ], [ -88.304482260477386, 18.51751194072617 ], [ -88.304212765892146, 18.51751194072617 ], [ -88.304212765892146, 18.516703456970461 ], [ -88.304482260477386, 18.516703456970461 ], [ -88.304482260477386, 18.516433962385225 ], [ -88.304212765892146, 18.516433962385225 ], [ -88.304212765892146, 18.516164467799989 ], [ -88.303673776721681, 18.516164467799989 ], [ -88.303673776721681, 18.515894973214753 ], [ -88.303134787551201, 18.515894973214753 ], [ -88.303134787551201, 18.516703456970461 ], [ -88.302865292965976, 18.516703456970461 ], [ -88.302865292965976, 18.51562547862952 ], [ -88.304212765892146, 18.51562547862952 ], [ -88.304212765892146, 18.515355984044284 ], [ -88.304751755062625, 18.515355984044284 ], [ -88.304751755062625, 18.51751194072617 ], [ -88.305021249647865, 18.51751194072617 ], [ -88.305021249647865, 18.517781435311406 ] ], [ [ -88.304482260477386, 18.515894973214753 ], [ -88.304482260477386, 18.51562547862952 ], [ -88.304212765892146, 18.51562547862952 ], [ -88.304212765892146, 18.515894973214753 ], [ -88.304482260477386, 18.515894973214753 ] ] ] ] } },
{ "type": "Feature", "properties": { "ZONA_MET": "Chetumal", "INTENSIDAD": "Intensa", "T_PROM_POL": 4.0, "T_MIN_CIUD": 3.0, "DIF_TERMIC": 8.0 }, "geometry": { "type": "MultiPolygon", "coordinates": [ [ [ [ -88.319843451835837, 18.515894973214753 ], [ -88.319034968080118, 18.515894973214753 ], [ -88.319034968080118, 18.515355984044284 ], [ -88.318765473494892, 18.515355984044284 ], [ -88.318765473494892, 18.514816994873811 ], [ -88.319304462665357, 18.514816994873811 ], [ -88.319304462665357, 18.514547500288575 ], [ -88.320651935591542, 18.514547500288575 ], [ -88.320651935591542, 18.514816994873811 ], [ -88.320382441006302, 18.514816994873811 ], [ -88.320382441006302, 18.515086489459048 ], [ -88.320651935591542, 18.515086489459048 ], [ -88.320651935591542, 18.515355984044284 ], [ -88.320382441006302, 18.515355984044284 ], [ -88.320382441006302, 18.51562547862952 ], [ -88.319843451835837, 18.51562547862952 ], [ -88.319843451835837, 18.515894973214753 ] ] ] ] } },
{ "type": "Feature", "properties": { "ZONA_MET": "Chetumal", "INTENSIDAD": "Intensa", "T_PROM_POL": 4.0, "T_MIN_CIUD": 3.0, "DIF_TERMIC": 9.0 }, "geometry": { "type": "MultiPolygon", "coordinates": [ [ [ [ -88.281844715317575, 18.515355984044284 ], [ -88.28130572614711, 18.515355984044284 ], [ -88.28130572614711, 18.515086489459048 ], [ -88.280766736976631, 18.515086489459048 ], [ -88.280766736976631, 18.514816994873811 ], [ -88.280227747806165, 18.514816994873811 ], [ -88.280227747806165, 18.514278005703339 ], [ -88.280497242391391, 18.514278005703339 ], [ -88.280497242391391, 18.514008511118103 ], [ -88.280766736976631, 18.514008511118103 ], [ -88.280766736976631, 18.514278005703339 ], [ -88.28130572614711, 18.514278005703339 ], [ -88.28130572614711, 18.514547500288575 ], [ -88.281575220732336, 18.514547500288575 ], [ -88.281575220732336, 18.514816994873811 ], [ -88.281844715317575, 18.514816994873811 ], [ -88.281844715317575, 18.515355984044284 ] ], [ [ -88.28103623156187, 18.514816994873811 ], [ -88.28103623156187, 18.514547500288575 ], [ -88.280766736976631, 18.514547500288575 ], [ -88.280766736976631, 18.514816994873811 ], [ -88.28103623156187, 18.514816994873811 ] ] ] ] } },
{ "type": "Feature", "properties": { "ZONA_MET": "Chetumal", "INTENSIDAD": "Intensa", "T_PROM_POL": 4.0, "T_MIN_CIUD": 3.0, "DIF_TERMIC": 8.0 }, "geometry": { "type": "MultiPolygon", "coordinates": [ [ [ [ -88.287773596192764, 18.515894973214753 ], [ -88.286156628681354, 18.515894973214753 ], [ -88.286156628681354, 18.51562547862952 ], [ -88.286695617851819, 18.51562547862952 ], [ -88.286695617851819, 18.515086489459048 ], [ -88.286965112437059, 18.515086489459048 ], [ -88.286965112437059, 18.514816994873811 ], [ -88.287773596192764, 18.514816994873811 ], [ -88.287773596192764, 18.514008511118103 ], [ -88.289390563704174, 18.514008511118103 ], [ -88.289390563704174, 18.514278005703339 ], [ -88.289121069118949, 18.514278005703339 ], [ -88.289121069118949, 18.514547500288575 ], [ -88.289660058289414, 18.514547500288575 ], [ -88.289660058289414, 18.514816994873811 ], [ -88.289390563704174, 18.514816994873811 ], [ -88.289390563704174, 18.515086489459048 ], [ -88.289121069118949, 18.515086489459048 ], [ -88.289121069118949, 18.514816994873811 ], [ -88.288851574533709, 18.514816994873811 ], [ -88.288851574533709, 18.515086489459048 ], [ -88.288582079948469, 18.515086489459048 ], [ -88.288582079948469, 18.514816994873811 ], [ -88.288043090778004, 18.514816994873811 ], [ -88.288043090778004, 18.515355984044284 ], [ -88.287773596192764, 18.515355984044284 ], [ -88.287773596192764, 18.515086489459048 ], [ -88.287234607022299, 18.515086489459048 ], [ -88.287234607022299, 18.515355984044284 ], [ -88.287504101607524, 18.515355984044284 ], [ -88.287504101607524, 18.51562547862952 ], [ -88.287773596192764, 18.51562547862952 ], [ -88.287773596192764, 18.515894973214753 ] ] ] ] } },
{ "type": "Feature", "properties": { "ZONA_MET": "Chetumal", "INTENSIDAD": "Intensa", "T_PROM_POL": 4.0, "T_MIN_CIUD": 3.0, "DIF_TERMIC": 8.0 }, "geometry": { "type": "MultiPolygon", "coordinates": [ [ [ [ -88.310141646767335, 18.514816994873811 ], [ -88.30933316301163, 18.514816994873811 ], [ -88.30933316301163, 18.514547500288575 ], [ -88.30906366842639, 18.514547500288575 ], [ -88.30906366842639, 18.514278005703339 ], [ -88.309872152182109, 18.514278005703339 ], [ -88.309872152182109, 18.513739016532867 ], [ -88.309602657596869, 18.513739016532867 ], [ -88.309602657596869, 18.513469521947631 ], [ -88.309872152182109, 18.513469521947631 ], [ -88.309872152182109, 18.513200027362394 ], [ -88.310141646767335, 18.513200027362394 ], [ -88.310141646767335, 18.514816994873811 ] ] ] ] } },
{ "type": "Feature", "properties": { "ZONA_MET": "Chetumal", "INTENSIDAD": "Intensa", "T_PROM_POL": 4.0, "T_MIN_CIUD": 3.0, "DIF_TERMIC": 8.0 }, "geometry": { "type": "MultiPolygon", "coordinates": [ [ [ [ -88.300709336284086, 18.514008511118103 ], [ -88.299900852528381, 18.514008511118103 ], [ -88.299900852528381, 18.512930532777158 ], [ -88.301248325454551, 18.512930532777158 ], [ -88.301248325454551, 18.513469521947631 ], [ -88.300709336284086, 18.513469521947631 ], [ -88.300709336284086, 18.514008511118103 ] ] ] ] } },
{ "type": "Feature", "properties": { "ZONA_MET": "Chetumal", "INTENSIDAD": "Intensa", "T_PROM_POL": 4.0, "T_MIN_CIUD": 3.0, "DIF_TERMIC": 8.0 }, "geometry": { "type": "MultiPolygon", "coordinates": [ [ [ [ -88.291546520386063, 18.517781435311406 ], [ -88.291277025800824, 18.517781435311406 ], [ -88.291277025800824, 18.51751194072617 ], [ -88.291007531215598, 18.51751194072617 ], [ -88.291007531215598, 18.517781435311406 ], [ -88.290468542045119, 18.517781435311406 ], [ -88.290468542045119, 18.51751194072617 ], [ -88.289929552874653, 18.51751194072617 ], [ -88.289929552874653, 18.516972951555697 ], [ -88.290468542045119, 18.516972951555697 ], [ -88.290468542045119, 18.516703456970461 ], [ -88.290738036630358, 18.516703456970461 ], [ -88.290738036630358, 18.515894973214753 ], [ -88.291007531215598, 18.515894973214753 ], [ -88.291007531215598, 18.514278005703339 ], [ -88.290738036630358, 18.514278005703339 ], [ -88.290738036630358, 18.514008511118103 ], [ -88.290199047459893, 18.514008511118103 ], [ -88.290199047459893, 18.513739016532867 ], [ -88.289660058289414, 18.513739016532867 ], [ -88.289660058289414, 18.513469521947631 ], [ -88.289929552874653, 18.513469521947631 ], [ -88.289929552874653, 18.512122049021453 ], [ -88.290199047459893, 18.512122049021453 ], [ -88.290199047459893, 18.512930532777158 ], [ -88.291007531215598, 18.512930532777158 ], [ -88.291007531215598, 18.514008511118103 ], [ -88.291277025800824, 18.514008511118103 ], [ -88.291277025800824, 18.513739016532867 ], [ -88.292085509556543, 18.513739016532867 ], [ -88.292085509556543, 18.513469521947631 ], [ -88.292355004141768, 18.513469521947631 ], [ -88.292355004141768, 18.513739016532867 ], [ -88.292624498727008, 18.513739016532867 ], [ -88.292624498727008, 18.514008511118103 ], [ -88.292355004141768, 18.514008511118103 ], [ -88.292355004141768, 18.514547500288575 ], [ -88.292085509556543, 18.514547500288575 ], [ -88.292085509556543, 18.514816994873811 ], [ -88.291816014971303, 18.514816994873811 ], [ -88.291816014971303, 18.515086489459048 ], [ -88.292624498727008, 18.515086489459048 ], [ -88.292624498727008, 18.515894973214753 ], [ -88.291816014971303, 18.515894973214753 ], [ -88.291816014971303, 18.516164467799989 ], [ -88.292085509556543, 18.516164467799989 ], [ -88.292085509556543, 18.516433962385225 ], [ -88.292355004141768, 18.516433962385225 ], [ -88.292355004141768, 18.516972951555697 ], [ -88.292085509556543, 18.516972951555697 ], [ -88.292085509556543, 18.517242446140934 ], [ -88.291546520386063, 18.517242446140934 ], [ -88.291546520386063, 18.517781435311406 ] ], [ [ -88.291277025800824, 18.516972951555697 ], [ -88.291277025800824, 18.516703456970461 ], [ -88.291007531215598, 18.516703456970461 ], [ -88.291007531215598, 18.516972951555697 ], [ -88.291277025800824, 18.516972951555697 ] ], [ [ -88.291546520386063, 18.515086489459048 ], [ -88.291546520386063, 18.514816994873811 ], [ -88.291277025800824, 18.514816994873811 ], [ -88.291277025800824, 18.515086489459048 ], [ -88.291546520386063, 18.515086489459048 ] ], [ [ -88.290468542045119, 18.513469521947631 ], [ -88.290468542045119, 18.513200027362394 ], [ -88.290199047459893, 18.513200027362394 ], [ -88.290199047459893, 18.513469521947631 ], [ -88.290468542045119, 18.513469521947631 ] ] ] ] } },
{ "type": "Feature", "properties": { "ZONA_MET": "Chetumal", "INTENSIDAD": "Intensa", "T_PROM_POL": 4.0, "T_MIN_CIUD": 3.0, "DIF_TERMIC": 8.0 }, "geometry": { "type": "MultiPolygon", "coordinates": [ [ [ [ -88.305021249647865, 18.513739016532867 ], [ -88.304751755062625, 18.513739016532867 ], [ -88.304751755062625, 18.513469521947631 ], [ -88.304212765892146, 18.513469521947631 ], [ -88.304212765892146, 18.513200027362394 ], [ -88.304751755062625, 18.513200027362394 ], [ -88.304751755062625, 18.512930532777158 ], [ -88.30394327130692, 18.512930532777158 ], [ -88.30394327130692, 18.512391543606689 ], [ -88.304212765892146, 18.512391543606689 ], [ -88.304212765892146, 18.511852554436217 ], [ -88.304482260477386, 18.511852554436217 ], [ -88.304482260477386, 18.511583059850981 ], [ -88.304751755062625, 18.511583059850981 ], [ -88.304751755062625, 18.512122049021453 ], [ -88.305021249647865, 18.512122049021453 ], [ -88.305021249647865, 18.511852554436217 ], [ -88.305290744233091, 18.511852554436217 ], [ -88.305290744233091, 18.512391543606689 ], [ -88.30556023881833, 18.512391543606689 ], [ -88.30556023881833, 18.513200027362394 ], [ -88.305021249647865, 18.513200027362394 ], [ -88.305021249647865, 18.513739016532867 ] ] ] ] } },
{ "type": "Feature", "properties": { "ZONA_MET": "Chetumal", "INTENSIDAD": "Intensa", "T_PROM_POL": 4.0, "T_MIN_CIUD": 3.0, "DIF_TERMIC": 8.0 }, "geometry": { "type": "MultiPolygon", "coordinates": [ [ [ [ -88.298553379602197, 18.512661038191926 ], [ -88.298014390431732, 18.512661038191926 ], [ -88.298014390431732, 18.511852554436217 ], [ -88.298283885016957, 18.511852554436217 ], [ -88.298283885016957, 18.511313565265745 ], [ -88.298822874187437, 18.511313565265745 ], [ -88.298822874187437, 18.511583059850981 ], [ -88.299092368772676, 18.511583059850981 ], [ -88.299092368772676, 18.511852554436217 ], [ -88.299361863357902, 18.511852554436217 ], [ -88.299361863357902, 18.512391543606689 ], [ -88.298553379602197, 18.512391543606689 ], [ -88.298553379602197, 18.512661038191926 ] ] ] ] } },
{ "type": "Feature", "properties": { "ZONA_MET": "Chetumal", "INTENSIDAD": "Intensa", "T_PROM_POL": 4.0, "T_MIN_CIUD": 3.0, "DIF_TERMIC": 8.0 }, "geometry": { "type": "MultiPolygon", "coordinates": [ [ [ [ -88.288851574533709, 18.512930532777158 ], [ -88.288043090778004, 18.512930532777158 ], [ -88.288043090778004, 18.511583059850981 ], [ -88.288312585363229, 18.511583059850981 ], [ -88.288312585363229, 18.511313565265745 ], [ -88.288582079948469, 18.511313565265745 ], [ -88.288582079948469, 18.511044070680509 ], [ -88.288851574533709, 18.511044070680509 ], [ -88.288851574533709, 18.512930532777158 ] ] ] ] } },
{ "type": "Feature", "properties": { "ZONA_MET": "Chetumal", "INTENSIDAD": "Intensa", "T_PROM_POL": 4.0, "T_MIN_CIUD": 3.0, "DIF_TERMIC": 9.0 }, "geometry": { "type": "MultiPolygon", "coordinates": [ [ [ [ -88.326041827296251, 18.511044070680509 ], [ -88.324963848955306, 18.511044070680509 ], [ -88.324963848955306, 18.509966092339564 ], [ -88.326041827296251, 18.509966092339564 ], [ -88.326041827296251, 18.511044070680509 ] ] ] ] } },
{ "type": "Feature", "properties": { "ZONA_MET": "Chetumal", "INTENSIDAD": "Extrema", "T_PROM_POL": 4.0, "T_MIN_CIUD": 3.0, "DIF_TERMIC": 1.0 }, "geometry": { "type": "MultiPolygon", "coordinates": [ [ [ [ -88.315262043886818, 18.510774576095272 ], [ -88.314453560131113, 18.510774576095272 ], [ -88.314453560131113, 18.5102355869248 ], [ -88.313914570960648, 18.5102355869248 ], [ -88.313914570960648, 18.509966092339564 ], [ -88.314184065545874, 18.509966092339564 ], [ -88.314184065545874, 18.509427103169095 ], [ -88.315531538472058, 18.509427103169095 ], [ -88.315531538472058, 18.509966092339564 ], [ -88.315262043886818, 18.509966092339564 ], [ -88.315262043886818, 18.5102355869248 ], [ -88.314723054716353, 18.5102355869248 ], [ -88.314723054716353, 18.510505081510036 ], [ -88.315262043886818, 18.510505081510036 ], [ -88.315262043886818, 18.510774576095272 ] ] ] ] } },
{ "type": "Feature", "properties": { "ZONA_MET": "Chetumal", "INTENSIDAD": "Intensa", "T_PROM_POL": 4.0, "T_MIN_CIUD": 3.0, "DIF_TERMIC": 9.0 }, "geometry": { "type": "MultiPolygon", "coordinates": [ [ [ [ -88.315262043886818, 18.511313565265745 ], [ -88.314184065545874, 18.511313565265745 ], [ -88.314184065545874, 18.511044070680509 ], [ -88.313914570960648, 18.511044070680509 ], [ -88.313914570960648, 18.510774576095272 ], [ -88.313645076375408, 18.510774576095272 ], [ -88.313645076375408, 18.5102355869248 ], [ -88.313375581790169, 18.5102355869248 ], [ -88.313375581790169, 18.509966092339564 ], [ -88.313106087204929, 18.509966092339564 ], [ -88.313106087204929, 18.508888113998623 ], [ -88.313375581790169, 18.508888113998623 ], [ -88.313375581790169, 18.509157608583859 ], [ -88.313645076375408, 18.509157608583859 ], [ -88.313645076375408, 18.508618619413387 ], [ -88.313375581790169, 18.508618619413387 ], [ -88.313375581790169, 18.50834912482815 ], [ -88.313106087204929, 18.50834912482815 ], [ -88.313106087204929, 18.508079630242914 ], [ -88.314184065545874, 18.508079630242914 ], [ -88.314184065545874, 18.508618619413387 ], [ -88.314723054716353, 18.508618619413387 ], [ -88.314723054716353, 18.508888113998623 ], [ -88.314992549301579, 18.508888113998623 ], [ -88.314992549301579, 18.508618619413387 ], [ -88.315262043886818, 18.508618619413387 ], [ -88.315262043886818, 18.50834912482815 ], [ -88.315531538472058, 18.50834912482815 ], [ -88.315531538472058, 18.508618619413387 ], [ -88.315801033057298, 18.508618619413387 ], [ -88.315801033057298, 18.508888113998623 ], [ -88.315531538472058, 18.508888113998623 ], [ -88.315531538472058, 18.509157608583859 ], [ -88.315801033057298, 18.509157608583859 ], [ -88.315801033057298, 18.509427103169095 ], [ -88.314184065545874, 18.509427103169095 ], [ -88.314184065545874, 18.509966092339564 ], [ -88.313914570960648, 18.509966092339564 ], [ -88.313914570960648, 18.5102355869248 ], [ -88.314184065545874, 18.5102355869248 ], [ -88.314184065545874, 18.510774576095272 ], [ -88.315262043886818, 18.510774576095272 ], [ -88.315262043886818, 18.510505081510036 ], [ -88.315531538472058, 18.510505081510036 ], [ -88.315531538472058, 18.5102355869248 ], [ -88.315801033057298, 18.5102355869248 ], [ -88.315801033057298, 18.510774576095272 ], [ -88.315531538472058, 18.510774576095272 ], [ -88.315531538472058, 18.511044070680509 ], [ -88.315262043886818, 18.511044070680509 ], [ -88.315262043886818, 18.511313565265745 ] ], [ [ -88.313914570960648, 18.508618619413387 ], [ -88.313914570960648, 18.50834912482815 ], [ -88.313645076375408, 18.50834912482815 ], [ -88.313645076375408, 18.508618619413387 ], [ -88.313914570960648, 18.508618619413387 ] ] ] ] } },
{ "type": "Feature", "properties": { "ZONA_MET": "Chetumal", "INTENSIDAD": "Intensa", "T_PROM_POL": 4.0, "T_MIN_CIUD": 3.0, "DIF_TERMIC": 9.0 }, "geometry": { "type": "MultiPolygon", "coordinates": [ [ [ [ -88.325233343540546, 18.507810135657678 ], [ -88.324963848955306, 18.507810135657678 ], [ -88.324963848955306, 18.507540641072442 ], [ -88.324424859784841, 18.507540641072442 ], [ -88.324424859784841, 18.507271146487206 ], [ -88.323885870614362, 18.507271146487206 ], [ -88.323885870614362, 18.50700165190197 ], [ -88.323616376029136, 18.50700165190197 ], [ -88.323616376029136, 18.506732157316737 ], [ -88.324155365199601, 18.506732157316737 ], [ -88.324155365199601, 18.50700165190197 ], [ -88.324694354370081, 18.50700165190197 ], [ -88.324694354370081, 18.506732157316737 ], [ -88.324963848955306, 18.506732157316737 ], [ -88.324963848955306, 18.50700165190197 ], [ -88.325233343540546, 18.50700165190197 ], [ -88.325233343540546, 18.507810135657678 ] ] ] ] } },
{ "type": "Feature", "properties": { "ZONA_MET": "Chetumal", "INTENSIDAD": "Intensa", "T_PROM_POL": 4.0, "T_MIN_CIUD": 3.0, "DIF_TERMIC": 8.0 }, "geometry": { "type": "MultiPolygon", "coordinates": [ [ [ [ -88.291816014971303, 18.510505081510036 ], [ -88.290738036630358, 18.510505081510036 ], [ -88.290738036630358, 18.508888113998623 ], [ -88.291007531215598, 18.508888113998623 ], [ -88.291007531215598, 18.508618619413387 ], [ -88.291546520386063, 18.508618619413387 ], [ -88.291546520386063, 18.50834912482815 ], [ -88.291007531215598, 18.50834912482815 ], [ -88.291007531215598, 18.508079630242914 ], [ -88.291816014971303, 18.508079630242914 ], [ -88.291816014971303, 18.507810135657678 ], [ -88.291546520386063, 18.507810135657678 ], [ -88.291546520386063, 18.507540641072442 ], [ -88.291277025800824, 18.507540641072442 ], [ -88.291277025800824, 18.506732157316737 ], [ -88.291816014971303, 18.506732157316737 ], [ -88.291816014971303, 18.50700165190197 ], [ -88.292085509556543, 18.50700165190197 ], [ -88.292085509556543, 18.507271146487206 ], [ -88.292355004141768, 18.507271146487206 ], [ -88.292355004141768, 18.507540641072442 ], [ -88.292085509556543, 18.507540641072442 ], [ -88.292085509556543, 18.508079630242914 ], [ -88.292355004141768, 18.508079630242914 ], [ -88.292355004141768, 18.50834912482815 ], [ -88.292085509556543, 18.50834912482815 ], [ -88.292085509556543, 18.508888113998623 ], [ -88.292355004141768, 18.508888113998623 ], [ -88.292355004141768, 18.509157608583859 ], [ -88.293163487897488, 18.509157608583859 ], [ -88.293163487897488, 18.509696597754331 ], [ -88.292893993312248, 18.509696597754331 ], [ -88.292893993312248, 18.509427103169095 ], [ -88.292624498727008, 18.509427103169095 ], [ -88.292624498727008, 18.509696597754331 ], [ -88.292355004141768, 18.509696597754331 ], [ -88.292355004141768, 18.509966092339564 ], [ -88.291816014971303, 18.509966092339564 ], [ -88.291816014971303, 18.510505081510036 ] ], [ [ -88.292355004141768, 18.509427103169095 ], [ -88.292355004141768, 18.509157608583859 ], [ -88.292085509556543, 18.509157608583859 ], [ -88.292085509556543, 18.509427103169095 ], [ -88.292355004141768, 18.509427103169095 ] ] ] ] } },
{ "type": "Feature", "properties": { "ZONA_MET": "Chetumal", "INTENSIDAD": "Intensa", "T_PROM_POL": 4.0, "T_MIN_CIUD": 3.0, "DIF_TERMIC": 9.0 }, "geometry": { "type": "MultiPolygon", "coordinates": [ [ [ [ -88.302595798380736, 18.509966092339564 ], [ -88.302056809210271, 18.509966092339564 ], [ -88.302056809210271, 18.508888113998623 ], [ -88.301517820039791, 18.508888113998623 ], [ -88.301517820039791, 18.509157608583859 ], [ -88.300978830869326, 18.509157608583859 ], [ -88.300978830869326, 18.508079630242914 ], [ -88.300709336284086, 18.508079630242914 ], [ -88.300709336284086, 18.507810135657678 ], [ -88.300170347113607, 18.507810135657678 ], [ -88.300170347113607, 18.508079630242914 ], [ -88.299900852528381, 18.508079630242914 ], [ -88.299900852528381, 18.507810135657678 ], [ -88.299631357943142, 18.507810135657678 ], [ -88.299631357943142, 18.508079630242914 ], [ -88.299361863357902, 18.508079630242914 ], [ -88.299361863357902, 18.507540641072442 ], [ -88.299092368772676, 18.507540641072442 ], [ -88.299092368772676, 18.507271146487206 ], [ -88.299361863357902, 18.507271146487206 ], [ -88.299361863357902, 18.50700165190197 ], [ -88.299092368772676, 18.50700165190197 ], [ -88.299092368772676, 18.506732157316737 ], [ -88.299361863357902, 18.506732157316737 ], [ -88.299361863357902, 18.506462662731501 ], [ -88.299631357943142, 18.506462662731501 ], [ -88.299631357943142, 18.50700165190197 ], [ -88.300170347113607, 18.50700165190197 ], [ -88.300170347113607, 18.506732157316737 ], [ -88.300439841698847, 18.506732157316737 ], [ -88.300439841698847, 18.507271146487206 ], [ -88.301248325454551, 18.507271146487206 ], [ -88.301248325454551, 18.50700165190197 ], [ -88.302326303795496, 18.50700165190197 ], [ -88.302326303795496, 18.507271146487206 ], [ -88.302595798380736, 18.507271146487206 ], [ -88.302595798380736, 18.507540641072442 ], [ -88.302865292965976, 18.507540641072442 ], [ -88.302865292965976, 18.507810135657678 ], [ -88.303134787551201, 18.507810135657678 ], [ -88.303134787551201, 18.508079630242914 ], [ -88.302865292965976, 18.508079630242914 ], [ -88.302865292965976, 18.50834912482815 ], [ -88.303404282136441, 18.50834912482815 ], [ -88.303404282136441, 18.508079630242914 ], [ -88.30394327130692, 18.508079630242914 ], [ -88.30394327130692, 18.507810135657678 ], [ -88.304212765892146, 18.507810135657678 ], [ -88.304212765892146, 18.50834912482815 ], [ -88.304482260477386, 18.50834912482815 ], [ -88.304482260477386, 18.507810135657678 ], [ -88.305021249647865, 18.507810135657678 ], [ -88.305021249647865, 18.507540641072442 ], [ -88.305290744233091, 18.507540641072442 ], [ -88.305290744233091, 18.507271146487206 ], [ -88.30582973340357, 18.507271146487206 ], [ -88.30582973340357, 18.508618619413387 ], [ -88.30556023881833, 18.508618619413387 ], [ -88.30556023881833, 18.50834912482815 ], [ -88.305290744233091, 18.50834912482815 ], [ -88.305290744233091, 18.508888113998623 ], [ -88.30556023881833, 18.508888113998623 ], [ -88.30556023881833, 18.509157608583859 ], [ -88.305021249647865, 18.509157608583859 ], [ -88.305021249647865, 18.508888113998623 ], [ -88.304482260477386, 18.508888113998623 ], [ -88.304482260477386, 18.509157608583859 ], [ -88.304212765892146, 18.509157608583859 ], [ -88.304212765892146, 18.508618619413387 ], [ -88.302865292965976, 18.508618619413387 ], [ -88.302865292965976, 18.508888113998623 ], [ -88.302595798380736, 18.508888113998623 ], [ -88.302595798380736, 18.509427103169095 ], [ -88.302326303795496, 18.509427103169095 ], [ -88.302326303795496, 18.509696597754331 ], [ -88.302595798380736, 18.509696597754331 ], [ -88.302595798380736, 18.509966092339564 ] ] ] ] } },
{ "type": "Feature", "properties": { "ZONA_MET": "Chetumal", "INTENSIDAD": "Intensa", "T_PROM_POL": 4.0, "T_MIN_CIUD": 3.0, "DIF_TERMIC": 8.0 }, "geometry": { "type": "MultiPolygon", "coordinates": [ [ [ [ -88.30906366842639, 18.50834912482815 ], [ -88.308255184670685, 18.50834912482815 ], [ -88.308255184670685, 18.507271146487206 ], [ -88.308524679255925, 18.507271146487206 ], [ -88.308524679255925, 18.50700165190197 ], [ -88.308794173841164, 18.50700165190197 ], [ -88.308794173841164, 18.505923673561028 ], [ -88.30906366842639, 18.505923673561028 ], [ -88.30906366842639, 18.506462662731501 ], [ -88.30933316301163, 18.506462662731501 ], [ -88.30933316301163, 18.506193168146265 ], [ -88.309602657596869, 18.506193168146265 ], [ -88.309602657596869, 18.506462662731501 ], [ -88.309872152182109, 18.506462662731501 ], [ -88.309872152182109, 18.506193168146265 ], [ -88.310141646767335, 18.506193168146265 ], [ -88.310141646767335, 18.50700165190197 ], [ -88.309602657596869, 18.50700165190197 ], [ -88.309602657596869, 18.507540641072442 ], [ -88.30933316301163, 18.507540641072442 ], [ -88.30933316301163, 18.508079630242914 ], [ -88.30906366842639, 18.508079630242914 ], [ -88.30906366842639, 18.50834912482815 ] ], [ [ -88.30906366842639, 18.507540641072442 ], [ -88.30906366842639, 18.50700165190197 ], [ -88.308794173841164, 18.50700165190197 ], [ -88.308794173841164, 18.507540641072442 ], [ -88.30906366842639, 18.507540641072442 ] ] ] ] } },
{ "type": "Feature", "properties": { "ZONA_MET": "Chetumal", "INTENSIDAD": "Intensa", "T_PROM_POL": 4.0, "T_MIN_CIUD": 3.0, "DIF_TERMIC": 9.0 }, "geometry": { "type": "MultiPolygon", "coordinates": [ [ [ [ -88.332779191927159, 18.506732157316737 ], [ -88.33224020275668, 18.506732157316737 ], [ -88.33224020275668, 18.506462662731501 ], [ -88.331162224415735, 18.506462662731501 ], [ -88.331162224415735, 18.506193168146265 ], [ -88.330892729830495, 18.506193168146265 ], [ -88.330892729830495, 18.505654178975792 ], [ -88.331431719000975, 18.505654178975792 ], [ -88.331431719000975, 18.505923673561028 ], [ -88.33197070817144, 18.505923673561028 ], [ -88.33197070817144, 18.506193168146265 ], [ -88.332779191927159, 18.506193168146265 ], [ -88.332779191927159, 18.506732157316737 ] ] ] ] } },
{ "type": "Feature", "properties": { "ZONA_MET": "Chetumal", "INTENSIDAD": "Extrema", "T_PROM_POL": 4.0, "T_MIN_CIUD": 3.0, "DIF_TERMIC": 1.0 }, "geometry": { "type": "MultiPolygon", "coordinates": [ [ [ [ -88.325233343540546, 18.50700165190197 ], [ -88.324963848955306, 18.50700165190197 ], [ -88.324963848955306, 18.505654178975792 ], [ -88.324424859784841, 18.505654178975792 ], [ -88.324424859784841, 18.505923673561028 ], [ -88.323616376029136, 18.505923673561028 ], [ -88.323616376029136, 18.50511518980532 ], [ -88.323346881443896, 18.50511518980532 ], [ -88.323346881443896, 18.504845695220084 ], [ -88.323616376029136, 18.504845695220084 ], [ -88.323616376029136, 18.504576200634848 ], [ -88.323885870614362, 18.504576200634848 ], [ -88.323885870614362, 18.50511518980532 ], [ -88.324424859784841, 18.50511518980532 ], [ -88.324424859784841, 18.504845695220084 ], [ -88.324963848955306, 18.504845695220084 ], [ -88.324963848955306, 18.505384684390556 ], [ -88.325772332711026, 18.505384684390556 ], [ -88.325772332711026, 18.505654178975792 ], [ -88.326041827296251, 18.505654178975792 ], [ -88.326041827296251, 18.505923673561028 ], [ -88.327119805637196, 18.505923673561028 ], [ -88.327119805637196, 18.506462662731501 ], [ -88.326311321881491, 18.506462662731501 ], [ -88.326311321881491, 18.506732157316737 ], [ -88.325233343540546, 18.506732157316737 ], [ -88.325233343540546, 18.50700165190197 ] ] ] ] } },
{ "type": "Feature", "properties": { "ZONA_MET": "Chetumal", "INTENSIDAD": "Intensa", "T_PROM_POL": 4.0, "T_MIN_CIUD": 3.0, "DIF_TERMIC": 9.0 }, "geometry": { "type": "MultiPolygon", "coordinates": [ [ [ [ -88.321460419347247, 18.504845695220084 ], [ -88.320921430176767, 18.504845695220084 ], [ -88.320921430176767, 18.504576200634848 ], [ -88.320112946421062, 18.504576200634848 ], [ -88.320112946421062, 18.504306706049611 ], [ -88.320382441006302, 18.504306706049611 ], [ -88.320382441006302, 18.504037211464375 ], [ -88.321460419347247, 18.504037211464375 ], [ -88.321460419347247, 18.504306706049611 ], [ -88.321729913932487, 18.504306706049611 ], [ -88.321729913932487, 18.504576200634848 ], [ -88.321460419347247, 18.504576200634848 ], [ -88.321460419347247, 18.504845695220084 ] ] ] ] } },
{ "type": "Feature", "properties": { "ZONA_MET": "Chetumal", "INTENSIDAD": "Intensa", "T_PROM_POL": 4.0, "T_MIN_CIUD": 3.0, "DIF_TERMIC": 9.0 }, "geometry": { "type": "MultiPolygon", "coordinates": [ [ [ [ -88.324963848955306, 18.504845695220084 ], [ -88.324424859784841, 18.504845695220084 ], [ -88.324424859784841, 18.504037211464375 ], [ -88.324155365199601, 18.504037211464375 ], [ -88.324155365199601, 18.503498222293906 ], [ -88.324963848955306, 18.503498222293906 ], [ -88.324963848955306, 18.504845695220084 ] ] ] ] } },
{ "type": "Feature", "properties": { "ZONA_MET": "Chetumal", "INTENSIDAD": "Intensa", "T_PROM_POL": 4.0, "T_MIN_CIUD": 3.0, "DIF_TERMIC": 8.0 }, "geometry": { "type": "MultiPolygon", "coordinates": [ [ [ [ -88.299631357943142, 18.504845695220084 ], [ -88.299092368772676, 18.504845695220084 ], [ -88.299092368772676, 18.504306706049611 ], [ -88.298822874187437, 18.504306706049611 ], [ -88.298822874187437, 18.503767716879143 ], [ -88.299361863357902, 18.503767716879143 ], [ -88.299361863357902, 18.503498222293906 ], [ -88.299900852528381, 18.503498222293906 ], [ -88.299900852528381, 18.503767716879143 ], [ -88.299631357943142, 18.503767716879143 ], [ -88.299631357943142, 18.504037211464375 ], [ -88.299900852528381, 18.504037211464375 ], [ -88.299900852528381, 18.504306706049611 ], [ -88.300170347113607, 18.504306706049611 ], [ -88.300170347113607, 18.504576200634848 ], [ -88.299631357943142, 18.504576200634848 ], [ -88.299631357943142, 18.504845695220084 ] ] ] ] } },
{ "type": "Feature", "properties": { "ZONA_MET": "Chetumal", "INTENSIDAD": "Intensa", "T_PROM_POL": 4.0, "T_MIN_CIUD": 3.0, "DIF_TERMIC": 9.0 }, "geometry": { "type": "MultiPolygon", "coordinates": [ [ [ [ -88.294780455408898, 18.508079630242914 ], [ -88.293702477067953, 18.508079630242914 ], [ -88.293702477067953, 18.507810135657678 ], [ -88.293432982482713, 18.507810135657678 ], [ -88.293432982482713, 18.507540641072442 ], [ -88.293163487897488, 18.507540641072442 ], [ -88.293163487897488, 18.506732157316737 ], [ -88.293432982482713, 18.506732157316737 ], [ -88.293432982482713, 18.506193168146265 ], [ -88.293702477067953, 18.506193168146265 ], [ -88.293702477067953, 18.506462662731501 ], [ -88.293971971653193, 18.506462662731501 ], [ -88.293971971653193, 18.506732157316737 ], [ -88.294241466238418, 18.506732157316737 ], [ -88.294241466238418, 18.505923673561028 ], [ -88.293971971653193, 18.505923673561028 ], [ -88.293971971653193, 18.505384684390556 ], [ -88.293702477067953, 18.505384684390556 ], [ -88.293702477067953, 18.504845695220084 ], [ -88.293163487897488, 18.504845695220084 ], [ -88.293163487897488, 18.504576200634848 ], [ -88.293702477067953, 18.504576200634848 ], [ -88.293702477067953, 18.504306706049611 ], [ -88.293971971653193, 18.504306706049611 ], [ -88.293971971653193, 18.503767716879143 ], [ -88.294241466238418, 18.503767716879143 ], [ -88.294241466238418, 18.503498222293906 ], [ -88.294780455408898, 18.503498222293906 ], [ -88.294780455408898, 18.50322872770867 ], [ -88.295049949994137, 18.50322872770867 ], [ -88.295049949994137, 18.502959233123434 ], [ -88.295319444579363, 18.502959233123434 ], [ -88.295319444579363, 18.502150749367726 ], [ -88.295858433749842, 18.502150749367726 ], [ -88.295858433749842, 18.502420243952962 ], [ -88.296666917505547, 18.502420243952962 ], [ -88.296666917505547, 18.502689738538198 ], [ -88.296936412090787, 18.502689738538198 ], [ -88.296936412090787, 18.502420243952962 ], [ -88.298014390431732, 18.502420243952962 ], [ -88.298014390431732, 18.502689738538198 ], [ -88.298553379602197, 18.502689738538198 ], [ -88.298553379602197, 18.502959233123434 ], [ -88.298014390431732, 18.502959233123434 ], [ -88.298014390431732, 18.504037211464375 ], [ -88.297744895846492, 18.504037211464375 ], [ -88.297744895846492, 18.504306706049611 ], [ -88.297475401261252, 18.504306706049611 ], [ -88.297475401261252, 18.504845695220084 ], [ -88.297205906676012, 18.504845695220084 ], [ -88.297205906676012, 18.50511518980532 ], [ -88.297744895846492, 18.50511518980532 ], [ -88.297744895846492, 18.505384684390556 ], [ -88.297475401261252, 18.505384684390556 ], [ -88.297475401261252, 18.505654178975792 ], [ -88.297205906676012, 18.505654178975792 ], [ -88.297205906676012, 18.506193168146265 ], [ -88.295858433749842, 18.506193168146265 ], [ -88.295858433749842, 18.50511518980532 ], [ -88.295049949994137, 18.50511518980532 ], [ -88.295049949994137, 18.505384684390556 ], [ -88.294780455408898, 18.505384684390556 ], [ -88.294780455408898, 18.504845695220084 ], [ -88.294241466238418, 18.504845695220084 ], [ -88.294241466238418, 18.505384684390556 ], [ -88.294510960823658, 18.505384684390556 ], [ -88.294510960823658, 18.505654178975792 ], [ -88.294780455408898, 18.505654178975792 ], [ -88.294780455408898, 18.508079630242914 ] ], [ [ -88.294241466238418, 18.507810135657678 ], [ -88.294241466238418, 18.50700165190197 ], [ -88.293432982482713, 18.50700165190197 ], [ -88.293432982482713, 18.507540641072442 ], [ -88.293971971653193, 18.507540641072442 ], [ -88.293971971653193, 18.507810135657678 ], [ -88.294241466238418, 18.507810135657678 ] ], [ [ -88.296666917505547, 18.505654178975792 ], [ -88.296666917505547, 18.50511518980532 ], [ -88.296397422920307, 18.50511518980532 ], [ -88.296397422920307, 18.505654178975792 ], [ -88.296666917505547, 18.505654178975792 ] ], [ [ -88.296127928335082, 18.504845695220084 ], [ -88.296127928335082, 18.504306706049611 ], [ -88.296397422920307, 18.504306706049611 ], [ -88.296397422920307, 18.504037211464375 ], [ -88.296127928335082, 18.504037211464375 ], [ -88.296127928335082, 18.50322872770867 ], [ -88.295588939164602, 18.50322872770867 ], [ -88.295588939164602, 18.504037211464375 ], [ -88.295319444579363, 18.504037211464375 ], [ -88.295319444579363, 18.504306706049611 ], [ -88.295049949994137, 18.504306706049611 ], [ -88.295049949994137, 18.504576200634848 ], [ -88.295319444579363, 18.504576200634848 ], [ -88.295319444579363, 18.504845695220084 ], [ -88.295588939164602, 18.504845695220084 ], [ -88.295588939164602, 18.504576200634848 ], [ -88.295858433749842, 18.504576200634848 ], [ -88.295858433749842, 18.504845695220084 ], [ -88.296127928335082, 18.504845695220084 ] ], [ [ -88.296666917505547, 18.504576200634848 ], [ -88.296666917505547, 18.504306706049611 ], [ -88.296397422920307, 18.504306706049611 ], [ -88.296397422920307, 18.504576200634848 ], [ -88.296666917505547, 18.504576200634848 ] ], [ [ -88.297475401261252, 18.504306706049611 ], [ -88.297475401261252, 18.504037211464375 ], [ -88.296936412090787, 18.504037211464375 ], [ -88.296936412090787, 18.504306706049611 ], [ -88.297475401261252, 18.504306706049611 ] ], [ [ -88.295049949994137, 18.504306706049611 ], [ -88.295049949994137, 18.504037211464375 ], [ -88.294510960823658, 18.504037211464375 ], [ -88.294510960823658, 18.504306706049611 ], [ -88.295049949994137, 18.504306706049611 ] ] ] ] } },
{ "type": "Feature", "properties": { "ZONA_MET": "Chetumal", "INTENSIDAD": "Intensa", "T_PROM_POL": 4.0, "T_MIN_CIUD": 3.0, "DIF_TERMIC": 9.0 }, "geometry": { "type": "MultiPolygon", "coordinates": [ [ [ [ -88.319034968080118, 18.504306706049611 ], [ -88.318765473494892, 18.504306706049611 ], [ -88.318765473494892, 18.504037211464375 ], [ -88.318495978909652, 18.504037211464375 ], [ -88.318495978909652, 18.504306706049611 ], [ -88.317956989739173, 18.504306706049611 ], [ -88.317956989739173, 18.503498222293906 ], [ -88.318495978909652, 18.503498222293906 ], [ -88.318495978909652, 18.50322872770867 ], [ -88.318765473494892, 18.50322872770867 ], [ -88.318765473494892, 18.502420243952962 ], [ -88.318226484324413, 18.502420243952962 ], [ -88.318226484324413, 18.502150749367726 ], [ -88.317956989739173, 18.502150749367726 ], [ -88.317956989739173, 18.501611760197253 ], [ -88.318765473494892, 18.501611760197253 ], [ -88.318765473494892, 18.501881254782489 ], [ -88.319034968080118, 18.501881254782489 ], [ -88.319034968080118, 18.502959233123434 ], [ -88.319304462665357, 18.502959233123434 ], [ -88.319304462665357, 18.50322872770867 ], [ -88.319034968080118, 18.50322872770867 ], [ -88.319034968080118, 18.503498222293906 ], [ -88.319304462665357, 18.503498222293906 ], [ -88.319304462665357, 18.503767716879143 ], [ -88.319034968080118, 18.503767716879143 ], [ -88.319034968080118, 18.504306706049611 ] ] ] ] } },
{ "type": "Feature", "properties": { "ZONA_MET": "Chetumal", "INTENSIDAD": "Intensa", "T_PROM_POL": 4.0, "T_MIN_CIUD": 3.0, "DIF_TERMIC": 9.0 }, "geometry": { "type": "MultiPolygon", "coordinates": [ [ [ [ -88.320382441006302, 18.501881254782489 ], [ -88.319843451835837, 18.501881254782489 ], [ -88.319843451835837, 18.501611760197253 ], [ -88.319304462665357, 18.501611760197253 ], [ -88.319304462665357, 18.500803276441545 ], [ -88.319573957250597, 18.500803276441545 ], [ -88.319573957250597, 18.500533781856312 ], [ -88.319843451835837, 18.500533781856312 ], [ -88.319843451835837, 18.500264287271076 ], [ -88.320112946421062, 18.500264287271076 ], [ -88.320112946421062, 18.501342265612017 ], [ -88.320382441006302, 18.501342265612017 ], [ -88.320382441006302, 18.501881254782489 ] ] ] ] } },
{ "type": "Feature", "properties": { "ZONA_MET": "Chetumal", "INTENSIDAD": "Intensa", "T_PROM_POL": 4.0, "T_MIN_CIUD": 3.0, "DIF_TERMIC": 9.0 }, "geometry": { "type": "MultiPolygon", "coordinates": [ [ [ [ -88.319034968080118, 18.501611760197253 ], [ -88.318765473494892, 18.501611760197253 ], [ -88.318765473494892, 18.501342265612017 ], [ -88.318495978909652, 18.501342265612017 ], [ -88.318495978909652, 18.501072771026781 ], [ -88.317148505983468, 18.501072771026781 ], [ -88.317148505983468, 18.500803276441545 ], [ -88.316879011398242, 18.500803276441545 ], [ -88.316879011398242, 18.500533781856312 ], [ -88.317148505983468, 18.500533781856312 ], [ -88.317148505983468, 18.500264287271076 ], [ -88.317687495153947, 18.500264287271076 ], [ -88.317687495153947, 18.500533781856312 ], [ -88.318765473494892, 18.500533781856312 ], [ -88.318765473494892, 18.500803276441545 ], [ -88.319034968080118, 18.500803276441545 ], [ -88.319034968080118, 18.501611760197253 ] ] ] ] } },
{ "type": "Feature", "properties": { "ZONA_MET": "Chetumal", "INTENSIDAD": "Intensa", "T_PROM_POL": 4.0, "T_MIN_CIUD": 3.0, "DIF_TERMIC": 9.0 }, "geometry": { "type": "MultiPolygon", "coordinates": [ [ [ [ -88.306099227988796, 18.498916814344895 ], [ -88.30582973340357, 18.498916814344895 ], [ -88.30582973340357, 18.498647319759659 ], [ -88.30556023881833, 18.498647319759659 ], [ -88.30556023881833, 18.498377825174423 ], [ -88.30582973340357, 18.498377825174423 ], [ -88.30582973340357, 18.49783883600395 ], [ -88.305290744233091, 18.49783883600395 ], [ -88.305290744233091, 18.498108330589186 ], [ -88.304751755062625, 18.498108330589186 ], [ -88.304751755062625, 18.49783883600395 ], [ -88.305021249647865, 18.49783883600395 ], [ -88.305021249647865, 18.497569341418718 ], [ -88.305290744233091, 18.497569341418718 ], [ -88.305290744233091, 18.497299846833481 ], [ -88.306099227988796, 18.497299846833481 ], [ -88.306099227988796, 18.498916814344895 ] ] ] ] } },
{ "type": "Feature", "properties": { "ZONA_MET": "Chetumal", "INTENSIDAD": "Intensa", "T_PROM_POL": 4.0, "T_MIN_CIUD": 3.0, "DIF_TERMIC": 9.0 }, "geometry": { "type": "MultiPolygon", "coordinates": [ [ [ [ -88.299900852528381, 18.50322872770867 ], [ -88.299631357943142, 18.50322872770867 ], [ -88.299631357943142, 18.502959233123434 ], [ -88.299361863357902, 18.502959233123434 ], [ -88.299361863357902, 18.50322872770867 ], [ -88.299092368772676, 18.50322872770867 ], [ -88.299092368772676, 18.502959233123434 ], [ -88.298822874187437, 18.502959233123434 ], [ -88.298822874187437, 18.502689738538198 ], [ -88.299092368772676, 18.502689738538198 ], [ -88.299092368772676, 18.502420243952962 ], [ -88.298822874187437, 18.502420243952962 ], [ -88.298822874187437, 18.502150749367726 ], [ -88.298553379602197, 18.502150749367726 ], [ -88.298553379602197, 18.501881254782489 ], [ -88.298014390431732, 18.501881254782489 ], [ -88.298014390431732, 18.501611760197253 ], [ -88.297744895846492, 18.501611760197253 ], [ -88.297744895846492, 18.501881254782489 ], [ -88.296397422920307, 18.501881254782489 ], [ -88.296397422920307, 18.502150749367726 ], [ -88.295858433749842, 18.502150749367726 ], [ -88.295858433749842, 18.501611760197253 ], [ -88.295588939164602, 18.501611760197253 ], [ -88.295588939164602, 18.500264287271076 ], [ -88.295858433749842, 18.500264287271076 ], [ -88.295858433749842, 18.49999479268584 ], [ -88.295588939164602, 18.49999479268584 ], [ -88.295588939164602, 18.499725298100604 ], [ -88.295319444579363, 18.499725298100604 ], [ -88.295319444579363, 18.499455803515367 ], [ -88.295588939164602, 18.499455803515367 ], [ -88.295588939164602, 18.498647319759659 ], [ -88.295858433749842, 18.498647319759659 ], [ -88.295858433749842, 18.498108330589186 ], [ -88.295588939164602, 18.498108330589186 ], [ -88.295588939164602, 18.496491363077773 ], [ -88.295858433749842, 18.496491363077773 ], [ -88.295858433749842, 18.496221868492537 ], [ -88.295588939164602, 18.496221868492537 ], [ -88.295588939164602, 18.495952373907301 ], [ -88.295319444579363, 18.495952373907301 ], [ -88.295319444579363, 18.495413384736828 ], [ -88.296127928335082, 18.495413384736828 ], [ -88.296127928335082, 18.495682879322064 ], [ -88.296397422920307, 18.495682879322064 ], [ -88.296397422920307, 18.495413384736828 ], [ -88.296666917505547, 18.495413384736828 ], [ -88.296666917505547, 18.494604900981123 ], [ -88.296397422920307, 18.494604900981123 ], [ -88.296397422920307, 18.494874395566356 ], [ -88.296127928335082, 18.494874395566356 ], [ -88.296127928335082, 18.495143890151592 ], [ -88.295858433749842, 18.495143890151592 ], [ -88.295858433749842, 18.494604900981123 ], [ -88.296127928335082, 18.494604900981123 ], [ -88.296127928335082, 18.494335406395887 ], [ -88.296936412090787, 18.494335406395887 ], [ -88.296936412090787, 18.494065911810651 ], [ -88.297205906676012, 18.494065911810651 ], [ -88.297205906676012, 18.494335406395887 ], [ -88.297475401261252, 18.494335406395887 ], [ -88.297475401261252, 18.494065911810651 ], [ -88.297744895846492, 18.494065911810651 ], [ -88.297744895846492, 18.493796417225415 ], [ -88.298014390431732, 18.493796417225415 ], [ -88.298014390431732, 18.494065911810651 ], [ -88.298283885016957, 18.494065911810651 ], [ -88.298283885016957, 18.493796417225415 ], [ -88.298822874187437, 18.493796417225415 ], [ -88.298822874187437, 18.494874395566356 ], [ -88.299092368772676, 18.494874395566356 ], [ -88.299092368772676, 18.495143890151592 ], [ -88.299361863357902, 18.495143890151592 ], [ -88.299361863357902, 18.495413384736828 ], [ -88.299092368772676, 18.495413384736828 ], [ -88.299092368772676, 18.495682879322064 ], [ -88.299631357943142, 18.495682879322064 ], [ -88.299631357943142, 18.495413384736828 ], [ -88.299900852528381, 18.495413384736828 ], [ -88.299900852528381, 18.495682879322064 ], [ -88.300439841698847, 18.495682879322064 ], [ -88.300439841698847, 18.496221868492537 ], [ -88.300709336284086, 18.496221868492537 ], [ -88.300709336284086, 18.496760857663009 ], [ -88.301248325454551, 18.496760857663009 ], [ -88.301248325454551, 18.496491363077773 ], [ -88.301517820039791, 18.496491363077773 ], [ -88.301517820039791, 18.496221868492537 ], [ -88.301787314625031, 18.496221868492537 ], [ -88.301787314625031, 18.496491363077773 ], [ -88.302326303795496, 18.496491363077773 ], [ -88.302326303795496, 18.496760857663009 ], [ -88.302595798380736, 18.496760857663009 ], [ -88.302595798380736, 18.497299846833481 ], [ -88.302056809210271, 18.497299846833481 ], [ -88.302056809210271, 18.49783883600395 ], [ -88.301517820039791, 18.49783883600395 ], [ -88.301517820039791, 18.497569341418718 ], [ -88.301248325454551, 18.497569341418718 ], [ -88.301248325454551, 18.497299846833481 ], [ -88.300978830869326, 18.497299846833481 ], [ -88.300978830869326, 18.497030352248245 ], [ -88.299361863357902, 18.497030352248245 ], [ -88.299361863357902, 18.497569341418718 ], [ -88.298553379602197, 18.497569341418718 ], [ -88.298553379602197, 18.49783883600395 ], [ -88.297744895846492, 18.49783883600395 ], [ -88.297744895846492, 18.497569341418718 ], [ -88.297475401261252, 18.497569341418718 ], [ -88.297475401261252, 18.497299846833481 ], [ -88.296936412090787, 18.497299846833481 ], [ -88.296936412090787, 18.49783883600395 ], [ -88.296666917505547, 18.49783883600395 ], [ -88.296666917505547, 18.498108330589186 ], [ -88.296397422920307, 18.498108330589186 ], [ -88.296397422920307, 18.498916814344895 ], [ -88.296666917505547, 18.498916814344895 ], [ -88.296666917505547, 18.499186308930131 ], [ -88.296397422920307, 18.499186308930131 ], [ -88.296397422920307, 18.499455803515367 ], [ -88.296666917505547, 18.499455803515367 ], [ -88.296666917505547, 18.499725298100604 ], [ -88.296936412090787, 18.499725298100604 ], [ -88.296936412090787, 18.500533781856312 ], [ -88.297205906676012, 18.500533781856312 ], [ -88.297205906676012, 18.49999479268584 ], [ -88.298014390431732, 18.49999479268584 ], [ -88.298014390431732, 18.500264287271076 ], [ -88.298553379602197, 18.500264287271076 ], [ -88.298553379602197, 18.500533781856312 ], [ -88.298283885016957, 18.500533781856312 ], [ -88.298283885016957, 18.501342265612017 ], [ -88.298822874187437, 18.501342265612017 ], [ -88.298822874187437, 18.501072771026781 ], [ -88.299092368772676, 18.501072771026781 ], [ -88.299092368772676, 18.501342265612017 ], [ -88.299631357943142, 18.501342265612017 ], [ -88.299631357943142, 18.501611760197253 ], [ -88.299900852528381, 18.501611760197253 ], [ -88.299900852528381, 18.501881254782489 ], [ -88.300170347113607, 18.501881254782489 ], [ -88.300170347113607, 18.501611760197253 ], [ -88.300439841698847, 18.501611760197253 ], [ -88.300439841698847, 18.501342265612017 ], [ -88.300709336284086, 18.501342265612017 ], [ -88.300709336284086, 18.501072771026781 ], [ -88.300978830869326, 18.501072771026781 ], [ -88.300978830869326, 18.500803276441545 ], [ -88.301517820039791, 18.500803276441545 ], [ -88.301517820039791, 18.501072771026781 ], [ -88.301248325454551, 18.501072771026781 ], [ -88.301248325454551, 18.501342265612017 ], [ -88.301517820039791, 18.501342265612017 ], [ -88.301517820039791, 18.501611760197253 ], [ -88.301248325454551, 18.501611760197253 ], [ -88.301248325454551, 18.502150749367726 ], [ -88.300709336284086, 18.502150749367726 ], [ -88.300709336284086, 18.502420243952962 ], [ -88.300170347113607, 18.502420243952962 ], [ -88.300170347113607, 18.502689738538198 ], [ -88.299900852528381, 18.502689738538198 ], [ -88.299900852528381, 18.50322872770867 ] ], [ [ -88.299900852528381, 18.502420243952962 ], [ -88.299900852528381, 18.502150749367726 ], [ -88.299092368772676, 18.502150749367726 ], [ -88.299092368772676, 18.502420243952962 ], [ -88.299900852528381, 18.502420243952962 ] ], [ [ -88.298014390431732, 18.501342265612017 ], [ -88.298014390431732, 18.500803276441545 ], [ -88.297744895846492, 18.500803276441545 ], [ -88.297744895846492, 18.501072771026781 ], [ -88.297205906676012, 18.501072771026781 ], [ -88.297205906676012, 18.501342265612017 ], [ -88.298014390431732, 18.501342265612017 ] ], [ [ -88.300170347113607, 18.496760857663009 ], [ -88.300170347113607, 18.496491363077773 ], [ -88.299631357943142, 18.496491363077773 ], [ -88.299631357943142, 18.496760857663009 ], [ -88.300170347113607, 18.496760857663009 ] ], [ [ -88.299092368772676, 18.496760857663009 ], [ -88.299092368772676, 18.496491363077773 ], [ -88.299631357943142, 18.496491363077773 ], [ -88.299631357943142, 18.496221868492537 ], [ -88.299361863357902, 18.496221868492537 ], [ -88.299361863357902, 18.495952373907301 ], [ -88.298822874187437, 18.495952373907301 ], [ -88.298822874187437, 18.496221868492537 ], [ -88.298553379602197, 18.496221868492537 ], [ -88.298553379602197, 18.496491363077773 ], [ -88.298822874187437, 18.496491363077773 ], [ -88.298822874187437, 18.496760857663009 ], [ -88.299092368772676, 18.496760857663009 ] ], [ [ -88.296127928335082, 18.496760857663009 ], [ -88.296127928335082, 18.496491363077773 ], [ -88.295858433749842, 18.496491363077773 ], [ -88.295858433749842, 18.496760857663009 ], [ -88.296127928335082, 18.496760857663009 ] ], [ [ -88.297475401261252, 18.496491363077773 ], [ -88.297475401261252, 18.496221868492537 ], [ -88.297205906676012, 18.496221868492537 ], [ -88.297205906676012, 18.496491363077773 ], [ -88.297475401261252, 18.496491363077773 ] ], [ [ -88.297205906676012, 18.496221868492537 ], [ -88.297205906676012, 18.495682879322064 ], [ -88.296936412090787, 18.495682879322064 ], [ -88.296936412090787, 18.496221868492537 ], [ -88.297205906676012, 18.496221868492537 ] ], [ [ -88.297744895846492, 18.495682879322064 ], [ -88.297744895846492, 18.495143890151592 ], [ -88.297475401261252, 18.495143890151592 ], [ -88.297475401261252, 18.495682879322064 ], [ -88.297744895846492, 18.495682879322064 ] ], [ [ -88.298014390431732, 18.495143890151592 ], [ -88.298014390431732, 18.494874395566356 ], [ -88.297744895846492, 18.494874395566356 ], [ -88.297744895846492, 18.495143890151592 ], [ -88.298014390431732, 18.495143890151592 ] ] ] ] } }
]
}
