{
"type": "FeatureCollection",
"name": "UHI_Xalapa",
"crs": { "type": "name", "properties": { "name": "urn:ogc:def:crs:OGC:1.3:CRS84" } },
"features": [
{ "type": "Feature", "properties": { "ZONA_MET": "Xalapa", "INTENSIDAD": "Intensa", "T_PROM_POL": 3.0, "T_MIN_CIUD": 2.0, "DIF_TERMIC": 1.0 }, "geometry": { "type": "MultiPolygon", "coordinates": [ [ [ [ -96.951485522355071, 19.592525841232003 ], [ -96.951216027769846, 19.592525841232003 ], [ -96.951216027769846, 19.592256346646767 ], [ -96.950946533184606, 19.592256346646767 ], [ -96.950946533184606, 19.591717357476295 ], [ -96.950677038599366, 19.591717357476295 ], [ -96.950677038599366, 19.590908873720586 ], [ -96.950946533184606, 19.590908873720586 ], [ -96.950946533184606, 19.591447862891059 ], [ -96.951216027769846, 19.591447862891059 ], [ -96.951216027769846, 19.590908873720586 ], [ -96.952024511525551, 19.590908873720586 ], [ -96.952024511525551, 19.591447862891059 ], [ -96.951755016940311, 19.591447862891059 ], [ -96.951755016940311, 19.591717357476295 ], [ -96.952024511525551, 19.591717357476295 ], [ -96.952024511525551, 19.592256346646767 ], [ -96.951485522355071, 19.592256346646767 ], [ -96.951485522355071, 19.592525841232003 ] ], [ [ -96.951755016940311, 19.591986852061531 ], [ -96.951755016940311, 19.591717357476295 ], [ -96.951485522355071, 19.591717357476295 ], [ -96.951485522355071, 19.591986852061531 ], [ -96.951755016940311, 19.591986852061531 ] ], [ [ -96.951755016940311, 19.591447862891059 ], [ -96.951755016940311, 19.591178368305822 ], [ -96.951485522355071, 19.591178368305822 ], [ -96.951485522355071, 19.591447862891059 ], [ -96.951755016940311, 19.591447862891059 ] ] ] ] } },
{ "type": "Feature", "properties": { "ZONA_MET": "Xalapa", "INTENSIDAD": "Extrema", "T_PROM_POL": 3.0, "T_MIN_CIUD": 2.0, "DIF_TERMIC": 1.0 }, "geometry": { "type": "MultiPolygon", "coordinates": [ [ [ [ -96.927769998854316, 19.570157790657426 ], [ -96.926961515098611, 19.570157790657426 ], [ -96.926961515098611, 19.56988829607219 ], [ -96.926692020513386, 19.56988829607219 ], [ -96.926692020513386, 19.569079812316481 ], [ -96.927500504269091, 19.569079812316481 ], [ -96.927500504269091, 19.56988829607219 ], [ -96.927769998854316, 19.56988829607219 ], [ -96.927769998854316, 19.570157790657426 ] ] ] ] } },
{ "type": "Feature", "properties": { "ZONA_MET": "Xalapa", "INTENSIDAD": "Intensa", "T_PROM_POL": 3.0, "T_MIN_CIUD": 2.0, "DIF_TERMIC": 1.0 }, "geometry": { "type": "MultiPolygon", "coordinates": [ [ [ [ -96.928308988024796, 19.570696779827898 ], [ -96.927769998854316, 19.570696779827898 ], [ -96.927769998854316, 19.570427285242662 ], [ -96.927231009683851, 19.570427285242662 ], [ -96.927231009683851, 19.570696779827898 ], [ -96.926961515098611, 19.570696779827898 ], [ -96.926961515098611, 19.570427285242662 ], [ -96.926422525928146, 19.570427285242662 ], [ -96.926422525928146, 19.570157790657426 ], [ -96.925883536757667, 19.570157790657426 ], [ -96.925883536757667, 19.568810317731248 ], [ -96.926153031342906, 19.568810317731248 ], [ -96.926153031342906, 19.568540823146012 ], [ -96.926422525928146, 19.568540823146012 ], [ -96.926422525928146, 19.568271328560776 ], [ -96.927231009683851, 19.568271328560776 ], [ -96.927231009683851, 19.568540823146012 ], [ -96.927500504269091, 19.568540823146012 ], [ -96.927500504269091, 19.569079812316481 ], [ -96.928039493439556, 19.569079812316481 ], [ -96.928039493439556, 19.569349306901717 ], [ -96.928847977195261, 19.569349306901717 ], [ -96.928847977195261, 19.56988829607219 ], [ -96.928308988024796, 19.56988829607219 ], [ -96.928308988024796, 19.570157790657426 ], [ -96.928847977195261, 19.570157790657426 ], [ -96.928847977195261, 19.570427285242662 ], [ -96.928308988024796, 19.570427285242662 ], [ -96.928308988024796, 19.570696779827898 ] ], [ [ -96.927769998854316, 19.570157790657426 ], [ -96.927769998854316, 19.56988829607219 ], [ -96.927500504269091, 19.56988829607219 ], [ -96.927500504269091, 19.569079812316481 ], [ -96.926692020513386, 19.569079812316481 ], [ -96.926692020513386, 19.56988829607219 ], [ -96.926961515098611, 19.56988829607219 ], [ -96.926961515098611, 19.570157790657426 ], [ -96.927769998854316, 19.570157790657426 ] ] ] ] } },
{ "type": "Feature", "properties": { "ZONA_MET": "Xalapa", "INTENSIDAD": "Intensa", "T_PROM_POL": 3.0, "T_MIN_CIUD": 2.0, "DIF_TERMIC": 1.0 }, "geometry": { "type": "MultiPolygon", "coordinates": [ [ [ [ -96.904054475353576, 19.563689920611765 ], [ -96.903245991597856, 19.563689920611765 ], [ -96.903245991597856, 19.563420426026529 ], [ -96.902707002427391, 19.563420426026529 ], [ -96.902707002427391, 19.563150931441292 ], [ -96.902168013256912, 19.563150931441292 ], [ -96.902168013256912, 19.56288143685606 ], [ -96.902437507842151, 19.56288143685606 ], [ -96.902437507842151, 19.562611942270824 ], [ -96.902707002427391, 19.562611942270824 ], [ -96.902707002427391, 19.562342447685587 ], [ -96.902437507842151, 19.562342447685587 ], [ -96.902437507842151, 19.562072953100351 ], [ -96.902976497012631, 19.562072953100351 ], [ -96.902976497012631, 19.562342447685587 ], [ -96.904054475353576, 19.562342447685587 ], [ -96.904054475353576, 19.562072953100351 ], [ -96.90486295910928, 19.562072953100351 ], [ -96.90486295910928, 19.563150931441292 ], [ -96.904323969938801, 19.563150931441292 ], [ -96.904323969938801, 19.563420426026529 ], [ -96.904054475353576, 19.563420426026529 ], [ -96.904054475353576, 19.563689920611765 ] ] ] ] } },
{ "type": "Feature", "properties": { "ZONA_MET": "Xalapa", "INTENSIDAD": "Intensa", "T_PROM_POL": 3.0, "T_MIN_CIUD": 2.0, "DIF_TERMIC": 1.0 }, "geometry": { "type": "MultiPolygon", "coordinates": [ [ [ [ -96.926692020513386, 19.563420426026529 ], [ -96.926422525928146, 19.563420426026529 ], [ -96.926422525928146, 19.563150931441292 ], [ -96.926153031342906, 19.563150931441292 ], [ -96.926153031342906, 19.562611942270824 ], [ -96.925614042172441, 19.562611942270824 ], [ -96.925614042172441, 19.562342447685587 ], [ -96.925883536757667, 19.562342447685587 ], [ -96.925883536757667, 19.561803458515115 ], [ -96.926422525928146, 19.561803458515115 ], [ -96.926422525928146, 19.562611942270824 ], [ -96.927231009683851, 19.562611942270824 ], [ -96.927231009683851, 19.56288143685606 ], [ -96.927500504269091, 19.56288143685606 ], [ -96.927500504269091, 19.563150931441292 ], [ -96.926692020513386, 19.563150931441292 ], [ -96.926692020513386, 19.563420426026529 ] ] ] ] } },
{ "type": "Feature", "properties": { "ZONA_MET": "Xalapa", "INTENSIDAD": "Intensa", "T_PROM_POL": 3.0, "T_MIN_CIUD": 2.0, "DIF_TERMIC": 1.0 }, "geometry": { "type": "MultiPolygon", "coordinates": [ [ [ [ -96.924805558416722, 19.562611942270824 ], [ -96.924536063831496, 19.562611942270824 ], [ -96.924536063831496, 19.562342447685587 ], [ -96.923997074661017, 19.562342447685587 ], [ -96.923997074661017, 19.561264469344643 ], [ -96.923727580075791, 19.561264469344643 ], [ -96.923727580075791, 19.560994974759407 ], [ -96.924805558416722, 19.560994974759407 ], [ -96.924805558416722, 19.561264469344643 ], [ -96.925075053001962, 19.561264469344643 ], [ -96.925075053001962, 19.562342447685587 ], [ -96.924805558416722, 19.562342447685587 ], [ -96.924805558416722, 19.562611942270824 ] ] ] ] } },
{ "type": "Feature", "properties": { "ZONA_MET": "Xalapa", "INTENSIDAD": "Extrema", "T_PROM_POL": 3.0, "T_MIN_CIUD": 2.0, "DIF_TERMIC": 1.0 }, "geometry": { "type": "MultiPolygon", "coordinates": [ [ [ [ -96.929925955536206, 19.559916996418465 ], [ -96.92965646095098, 19.559916996418465 ], [ -96.92965646095098, 19.559647501833229 ], [ -96.92938696636574, 19.559647501833229 ], [ -96.92938696636574, 19.558839018077521 ], [ -96.92965646095098, 19.558839018077521 ], [ -96.92965646095098, 19.558569523492285 ], [ -96.930195450121445, 19.558569523492285 ], [ -96.930195450121445, 19.558839018077521 ], [ -96.930464944706685, 19.558839018077521 ], [ -96.930464944706685, 19.559108512662757 ], [ -96.930734439291911, 19.559108512662757 ], [ -96.930734439291911, 19.559378007247993 ], [ -96.930464944706685, 19.559378007247993 ], [ -96.930464944706685, 19.559647501833229 ], [ -96.929925955536206, 19.559647501833229 ], [ -96.929925955536206, 19.559916996418465 ] ] ] ] } },
{ "type": "Feature", "properties": { "ZONA_MET": "Xalapa", "INTENSIDAD": "Intensa", "T_PROM_POL": 3.0, "T_MIN_CIUD": 2.0, "DIF_TERMIC": 1.0 }, "geometry": { "type": "MultiPolygon", "coordinates": [ [ [ [ -96.911869818325414, 19.549137213009029 ], [ -96.911330829154934, 19.549137213009029 ], [ -96.911330829154934, 19.548867718423793 ], [ -96.911600323740174, 19.548867718423793 ], [ -96.911600323740174, 19.548598223838557 ], [ -96.911330829154934, 19.548598223838557 ], [ -96.911330829154934, 19.548328729253321 ], [ -96.911061334569695, 19.548328729253321 ], [ -96.911061334569695, 19.548598223838557 ], [ -96.910522345399229, 19.548598223838557 ], [ -96.910522345399229, 19.548059234668088 ], [ -96.911600323740174, 19.548059234668088 ], [ -96.911600323740174, 19.547789740082852 ], [ -96.911869818325414, 19.547789740082852 ], [ -96.911869818325414, 19.548059234668088 ], [ -96.912678302081119, 19.548059234668088 ], [ -96.912678302081119, 19.548328729253321 ], [ -96.912408807495879, 19.548328729253321 ], [ -96.912408807495879, 19.548598223838557 ], [ -96.912139312910639, 19.548598223838557 ], [ -96.912139312910639, 19.548328729253321 ], [ -96.911869818325414, 19.548328729253321 ], [ -96.911869818325414, 19.549137213009029 ] ] ] ] } },
{ "type": "Feature", "properties": { "ZONA_MET": "Xalapa", "INTENSIDAD": "Extrema", "T_PROM_POL": 4.0, "T_MIN_CIUD": 2.0, "DIF_TERMIC": 1.0 }, "geometry": { "type": "MultiPolygon", "coordinates": [ [ [ [ -96.9328903959738, 19.548328729253321 ], [ -96.932351406803335, 19.548328729253321 ], [ -96.932351406803335, 19.548059234668088 ], [ -96.932081912218095, 19.548059234668088 ], [ -96.932081912218095, 19.548328729253321 ], [ -96.931812417632855, 19.548328729253321 ], [ -96.931812417632855, 19.547520245497616 ], [ -96.932081912218095, 19.547520245497616 ], [ -96.932081912218095, 19.547250750912379 ], [ -96.932351406803335, 19.547250750912379 ], [ -96.932351406803335, 19.546981256327143 ], [ -96.93315989055904, 19.546981256327143 ], [ -96.93315989055904, 19.546711761741907 ], [ -96.933698879729505, 19.546711761741907 ], [ -96.933698879729505, 19.546981256327143 ], [ -96.933968374314745, 19.546981256327143 ], [ -96.933968374314745, 19.547250750912379 ], [ -96.933429385144279, 19.547250750912379 ], [ -96.933429385144279, 19.547520245497616 ], [ -96.9328903959738, 19.547520245497616 ], [ -96.9328903959738, 19.548328729253321 ] ] ] ] } },
{ "type": "Feature", "properties": { "ZONA_MET": "Xalapa", "INTENSIDAD": "Intensa", "T_PROM_POL": 3.0, "T_MIN_CIUD": 2.0, "DIF_TERMIC": 1.0 }, "geometry": { "type": "MultiPolygon", "coordinates": [ [ [ [ -96.93154292304763, 19.548328729253321 ], [ -96.93127342846239, 19.548328729253321 ], [ -96.93127342846239, 19.547250750912379 ], [ -96.93154292304763, 19.547250750912379 ], [ -96.93154292304763, 19.546981256327143 ], [ -96.932081912218095, 19.546981256327143 ], [ -96.932081912218095, 19.546711761741907 ], [ -96.932351406803335, 19.546711761741907 ], [ -96.932351406803335, 19.546442267156671 ], [ -96.933698879729505, 19.546442267156671 ], [ -96.933698879729505, 19.546711761741907 ], [ -96.93315989055904, 19.546711761741907 ], [ -96.93315989055904, 19.546981256327143 ], [ -96.932351406803335, 19.546981256327143 ], [ -96.932351406803335, 19.547250750912379 ], [ -96.932081912218095, 19.547250750912379 ], [ -96.932081912218095, 19.547520245497616 ], [ -96.931812417632855, 19.547520245497616 ], [ -96.931812417632855, 19.548059234668088 ], [ -96.93154292304763, 19.548059234668088 ], [ -96.93154292304763, 19.548328729253321 ] ] ] ] } },
{ "type": "Feature", "properties": { "ZONA_MET": "Xalapa", "INTENSIDAD": "Intensa", "T_PROM_POL": 3.0, "T_MIN_CIUD": 2.0, "DIF_TERMIC": 1.0 }, "geometry": { "type": "MultiPolygon", "coordinates": [ [ [ [ -96.916181731689178, 19.548867718423793 ], [ -96.915642742518713, 19.548867718423793 ], [ -96.915642742518713, 19.548328729253321 ], [ -96.915103753348234, 19.548328729253321 ], [ -96.915103753348234, 19.548059234668088 ], [ -96.914834258763008, 19.548059234668088 ], [ -96.914834258763008, 19.547520245497616 ], [ -96.915103753348234, 19.547520245497616 ], [ -96.915103753348234, 19.547789740082852 ], [ -96.915642742518713, 19.547789740082852 ], [ -96.915642742518713, 19.547250750912379 ], [ -96.915373247933474, 19.547250750912379 ], [ -96.915373247933474, 19.546981256327143 ], [ -96.914564764177769, 19.546981256327143 ], [ -96.914564764177769, 19.547789740082852 ], [ -96.913756280422064, 19.547789740082852 ], [ -96.913756280422064, 19.548059234668088 ], [ -96.912947796666344, 19.548059234668088 ], [ -96.912947796666344, 19.546981256327143 ], [ -96.912678302081119, 19.546981256327143 ], [ -96.912678302081119, 19.546172772571435 ], [ -96.912947796666344, 19.546172772571435 ], [ -96.912947796666344, 19.546442267156671 ], [ -96.913486785836824, 19.546442267156671 ], [ -96.913486785836824, 19.546172772571435 ], [ -96.913756280422064, 19.546172772571435 ], [ -96.913756280422064, 19.545903277986199 ], [ -96.914564764177769, 19.545903277986199 ], [ -96.914564764177769, 19.546172772571435 ], [ -96.915373247933474, 19.546172772571435 ], [ -96.915373247933474, 19.545903277986199 ], [ -96.915912237103939, 19.545903277986199 ], [ -96.915912237103939, 19.546442267156671 ], [ -96.916181731689178, 19.546442267156671 ], [ -96.916181731689178, 19.546711761741907 ], [ -96.915912237103939, 19.546711761741907 ], [ -96.915912237103939, 19.547250750912379 ], [ -96.916181731689178, 19.547250750912379 ], [ -96.916181731689178, 19.547520245497616 ], [ -96.915912237103939, 19.547520245497616 ], [ -96.915912237103939, 19.548328729253321 ], [ -96.916181731689178, 19.548328729253321 ], [ -96.916181731689178, 19.548867718423793 ] ], [ [ -96.915642742518713, 19.546442267156671 ], [ -96.915642742518713, 19.546172772571435 ], [ -96.915373247933474, 19.546172772571435 ], [ -96.915373247933474, 19.546442267156671 ], [ -96.915642742518713, 19.546442267156671 ] ] ] ] } },
{ "type": "Feature", "properties": { "ZONA_MET": "Xalapa", "INTENSIDAD": "Intensa", "T_PROM_POL": 3.0, "T_MIN_CIUD": 2.0, "DIF_TERMIC": 1.0 }, "geometry": { "type": "MultiPolygon", "coordinates": [ [ [ [ -96.937202309337579, 19.545903277986199 ], [ -96.935315847240929, 19.545903277986199 ], [ -96.935315847240929, 19.545633783400962 ], [ -96.935046352655689, 19.545633783400962 ], [ -96.935046352655689, 19.545094794230494 ], [ -96.936124330996634, 19.545094794230494 ], [ -96.936124330996634, 19.545364288815726 ], [ -96.936932814752339, 19.545364288815726 ], [ -96.936932814752339, 19.545094794230494 ], [ -96.937741298508044, 19.545094794230494 ], [ -96.937741298508044, 19.545633783400962 ], [ -96.937202309337579, 19.545633783400962 ], [ -96.937202309337579, 19.545903277986199 ] ] ] ] } },
{ "type": "Feature", "properties": { "ZONA_MET": "Xalapa", "INTENSIDAD": "Intensa", "T_PROM_POL": 3.0, "T_MIN_CIUD": 2.0, "DIF_TERMIC": 1.0 }, "geometry": { "type": "MultiPolygon", "coordinates": [ [ [ [ -96.90890537788782, 19.545094794230494 ], [ -96.9080968941321, 19.545094794230494 ], [ -96.9080968941321, 19.544555805060021 ], [ -96.907827399546875, 19.544555805060021 ], [ -96.907827399546875, 19.544286310474785 ], [ -96.9080968941321, 19.544286310474785 ], [ -96.9080968941321, 19.544016815889549 ], [ -96.909174872473045, 19.544016815889549 ], [ -96.909174872473045, 19.544286310474785 ], [ -96.90863588330258, 19.544286310474785 ], [ -96.90863588330258, 19.544825299645257 ], [ -96.90890537788782, 19.544825299645257 ], [ -96.90890537788782, 19.545094794230494 ] ] ] ] } },
{ "type": "Feature", "properties": { "ZONA_MET": "Xalapa", "INTENSIDAD": "Intensa", "T_PROM_POL": 3.0, "T_MIN_CIUD": 2.0, "DIF_TERMIC": 1.0 }, "geometry": { "type": "MultiPolygon", "coordinates": [ [ [ [ -96.909983356228764, 19.547250750912379 ], [ -96.909174872473045, 19.547250750912379 ], [ -96.909174872473045, 19.546981256327143 ], [ -96.909713861643525, 19.546981256327143 ], [ -96.909713861643525, 19.546711761741907 ], [ -96.9080968941321, 19.546711761741907 ], [ -96.9080968941321, 19.546442267156671 ], [ -96.907827399546875, 19.546442267156671 ], [ -96.907827399546875, 19.545903277986199 ], [ -96.90890537788782, 19.545903277986199 ], [ -96.90890537788782, 19.546172772571435 ], [ -96.909983356228764, 19.546172772571435 ], [ -96.909983356228764, 19.545903277986199 ], [ -96.91025285081399, 19.545903277986199 ], [ -96.91025285081399, 19.545633783400962 ], [ -96.910522345399229, 19.545633783400962 ], [ -96.910522345399229, 19.545364288815726 ], [ -96.909983356228764, 19.545364288815726 ], [ -96.909983356228764, 19.545094794230494 ], [ -96.91025285081399, 19.545094794230494 ], [ -96.91025285081399, 19.544825299645257 ], [ -96.909983356228764, 19.544825299645257 ], [ -96.909983356228764, 19.544555805060021 ], [ -96.909713861643525, 19.544555805060021 ], [ -96.909713861643525, 19.544016815889549 ], [ -96.909444367058285, 19.544016815889549 ], [ -96.909444367058285, 19.542938837548604 ], [ -96.909713861643525, 19.542938837548604 ], [ -96.909713861643525, 19.543477826719077 ], [ -96.909983356228764, 19.543477826719077 ], [ -96.909983356228764, 19.542938837548604 ], [ -96.911061334569695, 19.542938837548604 ], [ -96.911061334569695, 19.543477826719077 ], [ -96.911330829154934, 19.543477826719077 ], [ -96.911330829154934, 19.54320833213384 ], [ -96.911600323740174, 19.54320833213384 ], [ -96.911600323740174, 19.544016815889549 ], [ -96.911869818325414, 19.544016815889549 ], [ -96.911869818325414, 19.543747321304313 ], [ -96.912139312910639, 19.543747321304313 ], [ -96.912139312910639, 19.543477826719077 ], [ -96.912408807495879, 19.543477826719077 ], [ -96.912408807495879, 19.543747321304313 ], [ -96.913217291251584, 19.543747321304313 ], [ -96.913217291251584, 19.544016815889549 ], [ -96.914025775007289, 19.544016815889549 ], [ -96.914025775007289, 19.544286310474785 ], [ -96.913486785836824, 19.544286310474785 ], [ -96.913486785836824, 19.544825299645257 ], [ -96.913217291251584, 19.544825299645257 ], [ -96.913217291251584, 19.545094794230494 ], [ -96.912947796666344, 19.545094794230494 ], [ -96.912947796666344, 19.544825299645257 ], [ -96.912678302081119, 19.544825299645257 ], [ -96.912678302081119, 19.545094794230494 ], [ -96.911061334569695, 19.545094794230494 ], [ -96.911061334569695, 19.545903277986199 ], [ -96.910791839984469, 19.545903277986199 ], [ -96.910791839984469, 19.546172772571435 ], [ -96.911061334569695, 19.546172772571435 ], [ -96.911061334569695, 19.546711761741907 ], [ -96.910791839984469, 19.546711761741907 ], [ -96.910791839984469, 19.546442267156671 ], [ -96.909983356228764, 19.546442267156671 ], [ -96.909983356228764, 19.547250750912379 ] ], [ [ -96.910791839984469, 19.544825299645257 ], [ -96.910791839984469, 19.544016815889549 ], [ -96.91025285081399, 19.544016815889549 ], [ -96.91025285081399, 19.544555805060021 ], [ -96.910522345399229, 19.544555805060021 ], [ -96.910522345399229, 19.544825299645257 ], [ -96.910791839984469, 19.544825299645257 ] ], [ [ -96.911330829154934, 19.544555805060021 ], [ -96.911330829154934, 19.544286310474785 ], [ -96.911061334569695, 19.544286310474785 ], [ -96.911061334569695, 19.544555805060021 ], [ -96.911330829154934, 19.544555805060021 ] ] ] ] } },
{ "type": "Feature", "properties": { "ZONA_MET": "Xalapa", "INTENSIDAD": "Intensa", "T_PROM_POL": 3.0, "T_MIN_CIUD": 2.0, "DIF_TERMIC": 1.0 }, "geometry": { "type": "MultiPolygon", "coordinates": [ [ [ [ -96.923458085490552, 19.54320833213384 ], [ -96.922380107149607, 19.54320833213384 ], [ -96.922380107149607, 19.542669342963368 ], [ -96.922919096320072, 19.542669342963368 ], [ -96.922919096320072, 19.542130353792899 ], [ -96.923188590905312, 19.542130353792899 ], [ -96.923188590905312, 19.541591364622427 ], [ -96.923458085490552, 19.541591364622427 ], [ -96.923458085490552, 19.542130353792899 ], [ -96.923727580075791, 19.542130353792899 ], [ -96.923727580075791, 19.542938837548604 ], [ -96.923458085490552, 19.542938837548604 ], [ -96.923458085490552, 19.54320833213384 ] ] ] ] } },
{ "type": "Feature", "properties": { "ZONA_MET": "Xalapa", "INTENSIDAD": "Intensa", "T_PROM_POL": 3.0, "T_MIN_CIUD": 2.0, "DIF_TERMIC": 1.0 }, "geometry": { "type": "MultiPolygon", "coordinates": [ [ [ [ -96.933968374314745, 19.542130353792899 ], [ -96.93315989055904, 19.542130353792899 ], [ -96.93315989055904, 19.541860859207663 ], [ -96.933698879729505, 19.541860859207663 ], [ -96.933698879729505, 19.541591364622427 ], [ -96.933429385144279, 19.541591364622427 ], [ -96.933429385144279, 19.541321870037191 ], [ -96.9328903959738, 19.541321870037191 ], [ -96.9328903959738, 19.541052375451955 ], [ -96.934507363485224, 19.541052375451955 ], [ -96.934507363485224, 19.541321870037191 ], [ -96.933968374314745, 19.541321870037191 ], [ -96.933968374314745, 19.541591364622427 ], [ -96.934237868899984, 19.541591364622427 ], [ -96.934237868899984, 19.541860859207663 ], [ -96.933968374314745, 19.541860859207663 ], [ -96.933968374314745, 19.542130353792899 ] ] ] ] } },
{ "type": "Feature", "properties": { "ZONA_MET": "Xalapa", "INTENSIDAD": "Extrema", "T_PROM_POL": 3.0, "T_MIN_CIUD": 2.0, "DIF_TERMIC": 1.0 }, "geometry": { "type": "MultiPolygon", "coordinates": [ [ [ [ -96.925075053001962, 19.541052375451955 ], [ -96.923997074661017, 19.541052375451955 ], [ -96.923997074661017, 19.540782880866718 ], [ -96.924266569246257, 19.540782880866718 ], [ -96.924266569246257, 19.540513386281482 ], [ -96.923997074661017, 19.540513386281482 ], [ -96.923997074661017, 19.540243891696246 ], [ -96.923727580075791, 19.540243891696246 ], [ -96.923727580075791, 19.53997439711101 ], [ -96.923997074661017, 19.53997439711101 ], [ -96.923997074661017, 19.539435407940537 ], [ -96.925075053001962, 19.539435407940537 ], [ -96.925075053001962, 19.53997439711101 ], [ -96.925883536757667, 19.53997439711101 ], [ -96.925883536757667, 19.540243891696246 ], [ -96.925614042172441, 19.540243891696246 ], [ -96.925614042172441, 19.540782880866718 ], [ -96.925075053001962, 19.540782880866718 ], [ -96.925075053001962, 19.541052375451955 ] ], [ [ -96.925075053001962, 19.540782880866718 ], [ -96.925075053001962, 19.540513386281482 ], [ -96.924805558416722, 19.540513386281482 ], [ -96.924805558416722, 19.540782880866718 ], [ -96.925075053001962, 19.540782880866718 ] ] ] ] } },
{ "type": "Feature", "properties": { "ZONA_MET": "Xalapa", "INTENSIDAD": "Intensa", "T_PROM_POL": 3.0, "T_MIN_CIUD": 2.0, "DIF_TERMIC": 1.0 }, "geometry": { "type": "MultiPolygon", "coordinates": [ [ [ [ -96.919685161297252, 19.541591364622427 ], [ -96.919415666712013, 19.541591364622427 ], [ -96.919415666712013, 19.541321870037191 ], [ -96.919146172126773, 19.541321870037191 ], [ -96.919146172126773, 19.541591364622427 ], [ -96.918876677541533, 19.541591364622427 ], [ -96.918876677541533, 19.541321870037191 ], [ -96.918607182956308, 19.541321870037191 ], [ -96.918607182956308, 19.540782880866718 ], [ -96.918337688371068, 19.540782880866718 ], [ -96.918337688371068, 19.53997439711101 ], [ -96.918607182956308, 19.53997439711101 ], [ -96.918607182956308, 19.539435407940537 ], [ -96.918876677541533, 19.539435407940537 ], [ -96.918876677541533, 19.539704902525774 ], [ -96.919685161297252, 19.539704902525774 ], [ -96.919685161297252, 19.53997439711101 ], [ -96.919415666712013, 19.53997439711101 ], [ -96.919415666712013, 19.540782880866718 ], [ -96.919685161297252, 19.540782880866718 ], [ -96.919685161297252, 19.541591364622427 ] ] ] ] } },
{ "type": "Feature", "properties": { "ZONA_MET": "Xalapa", "INTENSIDAD": "Intensa", "T_PROM_POL": 3.0, "T_MIN_CIUD": 2.0, "DIF_TERMIC": 1.0 }, "geometry": { "type": "MultiPolygon", "coordinates": [ [ [ [ -96.905671442864985, 19.540782880866718 ], [ -96.905401948279746, 19.540782880866718 ], [ -96.905401948279746, 19.540243891696246 ], [ -96.905671442864985, 19.540243891696246 ], [ -96.905671442864985, 19.538626924184832 ], [ -96.905940937450225, 19.538626924184832 ], [ -96.905940937450225, 19.538896418770069 ], [ -96.90647992662069, 19.538896418770069 ], [ -96.90647992662069, 19.539165913355301 ], [ -96.90701891579117, 19.539165913355301 ], [ -96.90701891579117, 19.538896418770069 ], [ -96.907288410376395, 19.538896418770069 ], [ -96.907288410376395, 19.538357429599596 ], [ -96.9080968941321, 19.538357429599596 ], [ -96.9080968941321, 19.539165913355301 ], [ -96.907557904961635, 19.539165913355301 ], [ -96.907557904961635, 19.539435407940537 ], [ -96.9080968941321, 19.539435407940537 ], [ -96.9080968941321, 19.539704902525774 ], [ -96.907557904961635, 19.539704902525774 ], [ -96.907557904961635, 19.540243891696246 ], [ -96.907288410376395, 19.540243891696246 ], [ -96.907288410376395, 19.540513386281482 ], [ -96.90701891579117, 19.540513386281482 ], [ -96.90701891579117, 19.53997439711101 ], [ -96.906210432035451, 19.53997439711101 ], [ -96.906210432035451, 19.539704902525774 ], [ -96.905940937450225, 19.539704902525774 ], [ -96.905940937450225, 19.540513386281482 ], [ -96.905671442864985, 19.540513386281482 ], [ -96.905671442864985, 19.540782880866718 ] ] ] ] } },
{ "type": "Feature", "properties": { "ZONA_MET": "Xalapa", "INTENSIDAD": "Intensa", "T_PROM_POL": 3.0, "T_MIN_CIUD": 2.0, "DIF_TERMIC": 1.0 }, "geometry": { "type": "MultiPolygon", "coordinates": [ [ [ [ -96.912139312910639, 19.543477826719077 ], [ -96.911869818325414, 19.543477826719077 ], [ -96.911869818325414, 19.542938837548604 ], [ -96.911061334569695, 19.542938837548604 ], [ -96.911061334569695, 19.541591364622427 ], [ -96.910791839984469, 19.541591364622427 ], [ -96.910791839984469, 19.541321870037191 ], [ -96.910522345399229, 19.541321870037191 ], [ -96.910522345399229, 19.541591364622427 ], [ -96.91025285081399, 19.541591364622427 ], [ -96.91025285081399, 19.540243891696246 ], [ -96.909713861643525, 19.540243891696246 ], [ -96.909713861643525, 19.53997439711101 ], [ -96.909983356228764, 19.53997439711101 ], [ -96.909983356228764, 19.539435407940537 ], [ -96.909444367058285, 19.539435407940537 ], [ -96.909444367058285, 19.539704902525774 ], [ -96.90890537788782, 19.539704902525774 ], [ -96.90890537788782, 19.539165913355301 ], [ -96.909174872473045, 19.539165913355301 ], [ -96.909174872473045, 19.538896418770069 ], [ -96.909444367058285, 19.538896418770069 ], [ -96.909444367058285, 19.538357429599596 ], [ -96.909713861643525, 19.538357429599596 ], [ -96.909713861643525, 19.53808793501436 ], [ -96.909983356228764, 19.53808793501436 ], [ -96.909983356228764, 19.538357429599596 ], [ -96.91025285081399, 19.538357429599596 ], [ -96.91025285081399, 19.538626924184832 ], [ -96.910791839984469, 19.538626924184832 ], [ -96.910791839984469, 19.538357429599596 ], [ -96.911061334569695, 19.538357429599596 ], [ -96.911061334569695, 19.538896418770069 ], [ -96.911330829154934, 19.538896418770069 ], [ -96.911330829154934, 19.539165913355301 ], [ -96.91025285081399, 19.539165913355301 ], [ -96.91025285081399, 19.539704902525774 ], [ -96.910522345399229, 19.539704902525774 ], [ -96.910522345399229, 19.53997439711101 ], [ -96.912408807495879, 19.53997439711101 ], [ -96.912408807495879, 19.539704902525774 ], [ -96.912139312910639, 19.539704902525774 ], [ -96.912139312910639, 19.539165913355301 ], [ -96.911600323740174, 19.539165913355301 ], [ -96.911600323740174, 19.538357429599596 ], [ -96.911869818325414, 19.538357429599596 ], [ -96.911869818325414, 19.538626924184832 ], [ -96.912947796666344, 19.538626924184832 ], [ -96.912947796666344, 19.538357429599596 ], [ -96.913217291251584, 19.538357429599596 ], [ -96.913217291251584, 19.53808793501436 ], [ -96.913486785836824, 19.53808793501436 ], [ -96.913486785836824, 19.539435407940537 ], [ -96.913217291251584, 19.539435407940537 ], [ -96.913217291251584, 19.539704902525774 ], [ -96.912947796666344, 19.539704902525774 ], [ -96.912947796666344, 19.53997439711101 ], [ -96.913217291251584, 19.53997439711101 ], [ -96.913217291251584, 19.540513386281482 ], [ -96.913486785836824, 19.540513386281482 ], [ -96.913486785836824, 19.541321870037191 ], [ -96.913756280422064, 19.541321870037191 ], [ -96.913756280422064, 19.541591364622427 ], [ -96.913486785836824, 19.541591364622427 ], [ -96.913486785836824, 19.541860859207663 ], [ -96.913756280422064, 19.541860859207663 ], [ -96.913756280422064, 19.542399848378132 ], [ -96.912947796666344, 19.542399848378132 ], [ -96.912947796666344, 19.542938837548604 ], [ -96.912678302081119, 19.542938837548604 ], [ -96.912678302081119, 19.542399848378132 ], [ -96.912408807495879, 19.542399848378132 ], [ -96.912408807495879, 19.542130353792899 ], [ -96.911869818325414, 19.542130353792899 ], [ -96.911869818325414, 19.542399848378132 ], [ -96.912139312910639, 19.542399848378132 ], [ -96.912139312910639, 19.542669342963368 ], [ -96.912408807495879, 19.542669342963368 ], [ -96.912408807495879, 19.54320833213384 ], [ -96.912139312910639, 19.54320833213384 ], [ -96.912139312910639, 19.543477826719077 ] ], [ [ -96.912678302081119, 19.541860859207663 ], [ -96.912678302081119, 19.541591364622427 ], [ -96.912408807495879, 19.541591364622427 ], [ -96.912408807495879, 19.541860859207663 ], [ -96.912678302081119, 19.541860859207663 ] ], [ [ -96.911061334569695, 19.541321870037191 ], [ -96.911061334569695, 19.541052375451955 ], [ -96.910791839984469, 19.541052375451955 ], [ -96.910791839984469, 19.541321870037191 ], [ -96.911061334569695, 19.541321870037191 ] ] ] ] } },
{ "type": "Feature", "properties": { "ZONA_MET": "Xalapa", "INTENSIDAD": "Extrema", "T_PROM_POL": 3.0, "T_MIN_CIUD": 2.0, "DIF_TERMIC": 1.0 }, "geometry": { "type": "MultiPolygon", "coordinates": [ [ [ [ -96.90701891579117, 19.539165913355301 ], [ -96.90647992662069, 19.539165913355301 ], [ -96.90647992662069, 19.538896418770069 ], [ -96.906210432035451, 19.538896418770069 ], [ -96.906210432035451, 19.538626924184832 ], [ -96.905940937450225, 19.538626924184832 ], [ -96.905940937450225, 19.53808793501436 ], [ -96.90647992662069, 19.53808793501436 ], [ -96.90647992662069, 19.537548945843888 ], [ -96.90674942120593, 19.537548945843888 ], [ -96.90674942120593, 19.537818440429124 ], [ -96.907827399546875, 19.537818440429124 ], [ -96.907827399546875, 19.538357429599596 ], [ -96.907288410376395, 19.538357429599596 ], [ -96.907288410376395, 19.538896418770069 ], [ -96.90701891579117, 19.538896418770069 ], [ -96.90701891579117, 19.539165913355301 ] ] ] ] } },
{ "type": "Feature", "properties": { "ZONA_MET": "Xalapa", "INTENSIDAD": "Intensa", "T_PROM_POL": 3.0, "T_MIN_CIUD": 2.0, "DIF_TERMIC": 1.0 }, "geometry": { "type": "MultiPolygon", "coordinates": [ [ [ [ -96.907288410376395, 19.537548945843888 ], [ -96.90647992662069, 19.537548945843888 ], [ -96.90647992662069, 19.537009956673415 ], [ -96.90674942120593, 19.537009956673415 ], [ -96.90674942120593, 19.536201472917707 ], [ -96.90647992662069, 19.536201472917707 ], [ -96.90647992662069, 19.53485399999153 ], [ -96.907288410376395, 19.53485399999153 ], [ -96.907288410376395, 19.535123494576766 ], [ -96.90674942120593, 19.535123494576766 ], [ -96.90674942120593, 19.535931978332474 ], [ -96.907288410376395, 19.535931978332474 ], [ -96.907288410376395, 19.536201472917707 ], [ -96.907557904961635, 19.536201472917707 ], [ -96.907557904961635, 19.536470967502943 ], [ -96.907827399546875, 19.536470967502943 ], [ -96.907827399546875, 19.537279451258652 ], [ -96.907288410376395, 19.537279451258652 ], [ -96.907288410376395, 19.537548945843888 ] ] ] ] } },
{ "type": "Feature", "properties": { "ZONA_MET": "Xalapa", "INTENSIDAD": "Intensa", "T_PROM_POL": 3.0, "T_MIN_CIUD": 2.0, "DIF_TERMIC": 1.0 }, "geometry": { "type": "MultiPolygon", "coordinates": [ [ [ [ -96.90863588330258, 19.53808793501436 ], [ -96.90836638871734, 19.53808793501436 ], [ -96.90836638871734, 19.537818440429124 ], [ -96.9080968941321, 19.537818440429124 ], [ -96.9080968941321, 19.537009956673415 ], [ -96.90836638871734, 19.537009956673415 ], [ -96.90836638871734, 19.536740462088179 ], [ -96.9080968941321, 19.536740462088179 ], [ -96.9080968941321, 19.535931978332474 ], [ -96.90836638871734, 19.535931978332474 ], [ -96.90836638871734, 19.535123494576766 ], [ -96.9080968941321, 19.535123494576766 ], [ -96.9080968941321, 19.53485399999153 ], [ -96.90890537788782, 19.53485399999153 ], [ -96.90890537788782, 19.534584505406293 ], [ -96.909174872473045, 19.534584505406293 ], [ -96.909174872473045, 19.53485399999153 ], [ -96.909983356228764, 19.53485399999153 ], [ -96.909983356228764, 19.535123494576766 ], [ -96.909444367058285, 19.535123494576766 ], [ -96.909444367058285, 19.535662483747238 ], [ -96.90890537788782, 19.535662483747238 ], [ -96.90890537788782, 19.536470967502943 ], [ -96.909174872473045, 19.536470967502943 ], [ -96.909174872473045, 19.536740462088179 ], [ -96.90890537788782, 19.536740462088179 ], [ -96.90890537788782, 19.537009956673415 ], [ -96.90863588330258, 19.537009956673415 ], [ -96.90863588330258, 19.537548945843888 ], [ -96.90890537788782, 19.537548945843888 ], [ -96.90890537788782, 19.537818440429124 ], [ -96.90863588330258, 19.537818440429124 ], [ -96.90863588330258, 19.53808793501436 ] ], [ [ -96.909174872473045, 19.535392989162002 ], [ -96.909174872473045, 19.535123494576766 ], [ -96.90890537788782, 19.535123494576766 ], [ -96.90890537788782, 19.535392989162002 ], [ -96.909174872473045, 19.535392989162002 ] ] ] ] } },
{ "type": "Feature", "properties": { "ZONA_MET": "Xalapa", "INTENSIDAD": "Intensa", "T_PROM_POL": 3.0, "T_MIN_CIUD": 2.0, "DIF_TERMIC": 1.0 }, "geometry": { "type": "MultiPolygon", "coordinates": [ [ [ [ -96.905671442864985, 19.535392989162002 ], [ -96.905401948279746, 19.535392989162002 ], [ -96.905401948279746, 19.535123494576766 ], [ -96.905132453694506, 19.535123494576766 ], [ -96.905132453694506, 19.53485399999153 ], [ -96.904593464524041, 19.53485399999153 ], [ -96.904593464524041, 19.535123494576766 ], [ -96.904323969938801, 19.535123494576766 ], [ -96.904323969938801, 19.534315010821057 ], [ -96.905132453694506, 19.534315010821057 ], [ -96.905132453694506, 19.534045516235821 ], [ -96.905401948279746, 19.534045516235821 ], [ -96.905401948279746, 19.53485399999153 ], [ -96.905940937450225, 19.53485399999153 ], [ -96.905940937450225, 19.535123494576766 ], [ -96.905671442864985, 19.535123494576766 ], [ -96.905671442864985, 19.535392989162002 ] ] ] ] } },
{ "type": "Feature", "properties": { "ZONA_MET": "Xalapa", "INTENSIDAD": "Intensa", "T_PROM_POL": 3.0, "T_MIN_CIUD": 2.0, "DIF_TERMIC": 1.0 }, "geometry": { "type": "MultiPolygon", "coordinates": [ [ [ [ -96.898125594478387, 19.535662483747238 ], [ -96.897317110722668, 19.535662483747238 ], [ -96.897317110722668, 19.535392989162002 ], [ -96.897047616137442, 19.535392989162002 ], [ -96.897047616137442, 19.535123494576766 ], [ -96.896778121552202, 19.535123494576766 ], [ -96.896778121552202, 19.53485399999153 ], [ -96.897586605307907, 19.53485399999153 ], [ -96.897586605307907, 19.534315010821057 ], [ -96.897856099893147, 19.534315010821057 ], [ -96.897856099893147, 19.534045516235821 ], [ -96.898125594478387, 19.534045516235821 ], [ -96.898125594478387, 19.53485399999153 ], [ -96.898395089063612, 19.53485399999153 ], [ -96.898395089063612, 19.535123494576766 ], [ -96.898125594478387, 19.535123494576766 ], [ -96.898125594478387, 19.535662483747238 ] ] ] ] } },
{ "type": "Feature", "properties": { "ZONA_MET": "Xalapa", "INTENSIDAD": "Intensa", "T_PROM_POL": 3.0, "T_MIN_CIUD": 2.0, "DIF_TERMIC": 1.0 }, "geometry": { "type": "MultiPolygon", "coordinates": [ [ [ [ -96.898934078234092, 19.534045516235821 ], [ -96.898125594478387, 19.534045516235821 ], [ -96.898125594478387, 19.53296753789488 ], [ -96.898934078234092, 19.53296753789488 ], [ -96.898934078234092, 19.534045516235821 ] ] ] ] } },
{ "type": "Feature", "properties": { "ZONA_MET": "Xalapa", "INTENSIDAD": "Extrema", "T_PROM_POL": 3.0, "T_MIN_CIUD": 2.0, "DIF_TERMIC": 1.0 }, "geometry": { "type": "MultiPolygon", "coordinates": [ [ [ [ -96.93477685807045, 19.534315010821057 ], [ -96.933968374314745, 19.534315010821057 ], [ -96.933968374314745, 19.534045516235821 ], [ -96.933698879729505, 19.534045516235821 ], [ -96.933698879729505, 19.533506527065349 ], [ -96.933968374314745, 19.533506527065349 ], [ -96.933968374314745, 19.53296753789488 ], [ -96.934507363485224, 19.53296753789488 ], [ -96.934507363485224, 19.533237032480113 ], [ -96.935046352655689, 19.533237032480113 ], [ -96.935046352655689, 19.533506527065349 ], [ -96.934507363485224, 19.533506527065349 ], [ -96.934507363485224, 19.533776021650585 ], [ -96.93477685807045, 19.533776021650585 ], [ -96.93477685807045, 19.534315010821057 ] ] ] ] } },
{ "type": "Feature", "properties": { "ZONA_MET": "Xalapa", "INTENSIDAD": "Intensa", "T_PROM_POL": 3.0, "T_MIN_CIUD": 2.0, "DIF_TERMIC": 1.0 }, "geometry": { "type": "MultiPolygon", "coordinates": [ [ [ [ -96.910791839984469, 19.53485399999153 ], [ -96.909983356228764, 19.53485399999153 ], [ -96.909983356228764, 19.534584505406293 ], [ -96.91025285081399, 19.534584505406293 ], [ -96.91025285081399, 19.534045516235821 ], [ -96.910791839984469, 19.534045516235821 ], [ -96.910791839984469, 19.533237032480113 ], [ -96.911061334569695, 19.533237032480113 ], [ -96.911061334569695, 19.53296753789488 ], [ -96.912947796666344, 19.53296753789488 ], [ -96.912947796666344, 19.533237032480113 ], [ -96.912678302081119, 19.533237032480113 ], [ -96.912678302081119, 19.533776021650585 ], [ -96.912408807495879, 19.533776021650585 ], [ -96.912408807495879, 19.534045516235821 ], [ -96.911600323740174, 19.534045516235821 ], [ -96.911600323740174, 19.534315010821057 ], [ -96.911330829154934, 19.534315010821057 ], [ -96.911330829154934, 19.534584505406293 ], [ -96.910791839984469, 19.534584505406293 ], [ -96.910791839984469, 19.53485399999153 ] ] ] ] } },
{ "type": "Feature", "properties": { "ZONA_MET": "Xalapa", "INTENSIDAD": "Intensa", "T_PROM_POL": 3.0, "T_MIN_CIUD": 2.0, "DIF_TERMIC": 1.0 }, "geometry": { "type": "MultiPolygon", "coordinates": [ [ [ [ -96.933429385144279, 19.533237032480113 ], [ -96.93315989055904, 19.533237032480113 ], [ -96.93315989055904, 19.532428548724408 ], [ -96.933429385144279, 19.532428548724408 ], [ -96.933429385144279, 19.531889559553935 ], [ -96.933698879729505, 19.531889559553935 ], [ -96.933698879729505, 19.532698043309644 ], [ -96.933968374314745, 19.532698043309644 ], [ -96.933968374314745, 19.532159054139171 ], [ -96.934237868899984, 19.532159054139171 ], [ -96.934237868899984, 19.532428548724408 ], [ -96.934507363485224, 19.532428548724408 ], [ -96.934507363485224, 19.532698043309644 ], [ -96.935046352655689, 19.532698043309644 ], [ -96.935046352655689, 19.53296753789488 ], [ -96.933429385144279, 19.53296753789488 ], [ -96.933429385144279, 19.533237032480113 ] ] ] ] } },
{ "type": "Feature", "properties": { "ZONA_MET": "Xalapa", "INTENSIDAD": "Intensa", "T_PROM_POL": 3.0, "T_MIN_CIUD": 2.0, "DIF_TERMIC": 1.0 }, "geometry": { "type": "MultiPolygon", "coordinates": [ [ [ [ -96.90486295910928, 19.534045516235821 ], [ -96.904593464524041, 19.534045516235821 ], [ -96.904593464524041, 19.533776021650585 ], [ -96.904323969938801, 19.533776021650585 ], [ -96.904323969938801, 19.534045516235821 ], [ -96.903515486183096, 19.534045516235821 ], [ -96.903515486183096, 19.533776021650585 ], [ -96.903245991597856, 19.533776021650585 ], [ -96.903245991597856, 19.533506527065349 ], [ -96.903515486183096, 19.533506527065349 ], [ -96.903515486183096, 19.53296753789488 ], [ -96.903245991597856, 19.53296753789488 ], [ -96.903245991597856, 19.533237032480113 ], [ -96.902976497012631, 19.533237032480113 ], [ -96.902976497012631, 19.533776021650585 ], [ -96.902707002427391, 19.533776021650585 ], [ -96.902707002427391, 19.533237032480113 ], [ -96.902437507842151, 19.533237032480113 ], [ -96.902437507842151, 19.533776021650585 ], [ -96.902168013256912, 19.533776021650585 ], [ -96.902168013256912, 19.534045516235821 ], [ -96.900820540330741, 19.534045516235821 ], [ -96.900820540330741, 19.533776021650585 ], [ -96.900551045745502, 19.533776021650585 ], [ -96.900551045745502, 19.534045516235821 ], [ -96.900281551160262, 19.534045516235821 ], [ -96.900281551160262, 19.533506527065349 ], [ -96.900012056575036, 19.533506527065349 ], [ -96.900012056575036, 19.53296753789488 ], [ -96.900551045745502, 19.53296753789488 ], [ -96.900551045745502, 19.533237032480113 ], [ -96.900820540330741, 19.533237032480113 ], [ -96.900820540330741, 19.53296753789488 ], [ -96.901090034915981, 19.53296753789488 ], [ -96.901090034915981, 19.533237032480113 ], [ -96.901629024086446, 19.533237032480113 ], [ -96.901629024086446, 19.53296753789488 ], [ -96.902976497012631, 19.53296753789488 ], [ -96.902976497012631, 19.532159054139171 ], [ -96.903245991597856, 19.532159054139171 ], [ -96.903245991597856, 19.531889559553935 ], [ -96.903784980768336, 19.531889559553935 ], [ -96.903784980768336, 19.531620064968699 ], [ -96.904054475353576, 19.531620064968699 ], [ -96.904054475353576, 19.532159054139171 ], [ -96.904323969938801, 19.532159054139171 ], [ -96.904323969938801, 19.532698043309644 ], [ -96.904054475353576, 19.532698043309644 ], [ -96.904054475353576, 19.53296753789488 ], [ -96.90486295910928, 19.53296753789488 ], [ -96.90486295910928, 19.533506527065349 ], [ -96.905132453694506, 19.533506527065349 ], [ -96.905132453694506, 19.533776021650585 ], [ -96.90486295910928, 19.533776021650585 ], [ -96.90486295910928, 19.534045516235821 ] ] ] ] } },
{ "type": "Feature", "properties": { "ZONA_MET": "Xalapa", "INTENSIDAD": "Intensa", "T_PROM_POL": 3.0, "T_MIN_CIUD": 2.0, "DIF_TERMIC": 1.0 }, "geometry": { "type": "MultiPolygon", "coordinates": [ [ [ [ -96.898125594478387, 19.53296753789488 ], [ -96.897856099893147, 19.53296753789488 ], [ -96.897856099893147, 19.532698043309644 ], [ -96.897586605307907, 19.532698043309644 ], [ -96.897586605307907, 19.532428548724408 ], [ -96.897856099893147, 19.532428548724408 ], [ -96.897856099893147, 19.531889559553935 ], [ -96.897586605307907, 19.531889559553935 ], [ -96.897586605307907, 19.531350570383463 ], [ -96.898125594478387, 19.531350570383463 ], [ -96.898125594478387, 19.531081075798227 ], [ -96.897586605307907, 19.531081075798227 ], [ -96.897586605307907, 19.530811581212991 ], [ -96.898125594478387, 19.530811581212991 ], [ -96.898125594478387, 19.530542086627754 ], [ -96.898395089063612, 19.530542086627754 ], [ -96.898395089063612, 19.530272592042518 ], [ -96.898934078234092, 19.530272592042518 ], [ -96.898934078234092, 19.530003097457286 ], [ -96.899203572819317, 19.530003097457286 ], [ -96.899203572819317, 19.530272592042518 ], [ -96.899473067404557, 19.530272592042518 ], [ -96.899473067404557, 19.530542086627754 ], [ -96.899203572819317, 19.530542086627754 ], [ -96.899203572819317, 19.531081075798227 ], [ -96.898934078234092, 19.531081075798227 ], [ -96.898934078234092, 19.531350570383463 ], [ -96.898395089063612, 19.531350570383463 ], [ -96.898395089063612, 19.531620064968699 ], [ -96.898664583648852, 19.531620064968699 ], [ -96.898664583648852, 19.532159054139171 ], [ -96.898125594478387, 19.532159054139171 ], [ -96.898125594478387, 19.532428548724408 ], [ -96.898395089063612, 19.532428548724408 ], [ -96.898395089063612, 19.532698043309644 ], [ -96.898125594478387, 19.532698043309644 ], [ -96.898125594478387, 19.53296753789488 ] ] ] ] } },
{ "type": "Feature", "properties": { "ZONA_MET": "Xalapa", "INTENSIDAD": "Intensa", "T_PROM_POL": 3.0, "T_MIN_CIUD": 2.0, "DIF_TERMIC": 1.0 }, "geometry": { "type": "MultiPolygon", "coordinates": [ [ [ [ -96.905671442864985, 19.532698043309644 ], [ -96.905401948279746, 19.532698043309644 ], [ -96.905401948279746, 19.532428548724408 ], [ -96.905132453694506, 19.532428548724408 ], [ -96.905132453694506, 19.532159054139171 ], [ -96.90486295910928, 19.532159054139171 ], [ -96.90486295910928, 19.531620064968699 ], [ -96.904593464524041, 19.531620064968699 ], [ -96.904593464524041, 19.531081075798227 ], [ -96.904323969938801, 19.531081075798227 ], [ -96.904323969938801, 19.531350570383463 ], [ -96.904054475353576, 19.531350570383463 ], [ -96.904054475353576, 19.531081075798227 ], [ -96.903515486183096, 19.531081075798227 ], [ -96.903515486183096, 19.530542086627754 ], [ -96.903784980768336, 19.530542086627754 ], [ -96.903784980768336, 19.530811581212991 ], [ -96.90486295910928, 19.530811581212991 ], [ -96.90486295910928, 19.530272592042518 ], [ -96.905132453694506, 19.530272592042518 ], [ -96.905132453694506, 19.530003097457286 ], [ -96.904054475353576, 19.530003097457286 ], [ -96.904054475353576, 19.529194613701577 ], [ -96.905401948279746, 19.529194613701577 ], [ -96.905401948279746, 19.529733602872049 ], [ -96.905671442864985, 19.529733602872049 ], [ -96.905671442864985, 19.530003097457286 ], [ -96.906210432035451, 19.530003097457286 ], [ -96.906210432035451, 19.530811581212991 ], [ -96.90647992662069, 19.530811581212991 ], [ -96.90647992662069, 19.531081075798227 ], [ -96.905940937450225, 19.531081075798227 ], [ -96.905940937450225, 19.531350570383463 ], [ -96.905401948279746, 19.531350570383463 ], [ -96.905401948279746, 19.531620064968699 ], [ -96.905671442864985, 19.531620064968699 ], [ -96.905671442864985, 19.532159054139171 ], [ -96.905940937450225, 19.532159054139171 ], [ -96.905940937450225, 19.532428548724408 ], [ -96.905671442864985, 19.532428548724408 ], [ -96.905671442864985, 19.532698043309644 ] ], [ [ -96.905401948279746, 19.531889559553935 ], [ -96.905401948279746, 19.531620064968699 ], [ -96.905132453694506, 19.531620064968699 ], [ -96.905132453694506, 19.531889559553935 ], [ -96.905401948279746, 19.531889559553935 ] ] ] ] } },
{ "type": "Feature", "properties": { "ZONA_MET": "Xalapa", "INTENSIDAD": "Intensa", "T_PROM_POL": 3.0, "T_MIN_CIUD": 2.0, "DIF_TERMIC": 1.0 }, "geometry": { "type": "MultiPolygon", "coordinates": [ [ [ [ -96.909713861643525, 19.531081075798227 ], [ -96.90890537788782, 19.531081075798227 ], [ -96.90890537788782, 19.530811581212991 ], [ -96.909174872473045, 19.530811581212991 ], [ -96.909174872473045, 19.530542086627754 ], [ -96.90890537788782, 19.530542086627754 ], [ -96.90890537788782, 19.530003097457286 ], [ -96.90863588330258, 19.530003097457286 ], [ -96.90863588330258, 19.529733602872049 ], [ -96.909174872473045, 19.529733602872049 ], [ -96.909174872473045, 19.529464108286813 ], [ -96.90890537788782, 19.529464108286813 ], [ -96.90890537788782, 19.528925119116341 ], [ -96.909983356228764, 19.528925119116341 ], [ -96.909983356228764, 19.530272592042518 ], [ -96.909713861643525, 19.530272592042518 ], [ -96.909713861643525, 19.531081075798227 ] ], [ [ -96.909444367058285, 19.530003097457286 ], [ -96.909444367058285, 19.529733602872049 ], [ -96.909174872473045, 19.529733602872049 ], [ -96.909174872473045, 19.530003097457286 ], [ -96.909444367058285, 19.530003097457286 ] ] ] ] } },
{ "type": "Feature", "properties": { "ZONA_MET": "Xalapa", "INTENSIDAD": "Intensa", "T_PROM_POL": 3.0, "T_MIN_CIUD": 2.0, "DIF_TERMIC": 1.0 }, "geometry": { "type": "MultiPolygon", "coordinates": [ [ [ [ -96.907827399546875, 19.528386129945869 ], [ -96.90674942120593, 19.528386129945869 ], [ -96.90674942120593, 19.528116635360632 ], [ -96.90647992662069, 19.528116635360632 ], [ -96.90647992662069, 19.527847140775396 ], [ -96.905940937450225, 19.527847140775396 ], [ -96.905940937450225, 19.52757764619016 ], [ -96.906210432035451, 19.52757764619016 ], [ -96.906210432035451, 19.527308151604924 ], [ -96.907557904961635, 19.527308151604924 ], [ -96.907557904961635, 19.52757764619016 ], [ -96.9080968941321, 19.52757764619016 ], [ -96.9080968941321, 19.527847140775396 ], [ -96.907557904961635, 19.527847140775396 ], [ -96.907557904961635, 19.528116635360632 ], [ -96.907827399546875, 19.528116635360632 ], [ -96.907827399546875, 19.528386129945869 ] ] ] ] } },
{ "type": "Feature", "properties": { "ZONA_MET": "Xalapa", "INTENSIDAD": "Intensa", "T_PROM_POL": 3.0, "T_MIN_CIUD": 2.0, "DIF_TERMIC": 1.0 }, "geometry": { "type": "MultiPolygon", "coordinates": [ [ [ [ -96.898125594478387, 19.529194613701577 ], [ -96.897856099893147, 19.529194613701577 ], [ -96.897856099893147, 19.528655624531105 ], [ -96.897586605307907, 19.528655624531105 ], [ -96.897586605307907, 19.527847140775396 ], [ -96.897317110722668, 19.527847140775396 ], [ -96.897317110722668, 19.52757764619016 ], [ -96.897047616137442, 19.52757764619016 ], [ -96.897047616137442, 19.527038657019691 ], [ -96.896778121552202, 19.527038657019691 ], [ -96.896778121552202, 19.526769162434455 ], [ -96.897047616137442, 19.526769162434455 ], [ -96.897047616137442, 19.526499667849219 ], [ -96.897317110722668, 19.526499667849219 ], [ -96.897317110722668, 19.526769162434455 ], [ -96.897586605307907, 19.526769162434455 ], [ -96.897586605307907, 19.527038657019691 ], [ -96.898125594478387, 19.527038657019691 ], [ -96.898125594478387, 19.527308151604924 ], [ -96.897856099893147, 19.527308151604924 ], [ -96.897856099893147, 19.528386129945869 ], [ -96.898125594478387, 19.528386129945869 ], [ -96.898125594478387, 19.529194613701577 ] ] ] ] } },
{ "type": "Feature", "properties": { "ZONA_MET": "Xalapa", "INTENSIDAD": "Intensa", "T_PROM_POL": 3.0, "T_MIN_CIUD": 2.0, "DIF_TERMIC": 1.0 }, "geometry": { "type": "MultiPolygon", "coordinates": [ [ [ [ -96.934237868899984, 19.528116635360632 ], [ -96.93315989055904, 19.528116635360632 ], [ -96.93315989055904, 19.527847140775396 ], [ -96.932620901388574, 19.527847140775396 ], [ -96.932620901388574, 19.52757764619016 ], [ -96.9328903959738, 19.52757764619016 ], [ -96.9328903959738, 19.527308151604924 ], [ -96.932620901388574, 19.527308151604924 ], [ -96.932620901388574, 19.527038657019691 ], [ -96.932351406803335, 19.527038657019691 ], [ -96.932351406803335, 19.526499667849219 ], [ -96.932620901388574, 19.526499667849219 ], [ -96.932620901388574, 19.526230173263983 ], [ -96.9328903959738, 19.526230173263983 ], [ -96.9328903959738, 19.525960678678747 ], [ -96.933698879729505, 19.525960678678747 ], [ -96.933698879729505, 19.526230173263983 ], [ -96.935315847240929, 19.526230173263983 ], [ -96.935315847240929, 19.526769162434455 ], [ -96.93477685807045, 19.526769162434455 ], [ -96.93477685807045, 19.527038657019691 ], [ -96.934507363485224, 19.527038657019691 ], [ -96.934507363485224, 19.527847140775396 ], [ -96.934237868899984, 19.527847140775396 ], [ -96.934237868899984, 19.528116635360632 ] ], [ [ -96.934507363485224, 19.527038657019691 ], [ -96.934507363485224, 19.526769162434455 ], [ -96.934237868899984, 19.526769162434455 ], [ -96.934237868899984, 19.527038657019691 ], [ -96.934507363485224, 19.527038657019691 ] ], [ [ -96.933968374314745, 19.526769162434455 ], [ -96.933968374314745, 19.526499667849219 ], [ -96.933698879729505, 19.526499667849219 ], [ -96.933698879729505, 19.526769162434455 ], [ -96.933968374314745, 19.526769162434455 ] ] ] ] } },
{ "type": "Feature", "properties": { "ZONA_MET": "Xalapa", "INTENSIDAD": "Intensa", "T_PROM_POL": 3.0, "T_MIN_CIUD": 2.0, "DIF_TERMIC": 1.0 }, "geometry": { "type": "MultiPolygon", "coordinates": [ [ [ [ -96.902976497012631, 19.528925119116341 ], [ -96.902437507842151, 19.528925119116341 ], [ -96.902437507842151, 19.528655624531105 ], [ -96.902168013256912, 19.528655624531105 ], [ -96.902168013256912, 19.527847140775396 ], [ -96.902437507842151, 19.527847140775396 ], [ -96.902437507842151, 19.527308151604924 ], [ -96.902168013256912, 19.527308151604924 ], [ -96.902168013256912, 19.526769162434455 ], [ -96.902437507842151, 19.526769162434455 ], [ -96.902437507842151, 19.526499667849219 ], [ -96.902168013256912, 19.526499667849219 ], [ -96.902168013256912, 19.526230173263983 ], [ -96.901898518671686, 19.526230173263983 ], [ -96.901898518671686, 19.52569118409351 ], [ -96.902437507842151, 19.52569118409351 ], [ -96.902437507842151, 19.525960678678747 ], [ -96.902707002427391, 19.525960678678747 ], [ -96.902707002427391, 19.526230173263983 ], [ -96.902976497012631, 19.526230173263983 ], [ -96.902976497012631, 19.527038657019691 ], [ -96.903245991597856, 19.527038657019691 ], [ -96.903245991597856, 19.527308151604924 ], [ -96.903515486183096, 19.527308151604924 ], [ -96.903515486183096, 19.527847140775396 ], [ -96.903245991597856, 19.527847140775396 ], [ -96.903245991597856, 19.528655624531105 ], [ -96.902976497012631, 19.528655624531105 ], [ -96.902976497012631, 19.528925119116341 ] ], [ [ -96.902976497012631, 19.527847140775396 ], [ -96.902976497012631, 19.52757764619016 ], [ -96.902707002427391, 19.52757764619016 ], [ -96.902707002427391, 19.527847140775396 ], [ -96.902976497012631, 19.527847140775396 ] ] ] ] } },
{ "type": "Feature", "properties": { "ZONA_MET": "Xalapa", "INTENSIDAD": "Intensa", "T_PROM_POL": 3.0, "T_MIN_CIUD": 2.0, "DIF_TERMIC": 1.0 }, "geometry": { "type": "MultiPolygon", "coordinates": [ [ [ [ -96.91025285081399, 19.527308151604924 ], [ -96.909713861643525, 19.527308151604924 ], [ -96.909713861643525, 19.526769162434455 ], [ -96.909444367058285, 19.526769162434455 ], [ -96.909444367058285, 19.527038657019691 ], [ -96.90836638871734, 19.527038657019691 ], [ -96.90836638871734, 19.526499667849219 ], [ -96.90863588330258, 19.526499667849219 ], [ -96.90863588330258, 19.525960678678747 ], [ -96.90836638871734, 19.525960678678747 ], [ -96.90836638871734, 19.525152194923038 ], [ -96.90863588330258, 19.525152194923038 ], [ -96.90863588330258, 19.52569118409351 ], [ -96.90890537788782, 19.52569118409351 ], [ -96.90890537788782, 19.525960678678747 ], [ -96.909444367058285, 19.525960678678747 ], [ -96.909444367058285, 19.526230173263983 ], [ -96.909983356228764, 19.526230173263983 ], [ -96.909983356228764, 19.526499667849219 ], [ -96.91025285081399, 19.526499667849219 ], [ -96.91025285081399, 19.527308151604924 ] ] ] ] } },
{ "type": "Feature", "properties": { "ZONA_MET": "Xalapa", "INTENSIDAD": "Intensa", "T_PROM_POL": 3.0, "T_MIN_CIUD": 2.0, "DIF_TERMIC": 1.0 }, "geometry": { "type": "MultiPolygon", "coordinates": [ [ [ [ -96.903245991597856, 19.52569118409351 ], [ -96.902437507842151, 19.52569118409351 ], [ -96.902437507842151, 19.525152194923038 ], [ -96.902707002427391, 19.525152194923038 ], [ -96.902707002427391, 19.524343711167329 ], [ -96.903245991597856, 19.524343711167329 ], [ -96.903245991597856, 19.52569118409351 ] ] ] ] } },
{ "type": "Feature", "properties": { "ZONA_MET": "Xalapa", "INTENSIDAD": "Intensa", "T_PROM_POL": 3.0, "T_MIN_CIUD": 2.0, "DIF_TERMIC": 1.0 }, "geometry": { "type": "MultiPolygon", "coordinates": [ [ [ [ -96.935046352655689, 19.525960678678747 ], [ -96.934237868899984, 19.525960678678747 ], [ -96.934237868899984, 19.52569118409351 ], [ -96.934507363485224, 19.52569118409351 ], [ -96.934507363485224, 19.524882700337802 ], [ -96.93477685807045, 19.524882700337802 ], [ -96.93477685807045, 19.524613205752566 ], [ -96.935046352655689, 19.524613205752566 ], [ -96.935046352655689, 19.524343711167329 ], [ -96.935585341826169, 19.524343711167329 ], [ -96.935585341826169, 19.524613205752566 ], [ -96.935854836411394, 19.524613205752566 ], [ -96.935854836411394, 19.524882700337802 ], [ -96.935585341826169, 19.524882700337802 ], [ -96.935585341826169, 19.525421689508274 ], [ -96.935315847240929, 19.525421689508274 ], [ -96.935315847240929, 19.52569118409351 ], [ -96.935046352655689, 19.52569118409351 ], [ -96.935046352655689, 19.525960678678747 ] ], [ [ -96.935315847240929, 19.525152194923038 ], [ -96.935315847240929, 19.524882700337802 ], [ -96.935046352655689, 19.524882700337802 ], [ -96.935046352655689, 19.525152194923038 ], [ -96.935315847240929, 19.525152194923038 ] ] ] ] } },
{ "type": "Feature", "properties": { "ZONA_MET": "Xalapa", "INTENSIDAD": "Extrema", "T_PROM_POL": 3.0, "T_MIN_CIUD": 2.0, "DIF_TERMIC": 1.0 }, "geometry": { "type": "MultiPolygon", "coordinates": [ [ [ [ -96.923997074661017, 19.534315010821057 ], [ -96.923458085490552, 19.534315010821057 ], [ -96.923458085490552, 19.534045516235821 ], [ -96.923188590905312, 19.534045516235821 ], [ -96.923188590905312, 19.533776021650585 ], [ -96.922919096320072, 19.533776021650585 ], [ -96.922919096320072, 19.533237032480113 ], [ -96.923188590905312, 19.533237032480113 ], [ -96.923188590905312, 19.53296753789488 ], [ -96.923458085490552, 19.53296753789488 ], [ -96.923458085490552, 19.531889559553935 ], [ -96.923188590905312, 19.531889559553935 ], [ -96.923188590905312, 19.531620064968699 ], [ -96.923458085490552, 19.531620064968699 ], [ -96.923458085490552, 19.531350570383463 ], [ -96.922919096320072, 19.531350570383463 ], [ -96.922919096320072, 19.530811581212991 ], [ -96.922649601734847, 19.530811581212991 ], [ -96.922649601734847, 19.530542086627754 ], [ -96.922380107149607, 19.530542086627754 ], [ -96.922380107149607, 19.530272592042518 ], [ -96.921841117979127, 19.530272592042518 ], [ -96.921841117979127, 19.530003097457286 ], [ -96.921302128808662, 19.530003097457286 ], [ -96.921302128808662, 19.529733602872049 ], [ -96.920493645052957, 19.529733602872049 ], [ -96.920493645052957, 19.530003097457286 ], [ -96.919685161297252, 19.530003097457286 ], [ -96.919685161297252, 19.531081075798227 ], [ -96.919146172126773, 19.531081075798227 ], [ -96.919146172126773, 19.530542086627754 ], [ -96.918607182956308, 19.530542086627754 ], [ -96.918607182956308, 19.530811581212991 ], [ -96.918337688371068, 19.530811581212991 ], [ -96.918337688371068, 19.530542086627754 ], [ -96.917798699200603, 19.530542086627754 ], [ -96.917798699200603, 19.530272592042518 ], [ -96.917529204615363, 19.530272592042518 ], [ -96.917529204615363, 19.530542086627754 ], [ -96.916181731689178, 19.530542086627754 ], [ -96.916181731689178, 19.529733602872049 ], [ -96.915642742518713, 19.529733602872049 ], [ -96.915642742518713, 19.529464108286813 ], [ -96.915373247933474, 19.529464108286813 ], [ -96.915373247933474, 19.529194613701577 ], [ -96.915912237103939, 19.529194613701577 ], [ -96.915912237103939, 19.529464108286813 ], [ -96.916451226274418, 19.529464108286813 ], [ -96.916451226274418, 19.529194613701577 ], [ -96.917259710030123, 19.529194613701577 ], [ -96.917259710030123, 19.528925119116341 ], [ -96.918068193785828, 19.528925119116341 ], [ -96.918068193785828, 19.528116635360632 ], [ -96.917798699200603, 19.528116635360632 ], [ -96.917798699200603, 19.527847140775396 ], [ -96.918337688371068, 19.527847140775396 ], [ -96.918337688371068, 19.52757764619016 ], [ -96.918607182956308, 19.52757764619016 ], [ -96.918607182956308, 19.526499667849219 ], [ -96.918337688371068, 19.526499667849219 ], [ -96.918337688371068, 19.526230173263983 ], [ -96.918607182956308, 19.526230173263983 ], [ -96.918607182956308, 19.525960678678747 ], [ -96.918876677541533, 19.525960678678747 ], [ -96.918876677541533, 19.52569118409351 ], [ -96.919415666712013, 19.52569118409351 ], [ -96.919415666712013, 19.525421689508274 ], [ -96.920224150467718, 19.525421689508274 ], [ -96.920224150467718, 19.524343711167329 ], [ -96.920493645052957, 19.524343711167329 ], [ -96.920493645052957, 19.524074216582097 ], [ -96.921032634223423, 19.524074216582097 ], [ -96.921032634223423, 19.52569118409351 ], [ -96.921302128808662, 19.52569118409351 ], [ -96.921302128808662, 19.525960678678747 ], [ -96.921032634223423, 19.525960678678747 ], [ -96.921032634223423, 19.526499667849219 ], [ -96.920763139638197, 19.526499667849219 ], [ -96.920763139638197, 19.527038657019691 ], [ -96.921032634223423, 19.527038657019691 ], [ -96.921032634223423, 19.527308151604924 ], [ -96.921302128808662, 19.527308151604924 ], [ -96.921302128808662, 19.527038657019691 ], [ -96.921571623393902, 19.527038657019691 ], [ -96.921571623393902, 19.526769162434455 ], [ -96.921841117979127, 19.526769162434455 ], [ -96.921841117979127, 19.527038657019691 ], [ -96.922649601734847, 19.527038657019691 ], [ -96.922649601734847, 19.527308151604924 ], [ -96.922380107149607, 19.527308151604924 ], [ -96.922380107149607, 19.52757764619016 ], [ -96.922919096320072, 19.52757764619016 ], [ -96.922919096320072, 19.527308151604924 ], [ -96.923188590905312, 19.527308151604924 ], [ -96.923188590905312, 19.52757764619016 ], [ -96.923458085490552, 19.52757764619016 ], [ -96.923458085490552, 19.527847140775396 ], [ -96.923727580075791, 19.527847140775396 ], [ -96.923727580075791, 19.528116635360632 ], [ -96.923997074661017, 19.528116635360632 ], [ -96.923997074661017, 19.528925119116341 ], [ -96.924266569246257, 19.528925119116341 ], [ -96.924266569246257, 19.529194613701577 ], [ -96.924805558416722, 19.529194613701577 ], [ -96.924805558416722, 19.529464108286813 ], [ -96.925075053001962, 19.529464108286813 ], [ -96.925075053001962, 19.527847140775396 ], [ -96.925614042172441, 19.527847140775396 ], [ -96.925614042172441, 19.530003097457286 ], [ -96.925075053001962, 19.530003097457286 ], [ -96.925075053001962, 19.530272592042518 ], [ -96.924536063831496, 19.530272592042518 ], [ -96.924536063831496, 19.530542086627754 ], [ -96.924266569246257, 19.530542086627754 ], [ -96.924266569246257, 19.530811581212991 ], [ -96.923997074661017, 19.530811581212991 ], [ -96.923997074661017, 19.531081075798227 ], [ -96.924266569246257, 19.531081075798227 ], [ -96.924266569246257, 19.531620064968699 ], [ -96.923997074661017, 19.531620064968699 ], [ -96.923997074661017, 19.532159054139171 ], [ -96.923727580075791, 19.532159054139171 ], [ -96.923727580075791, 19.532698043309644 ], [ -96.924266569246257, 19.532698043309644 ], [ -96.924266569246257, 19.53296753789488 ], [ -96.923997074661017, 19.53296753789488 ], [ -96.923997074661017, 19.534315010821057 ] ], [ [ -96.925344547587201, 19.529733602872049 ], [ -96.925344547587201, 19.529464108286813 ], [ -96.925075053001962, 19.529464108286813 ], [ -96.925075053001962, 19.529733602872049 ], [ -96.925344547587201, 19.529733602872049 ] ], [ [ -96.921302128808662, 19.528386129945869 ], [ -96.921302128808662, 19.52757764619016 ], [ -96.921032634223423, 19.52757764619016 ], [ -96.921032634223423, 19.528386129945869 ], [ -96.921302128808662, 19.528386129945869 ] ], [ [ -96.922110612564367, 19.528116635360632 ], [ -96.922110612564367, 19.527847140775396 ], [ -96.921841117979127, 19.527847140775396 ], [ -96.921841117979127, 19.528116635360632 ], [ -96.922110612564367, 19.528116635360632 ] ], [ [ -96.919146172126773, 19.528116635360632 ], [ -96.919146172126773, 19.527847140775396 ], [ -96.918876677541533, 19.527847140775396 ], [ -96.918876677541533, 19.528116635360632 ], [ -96.919146172126773, 19.528116635360632 ] ], [ [ -96.920763139638197, 19.527308151604924 ], [ -96.920763139638197, 19.527038657019691 ], [ -96.920493645052957, 19.527038657019691 ], [ -96.920493645052957, 19.527308151604924 ], [ -96.920763139638197, 19.527308151604924 ] ], [ [ -96.919146172126773, 19.527308151604924 ], [ -96.919146172126773, 19.526769162434455 ], [ -96.918876677541533, 19.526769162434455 ], [ -96.918876677541533, 19.527308151604924 ], [ -96.919146172126773, 19.527308151604924 ] ], [ [ -96.919954655882478, 19.527038657019691 ], [ -96.919954655882478, 19.526769162434455 ], [ -96.919685161297252, 19.526769162434455 ], [ -96.919685161297252, 19.527038657019691 ], [ -96.919954655882478, 19.527038657019691 ] ], [ [ -96.919685161297252, 19.526499667849219 ], [ -96.919685161297252, 19.525960678678747 ], [ -96.918876677541533, 19.525960678678747 ], [ -96.918876677541533, 19.526230173263983 ], [ -96.919415666712013, 19.526230173263983 ], [ -96.919415666712013, 19.526499667849219 ], [ -96.919685161297252, 19.526499667849219 ] ] ] ] } },
{ "type": "Feature", "properties": { "ZONA_MET": "Xalapa", "INTENSIDAD": "Extrema", "T_PROM_POL": 3.0, "T_MIN_CIUD": 2.0, "DIF_TERMIC": 1.0 }, "geometry": { "type": "MultiPolygon", "coordinates": [ [ [ [ -96.92965646095098, 19.525152194923038 ], [ -96.92938696636574, 19.525152194923038 ], [ -96.92938696636574, 19.524882700337802 ], [ -96.928847977195261, 19.524882700337802 ], [ -96.928847977195261, 19.524613205752566 ], [ -96.929117471780501, 19.524613205752566 ], [ -96.929117471780501, 19.524074216582097 ], [ -96.92938696636574, 19.524074216582097 ], [ -96.92938696636574, 19.523804721996861 ], [ -96.92965646095098, 19.523804721996861 ], [ -96.92965646095098, 19.523535227411625 ], [ -96.929925955536206, 19.523535227411625 ], [ -96.929925955536206, 19.524343711167329 ], [ -96.930195450121445, 19.524343711167329 ], [ -96.930195450121445, 19.524074216582097 ], [ -96.930464944706685, 19.524074216582097 ], [ -96.930464944706685, 19.524343711167329 ], [ -96.93100393387715, 19.524343711167329 ], [ -96.93100393387715, 19.524882700337802 ], [ -96.929925955536206, 19.524882700337802 ], [ -96.929925955536206, 19.524613205752566 ], [ -96.92965646095098, 19.524613205752566 ], [ -96.92965646095098, 19.525152194923038 ] ] ] ] } },
{ "type": "Feature", "properties": { "ZONA_MET": "Xalapa", "INTENSIDAD": "Intensa", "T_PROM_POL": 3.0, "T_MIN_CIUD": 2.0, "DIF_TERMIC": 1.0 }, "geometry": { "type": "MultiPolygon", "coordinates": [ [ [ [ -96.913756280422064, 19.524074216582097 ], [ -96.913217291251584, 19.524074216582097 ], [ -96.913217291251584, 19.523804721996861 ], [ -96.912947796666344, 19.523804721996861 ], [ -96.912947796666344, 19.522996238241152 ], [ -96.913486785836824, 19.522996238241152 ], [ -96.913486785836824, 19.523265732826388 ], [ -96.913756280422064, 19.523265732826388 ], [ -96.913756280422064, 19.523535227411625 ], [ -96.914295269592529, 19.523535227411625 ], [ -96.914295269592529, 19.523804721996861 ], [ -96.913756280422064, 19.523804721996861 ], [ -96.913756280422064, 19.524074216582097 ] ] ] ] } },
{ "type": "Feature", "properties": { "ZONA_MET": "Xalapa", "INTENSIDAD": "Extrema", "T_PROM_POL": 4.0, "T_MIN_CIUD": 2.0, "DIF_TERMIC": 1.0 }, "geometry": { "type": "MultiPolygon", "coordinates": [ [ [ [ -96.890579746091774, 19.523804721996861 ], [ -96.890040756921309, 19.523804721996861 ], [ -96.890040756921309, 19.523535227411625 ], [ -96.889771262336069, 19.523535227411625 ], [ -96.889771262336069, 19.522726743655916 ], [ -96.889501767750829, 19.522726743655916 ], [ -96.889501767750829, 19.52245724907068 ], [ -96.890310251506534, 19.52245724907068 ], [ -96.890310251506534, 19.522996238241152 ], [ -96.890849240677014, 19.522996238241152 ], [ -96.890849240677014, 19.523535227411625 ], [ -96.890579746091774, 19.523535227411625 ], [ -96.890579746091774, 19.523804721996861 ] ] ] ] } },
{ "type": "Feature", "properties": { "ZONA_MET": "Xalapa", "INTENSIDAD": "Intensa", "T_PROM_POL": 3.0, "T_MIN_CIUD": 2.0, "DIF_TERMIC": 1.0 }, "geometry": { "type": "MultiPolygon", "coordinates": [ [ [ [ -96.919685161297252, 19.522996238241152 ], [ -96.918876677541533, 19.522996238241152 ], [ -96.918876677541533, 19.522187754485444 ], [ -96.918607182956308, 19.522187754485444 ], [ -96.918607182956308, 19.521918259900207 ], [ -96.918068193785828, 19.521918259900207 ], [ -96.918068193785828, 19.521379270729735 ], [ -96.918607182956308, 19.521379270729735 ], [ -96.918607182956308, 19.521648765314971 ], [ -96.919415666712013, 19.521648765314971 ], [ -96.919415666712013, 19.521109776144502 ], [ -96.919685161297252, 19.521109776144502 ], [ -96.919685161297252, 19.521918259900207 ], [ -96.919415666712013, 19.521918259900207 ], [ -96.919415666712013, 19.522187754485444 ], [ -96.919146172126773, 19.522187754485444 ], [ -96.919146172126773, 19.52245724907068 ], [ -96.919415666712013, 19.52245724907068 ], [ -96.919415666712013, 19.522726743655916 ], [ -96.919685161297252, 19.522726743655916 ], [ -96.919685161297252, 19.522996238241152 ] ] ] ] } },
{ "type": "Feature", "properties": { "ZONA_MET": "Xalapa", "INTENSIDAD": "Intensa", "T_PROM_POL": 3.0, "T_MIN_CIUD": 2.0, "DIF_TERMIC": 1.0 }, "geometry": { "type": "MultiPolygon", "coordinates": [ [ [ [ -96.940166749775173, 19.522187754485444 ], [ -96.939897255189933, 19.522187754485444 ], [ -96.939897255189933, 19.521918259900207 ], [ -96.939627760604694, 19.521918259900207 ], [ -96.939627760604694, 19.522187754485444 ], [ -96.939088771434228, 19.522187754485444 ], [ -96.939088771434228, 19.521918259900207 ], [ -96.939358266019468, 19.521918259900207 ], [ -96.939358266019468, 19.521648765314971 ], [ -96.939897255189933, 19.521648765314971 ], [ -96.939897255189933, 19.521379270729735 ], [ -96.940166749775173, 19.521379270729735 ], [ -96.940166749775173, 19.521109776144502 ], [ -96.940705738945638, 19.521109776144502 ], [ -96.940705738945638, 19.521648765314971 ], [ -96.940436244360413, 19.521648765314971 ], [ -96.940436244360413, 19.521918259900207 ], [ -96.940166749775173, 19.521918259900207 ], [ -96.940166749775173, 19.522187754485444 ] ] ] ] } },
{ "type": "Feature", "properties": { "ZONA_MET": "Xalapa", "INTENSIDAD": "Intensa", "T_PROM_POL": 3.0, "T_MIN_CIUD": 2.0, "DIF_TERMIC": 1.0 }, "geometry": { "type": "MultiPolygon", "coordinates": [ [ [ [ -96.924536063831496, 19.521109776144502 ], [ -96.924266569246257, 19.521109776144502 ], [ -96.924266569246257, 19.520840281559266 ], [ -96.923997074661017, 19.520840281559266 ], [ -96.923997074661017, 19.52057078697403 ], [ -96.923727580075791, 19.52057078697403 ], [ -96.923727580075791, 19.520301292388794 ], [ -96.924266569246257, 19.520301292388794 ], [ -96.924266569246257, 19.519762303218322 ], [ -96.923997074661017, 19.519762303218322 ], [ -96.923997074661017, 19.519492808633085 ], [ -96.924805558416722, 19.519492808633085 ], [ -96.924805558416722, 19.519762303218322 ], [ -96.924536063831496, 19.519762303218322 ], [ -96.924536063831496, 19.520031797803558 ], [ -96.924805558416722, 19.520031797803558 ], [ -96.924805558416722, 19.52057078697403 ], [ -96.925075053001962, 19.52057078697403 ], [ -96.925075053001962, 19.520840281559266 ], [ -96.924536063831496, 19.520840281559266 ], [ -96.924536063831496, 19.521109776144502 ] ] ] ] } },
{ "type": "Feature", "properties": { "ZONA_MET": "Xalapa", "INTENSIDAD": "Extrema", "T_PROM_POL": 4.0, "T_MIN_CIUD": 2.0, "DIF_TERMIC": 1.0 }, "geometry": { "type": "MultiPolygon", "coordinates": [ [ [ [ -96.883303392290415, 19.517067357365963 ], [ -96.882764403119936, 19.517067357365963 ], [ -96.882764403119936, 19.516797862780727 ], [ -96.88222541394947, 19.516797862780727 ], [ -96.88222541394947, 19.515989379025019 ], [ -96.882494908534696, 19.515989379025019 ], [ -96.882494908534696, 19.515719884439783 ], [ -96.883303392290415, 19.515719884439783 ], [ -96.883303392290415, 19.515989379025019 ], [ -96.88411187604612, 19.515989379025019 ], [ -96.88411187604612, 19.516258873610255 ], [ -96.88384238146088, 19.516258873610255 ], [ -96.88384238146088, 19.516528368195491 ], [ -96.883572886875641, 19.516528368195491 ], [ -96.883572886875641, 19.516797862780727 ], [ -96.883303392290415, 19.516797862780727 ], [ -96.883303392290415, 19.517067357365963 ] ] ] ] } },
{ "type": "Feature", "properties": { "ZONA_MET": "Xalapa", "INTENSIDAD": "Intensa", "T_PROM_POL": 3.0, "T_MIN_CIUD": 2.0, "DIF_TERMIC": 1.0 }, "geometry": { "type": "MultiPolygon", "coordinates": [ [ [ [ -96.853658987914471, 19.516258873610255 ], [ -96.853119998743992, 19.516258873610255 ], [ -96.853119998743992, 19.515719884439783 ], [ -96.852850504158752, 19.515719884439783 ], [ -96.852850504158752, 19.515450389854546 ], [ -96.852581009573527, 19.515450389854546 ], [ -96.852581009573527, 19.515180895269314 ], [ -96.852850504158752, 19.515180895269314 ], [ -96.852850504158752, 19.514911400684078 ], [ -96.853119998743992, 19.514911400684078 ], [ -96.853119998743992, 19.514372411513605 ], [ -96.853389493329232, 19.514372411513605 ], [ -96.853389493329232, 19.514911400684078 ], [ -96.853658987914471, 19.514911400684078 ], [ -96.853658987914471, 19.514372411513605 ], [ -96.853928482499697, 19.514372411513605 ], [ -96.853928482499697, 19.515180895269314 ], [ -96.854197977084937, 19.515180895269314 ], [ -96.854197977084937, 19.514911400684078 ], [ -96.854736966255402, 19.514911400684078 ], [ -96.854736966255402, 19.514372411513605 ], [ -96.854467471670176, 19.514372411513605 ], [ -96.854467471670176, 19.514641906098841 ], [ -96.854197977084937, 19.514641906098841 ], [ -96.854197977084937, 19.514102916928369 ], [ -96.855006460840642, 19.514102916928369 ], [ -96.855006460840642, 19.515180895269314 ], [ -96.854467471670176, 19.515180895269314 ], [ -96.854467471670176, 19.515989379025019 ], [ -96.853658987914471, 19.515989379025019 ], [ -96.853658987914471, 19.516258873610255 ] ] ] ] } },
{ "type": "Feature", "properties": { "ZONA_MET": "Xalapa", "INTENSIDAD": "Intensa", "T_PROM_POL": 3.0, "T_MIN_CIUD": 2.0, "DIF_TERMIC": 1.0 }, "geometry": { "type": "MultiPolygon", "coordinates": [ [ [ [ -96.879530468097101, 19.515180895269314 ], [ -96.879260973511876, 19.515180895269314 ], [ -96.879260973511876, 19.514911400684078 ], [ -96.878182995170931, 19.514911400684078 ], [ -96.878182995170931, 19.514641906098841 ], [ -96.877913500585692, 19.514641906098841 ], [ -96.877913500585692, 19.513294433172661 ], [ -96.878182995170931, 19.513294433172661 ], [ -96.878182995170931, 19.513024938587424 ], [ -96.878991478926636, 19.513024938587424 ], [ -96.878991478926636, 19.514372411513605 ], [ -96.879530468097101, 19.514372411513605 ], [ -96.879530468097101, 19.514102916928369 ], [ -96.879799962682341, 19.514102916928369 ], [ -96.879799962682341, 19.513833422343133 ], [ -96.880069457267581, 19.513833422343133 ], [ -96.880069457267581, 19.514372411513605 ], [ -96.880338951852821, 19.514372411513605 ], [ -96.880338951852821, 19.514641906098841 ], [ -96.880069457267581, 19.514641906098841 ], [ -96.880069457267581, 19.514911400684078 ], [ -96.879530468097101, 19.514911400684078 ], [ -96.879530468097101, 19.515180895269314 ] ], [ [ -96.878721984341396, 19.514641906098841 ], [ -96.878721984341396, 19.514372411513605 ], [ -96.878452489756157, 19.514372411513605 ], [ -96.878452489756157, 19.514641906098841 ], [ -96.878721984341396, 19.514641906098841 ] ] ] ] } },
{ "type": "Feature", "properties": { "ZONA_MET": "Xalapa", "INTENSIDAD": "Extrema", "T_PROM_POL": 4.0, "T_MIN_CIUD": 2.0, "DIF_TERMIC": 1.0 }, "geometry": { "type": "MultiPolygon", "coordinates": [ [ [ [ -96.877913500585692, 19.513833422343133 ], [ -96.877644006000452, 19.513833422343133 ], [ -96.877644006000452, 19.513563927757897 ], [ -96.877105016829987, 19.513563927757897 ], [ -96.877105016829987, 19.513294433172661 ], [ -96.876835522244747, 19.513294433172661 ], [ -96.876835522244747, 19.513024938587424 ], [ -96.876566027659507, 19.513024938587424 ], [ -96.876566027659507, 19.512755444002188 ], [ -96.876296533074282, 19.512755444002188 ], [ -96.876296533074282, 19.512216454831719 ], [ -96.876566027659507, 19.512216454831719 ], [ -96.876566027659507, 19.511138476490775 ], [ -96.876835522244747, 19.511138476490775 ], [ -96.876835522244747, 19.511407971076011 ], [ -96.877374511415226, 19.511407971076011 ], [ -96.877374511415226, 19.511946960246483 ], [ -96.877644006000452, 19.511946960246483 ], [ -96.877644006000452, 19.512216454831719 ], [ -96.878182995170931, 19.512216454831719 ], [ -96.878182995170931, 19.512485949416952 ], [ -96.878721984341396, 19.512485949416952 ], [ -96.878721984341396, 19.513024938587424 ], [ -96.878182995170931, 19.513024938587424 ], [ -96.878182995170931, 19.513294433172661 ], [ -96.877913500585692, 19.513294433172661 ], [ -96.877913500585692, 19.513833422343133 ] ] ] ] } },
{ "type": "Feature", "properties": { "ZONA_MET": "Xalapa", "INTENSIDAD": "Intensa", "T_PROM_POL": 3.0, "T_MIN_CIUD": 2.0, "DIF_TERMIC": 1.0 }, "geometry": { "type": "MultiPolygon", "coordinates": [ [ [ [ -96.930734439291911, 19.511138476490775 ], [ -96.928847977195261, 19.511138476490775 ], [ -96.928847977195261, 19.510868981905539 ], [ -96.929117471780501, 19.510868981905539 ], [ -96.929117471780501, 19.510599487320302 ], [ -96.92938696636574, 19.510599487320302 ], [ -96.92938696636574, 19.510868981905539 ], [ -96.929925955536206, 19.510868981905539 ], [ -96.929925955536206, 19.510599487320302 ], [ -96.930464944706685, 19.510599487320302 ], [ -96.930464944706685, 19.510329992735066 ], [ -96.930734439291911, 19.510329992735066 ], [ -96.930734439291911, 19.511138476490775 ] ] ] ] } },
{ "type": "Feature", "properties": { "ZONA_MET": "Xalapa", "INTENSIDAD": "Extrema", "T_PROM_POL": 3.0, "T_MIN_CIUD": 2.0, "DIF_TERMIC": 1.0 }, "geometry": { "type": "MultiPolygon", "coordinates": [ [ [ [ -96.881955919364231, 19.508982519808889 ], [ -96.880877941023286, 19.508982519808889 ], [ -96.880877941023286, 19.507904541467944 ], [ -96.881416930193751, 19.507904541467944 ], [ -96.881416930193751, 19.50817403605318 ], [ -96.882494908534696, 19.50817403605318 ], [ -96.882494908534696, 19.508713025223653 ], [ -96.881955919364231, 19.508713025223653 ], [ -96.881955919364231, 19.508982519808889 ] ] ] ] } },
{ "type": "Feature", "properties": { "ZONA_MET": "Xalapa", "INTENSIDAD": "Intensa", "T_PROM_POL": 3.0, "T_MIN_CIUD": 2.0, "DIF_TERMIC": 1.0 }, "geometry": { "type": "MultiPolygon", "coordinates": [ [ [ [ -96.862552309227254, 19.508713025223653 ], [ -96.862013320056775, 19.508713025223653 ], [ -96.862013320056775, 19.508443530638417 ], [ -96.861743825471535, 19.508443530638417 ], [ -96.861743825471535, 19.507365552297472 ], [ -96.862013320056775, 19.507365552297472 ], [ -96.862013320056775, 19.507904541467944 ], [ -96.862282814642015, 19.507904541467944 ], [ -96.862282814642015, 19.507635046882708 ], [ -96.86282180381248, 19.507635046882708 ], [ -96.86282180381248, 19.507904541467944 ], [ -96.86309129839772, 19.507904541467944 ], [ -96.86309129839772, 19.508443530638417 ], [ -96.862552309227254, 19.508443530638417 ], [ -96.862552309227254, 19.508713025223653 ] ], [ [ -96.862552309227254, 19.50817403605318 ], [ -96.862552309227254, 19.507904541467944 ], [ -96.862282814642015, 19.507904541467944 ], [ -96.862282814642015, 19.50817403605318 ], [ -96.862552309227254, 19.50817403605318 ] ] ] ] } },
{ "type": "Feature", "properties": { "ZONA_MET": "Xalapa", "INTENSIDAD": "Intensa", "T_PROM_POL": 3.0, "T_MIN_CIUD": 2.0, "DIF_TERMIC": 1.0 }, "geometry": { "type": "MultiPolygon", "coordinates": [ [ [ [ -96.857162417522531, 19.505209595615586 ], [ -96.856623428352066, 19.505209595615586 ], [ -96.856623428352066, 19.504401111859877 ], [ -96.856353933766826, 19.504401111859877 ], [ -96.856353933766826, 19.504131617274641 ], [ -96.856084439181586, 19.504131617274641 ], [ -96.856084439181586, 19.5030536389337 ], [ -96.855814944596347, 19.5030536389337 ], [ -96.855814944596347, 19.502784144348464 ], [ -96.856084439181586, 19.502784144348464 ], [ -96.856084439181586, 19.502514649763228 ], [ -96.856353933766826, 19.502514649763228 ], [ -96.856353933766826, 19.502784144348464 ], [ -96.856623428352066, 19.502784144348464 ], [ -96.856623428352066, 19.503323133518936 ], [ -96.856353933766826, 19.503323133518936 ], [ -96.856353933766826, 19.503862122689405 ], [ -96.856623428352066, 19.503862122689405 ], [ -96.856623428352066, 19.503592628104169 ], [ -96.858240395863476, 19.503592628104169 ], [ -96.858240395863476, 19.503862122689405 ], [ -96.858779385033941, 19.503862122689405 ], [ -96.858779385033941, 19.504131617274641 ], [ -96.859048879619181, 19.504131617274641 ], [ -96.859048879619181, 19.504401111859877 ], [ -96.858779385033941, 19.504401111859877 ], [ -96.858779385033941, 19.504670606445114 ], [ -96.858509890448715, 19.504670606445114 ], [ -96.858509890448715, 19.50494010103035 ], [ -96.858240395863476, 19.50494010103035 ], [ -96.858240395863476, 19.504401111859877 ], [ -96.857970901278236, 19.504401111859877 ], [ -96.857970901278236, 19.504131617274641 ], [ -96.857431912107771, 19.504131617274641 ], [ -96.857431912107771, 19.50494010103035 ], [ -96.857162417522531, 19.50494010103035 ], [ -96.857162417522531, 19.505209595615586 ] ] ] ] } },
{ "type": "Feature", "properties": { "ZONA_MET": "Xalapa", "INTENSIDAD": "Intensa", "T_PROM_POL": 3.0, "T_MIN_CIUD": 2.0, "DIF_TERMIC": 1.0 }, "geometry": { "type": "MultiPolygon", "coordinates": [ [ [ [ -96.854467471670176, 19.502514649763228 ], [ -96.853928482499697, 19.502514649763228 ], [ -96.853928482499697, 19.501975660592755 ], [ -96.853658987914471, 19.501975660592755 ], [ -96.853658987914471, 19.501436671422283 ], [ -96.853928482499697, 19.501436671422283 ], [ -96.853928482499697, 19.500897682251811 ], [ -96.854467471670176, 19.500897682251811 ], [ -96.854467471670176, 19.501167176837047 ], [ -96.855006460840642, 19.501167176837047 ], [ -96.855006460840642, 19.501975660592755 ], [ -96.854736966255402, 19.501975660592755 ], [ -96.854736966255402, 19.502245155177992 ], [ -96.854467471670176, 19.502245155177992 ], [ -96.854467471670176, 19.502514649763228 ] ] ] ] } },
{ "type": "Feature", "properties": { "ZONA_MET": "Xalapa", "INTENSIDAD": "Intensa", "T_PROM_POL": 3.0, "T_MIN_CIUD": 2.0, "DIF_TERMIC": 1.0 }, "geometry": { "type": "MultiPolygon", "coordinates": [ [ [ [ -96.881955919364231, 19.501167176837047 ], [ -96.881686424778991, 19.501167176837047 ], [ -96.881686424778991, 19.500897682251811 ], [ -96.881416930193751, 19.500897682251811 ], [ -96.881416930193751, 19.500089198496106 ], [ -96.881147435608526, 19.500089198496106 ], [ -96.881147435608526, 19.49981970391087 ], [ -96.881416930193751, 19.49981970391087 ], [ -96.881416930193751, 19.499550209325633 ], [ -96.881686424778991, 19.499550209325633 ], [ -96.881686424778991, 19.500089198496106 ], [ -96.881955919364231, 19.500089198496106 ], [ -96.881955919364231, 19.500358693081342 ], [ -96.88222541394947, 19.500358693081342 ], [ -96.88222541394947, 19.500897682251811 ], [ -96.881955919364231, 19.500897682251811 ], [ -96.881955919364231, 19.501167176837047 ] ] ] ] } },
{ "type": "Feature", "properties": { "ZONA_MET": "Xalapa", "INTENSIDAD": "Intensa", "T_PROM_POL": 3.0, "T_MIN_CIUD": 2.0, "DIF_TERMIC": 1.0 }, "geometry": { "type": "MultiPolygon", "coordinates": [ [ [ [ -96.86120483630107, 19.501167176837047 ], [ -96.860396352545365, 19.501167176837047 ], [ -96.860396352545365, 19.500628187666575 ], [ -96.85958786878966, 19.500628187666575 ], [ -96.85958786878966, 19.500358693081342 ], [ -96.859048879619181, 19.500358693081342 ], [ -96.859048879619181, 19.49981970391087 ], [ -96.858779385033941, 19.49981970391087 ], [ -96.858779385033941, 19.499280714740397 ], [ -96.859857363374886, 19.499280714740397 ], [ -96.859857363374886, 19.500358693081342 ], [ -96.860665847130591, 19.500358693081342 ], [ -96.860665847130591, 19.500089198496106 ], [ -96.86093534171583, 19.500089198496106 ], [ -96.86093534171583, 19.49981970391087 ], [ -96.86120483630107, 19.49981970391087 ], [ -96.86120483630107, 19.500089198496106 ], [ -96.861743825471535, 19.500089198496106 ], [ -96.861743825471535, 19.500358693081342 ], [ -96.862013320056775, 19.500358693081342 ], [ -96.862013320056775, 19.500897682251811 ], [ -96.86120483630107, 19.500897682251811 ], [ -96.86120483630107, 19.501167176837047 ] ] ] ] } },
{ "type": "Feature", "properties": { "ZONA_MET": "Xalapa", "INTENSIDAD": "Intensa", "T_PROM_POL": 3.0, "T_MIN_CIUD": 2.0, "DIF_TERMIC": 1.0 }, "geometry": { "type": "MultiPolygon", "coordinates": [ [ [ [ -96.849886063721158, 19.498741725569925 ], [ -96.849616569135932, 19.498741725569925 ], [ -96.849616569135932, 19.498472230984689 ], [ -96.849347074550693, 19.498472230984689 ], [ -96.849347074550693, 19.498741725569925 ], [ -96.849077579965453, 19.498741725569925 ], [ -96.849077579965453, 19.497394252643744 ], [ -96.849886063721158, 19.497394252643744 ], [ -96.849886063721158, 19.497124758058511 ], [ -96.850155558306398, 19.497124758058511 ], [ -96.850155558306398, 19.497933241814216 ], [ -96.850694547476877, 19.497933241814216 ], [ -96.850694547476877, 19.498472230984689 ], [ -96.849886063721158, 19.498472230984689 ], [ -96.849886063721158, 19.498741725569925 ] ] ] ] } },
{ "type": "Feature", "properties": { "ZONA_MET": "Xalapa", "INTENSIDAD": "Intensa", "T_PROM_POL": 3.0, "T_MIN_CIUD": 2.0, "DIF_TERMIC": 1.0 }, "geometry": { "type": "MultiPolygon", "coordinates": [ [ [ [ -96.851503031232582, 19.496046779717567 ], [ -96.849886063721158, 19.496046779717567 ], [ -96.849886063721158, 19.494968801376622 ], [ -96.849616569135932, 19.494968801376622 ], [ -96.849616569135932, 19.494699306791386 ], [ -96.849347074550693, 19.494699306791386 ], [ -96.849347074550693, 19.494160317620917 ], [ -96.849616569135932, 19.494160317620917 ], [ -96.849616569135932, 19.49442981220615 ], [ -96.850155558306398, 19.49442981220615 ], [ -96.850155558306398, 19.494160317620917 ], [ -96.850425052891637, 19.494160317620917 ], [ -96.850425052891637, 19.49442981220615 ], [ -96.850694547476877, 19.49442981220615 ], [ -96.850694547476877, 19.494699306791386 ], [ -96.851233536647342, 19.494699306791386 ], [ -96.851233536647342, 19.494968801376622 ], [ -96.851772525817807, 19.494968801376622 ], [ -96.851772525817807, 19.495238295961858 ], [ -96.852042020403047, 19.495238295961858 ], [ -96.852042020403047, 19.495777285132331 ], [ -96.851503031232582, 19.495777285132331 ], [ -96.851503031232582, 19.496046779717567 ] ], [ [ -96.850155558306398, 19.494968801376622 ], [ -96.850155558306398, 19.494699306791386 ], [ -96.849886063721158, 19.494699306791386 ], [ -96.849886063721158, 19.494968801376622 ], [ -96.850155558306398, 19.494968801376622 ] ] ] ] } }
]
}
