{
"type": "FeatureCollection",
"name": "UHI_Colima_Villa_de__lvarez",
"crs": { "type": "name", "properties": { "name": "urn:ogc:def:crs:OGC:1.3:CRS84" } },
"features": [
{ "type": "Feature", "properties": { "ZONA_MET": "Colima_Villa_de__lvarez", "INTENSIDAD": "Intensa", "T_PROM_POL": 4.0, "T_MIN_CIUD": 3.0, "DIF_TERMIC": 8.0 }, "geometry": { "type": "MultiPolygon", "coordinates": [ [ [ [ -103.748138962003381, 19.292308873279257 ], [ -103.747869467418141, 19.292308873279257 ], [ -103.747869467418141, 19.292039378694021 ], [ -103.747330478247676, 19.292039378694021 ], [ -103.747330478247676, 19.291769884108785 ], [ -103.747599972832916, 19.291769884108785 ], [ -103.747599972832916, 19.290422411182607 ], [ -103.747060983662436, 19.290422411182607 ], [ -103.747060983662436, 19.290152916597371 ], [ -103.747599972832916, 19.290152916597371 ], [ -103.747599972832916, 19.289883422012135 ], [ -103.746791489077197, 19.289883422012135 ], [ -103.746791489077197, 19.289344432841663 ], [ -103.747060983662436, 19.289344432841663 ], [ -103.747060983662436, 19.289074938256427 ], [ -103.747330478247676, 19.289074938256427 ], [ -103.747330478247676, 19.289344432841663 ], [ -103.747599972832916, 19.289344432841663 ], [ -103.747599972832916, 19.289613927426899 ], [ -103.747869467418141, 19.289613927426899 ], [ -103.747869467418141, 19.290961400353076 ], [ -103.748138962003381, 19.290961400353076 ], [ -103.748138962003381, 19.291230894938312 ], [ -103.747869467418141, 19.291230894938312 ], [ -103.747869467418141, 19.291500389523549 ], [ -103.748138962003381, 19.291500389523549 ], [ -103.748138962003381, 19.291769884108785 ], [ -103.74867795117386, 19.291769884108785 ], [ -103.74867795117386, 19.292039378694021 ], [ -103.748138962003381, 19.292039378694021 ], [ -103.748138962003381, 19.292308873279257 ] ] ] ] } },
{ "type": "Feature", "properties": { "ZONA_MET": "Colima_Villa_de__lvarez", "INTENSIDAD": "Intensa", "T_PROM_POL": 4.0, "T_MIN_CIUD": 3.0, "DIF_TERMIC": 9.0 }, "geometry": { "type": "MultiPolygon", "coordinates": [ [ [ [ -103.746791489077197, 19.289344432841663 ], [ -103.746521994491971, 19.289344432841663 ], [ -103.746521994491971, 19.289074938256427 ], [ -103.746252499906731, 19.289074938256427 ], [ -103.746252499906731, 19.288266454500718 ], [ -103.745983005321492, 19.288266454500718 ], [ -103.745983005321492, 19.28745797074501 ], [ -103.746252499906731, 19.28745797074501 ], [ -103.746252499906731, 19.287727465330246 ], [ -103.746521994491971, 19.287727465330246 ], [ -103.746521994491971, 19.288266454500718 ], [ -103.747060983662436, 19.288266454500718 ], [ -103.747060983662436, 19.288535949085954 ], [ -103.747330478247676, 19.288535949085954 ], [ -103.747330478247676, 19.28880544367119 ], [ -103.746791489077197, 19.28880544367119 ], [ -103.746791489077197, 19.289344432841663 ] ] ] ] } },
{ "type": "Feature", "properties": { "ZONA_MET": "Colima_Villa_de__lvarez", "INTENSIDAD": "Extrema", "T_PROM_POL": 5.0, "T_MIN_CIUD": 3.0, "DIF_TERMIC": 1.0 }, "geometry": { "type": "MultiPolygon", "coordinates": [ [ [ [ -103.747869467418141, 19.286379992404068 ], [ -103.746791489077197, 19.286379992404068 ], [ -103.746791489077197, 19.285841003233596 ], [ -103.745983005321492, 19.285841003233596 ], [ -103.745983005321492, 19.285302014063124 ], [ -103.746252499906731, 19.285302014063124 ], [ -103.746252499906731, 19.285032519477888 ], [ -103.746791489077197, 19.285032519477888 ], [ -103.746791489077197, 19.285302014063124 ], [ -103.747060983662436, 19.285302014063124 ], [ -103.747060983662436, 19.28557150864836 ], [ -103.747599972832916, 19.28557150864836 ], [ -103.747599972832916, 19.285302014063124 ], [ -103.747869467418141, 19.285302014063124 ], [ -103.747869467418141, 19.285841003233596 ], [ -103.747599972832916, 19.285841003233596 ], [ -103.747599972832916, 19.286110497818832 ], [ -103.747869467418141, 19.286110497818832 ], [ -103.747869467418141, 19.286379992404068 ] ] ] ] } },
{ "type": "Feature", "properties": { "ZONA_MET": "Colima_Villa_de__lvarez", "INTENSIDAD": "Intensa", "T_PROM_POL": 4.0, "T_MIN_CIUD": 3.0, "DIF_TERMIC": 9.0 }, "geometry": { "type": "MultiPolygon", "coordinates": [ [ [ [ -103.741132102787248, 19.285032519477888 ], [ -103.740862608202008, 19.285032519477888 ], [ -103.740862608202008, 19.284763024892651 ], [ -103.740593113616782, 19.284763024892651 ], [ -103.740593113616782, 19.285032519477888 ], [ -103.740054124446303, 19.285032519477888 ], [ -103.740054124446303, 19.284763024892651 ], [ -103.740323619031543, 19.284763024892651 ], [ -103.740323619031543, 19.284493530307415 ], [ -103.740593113616782, 19.284493530307415 ], [ -103.740593113616782, 19.284224035722183 ], [ -103.740323619031543, 19.284224035722183 ], [ -103.740323619031543, 19.283954541136946 ], [ -103.740593113616782, 19.283954541136946 ], [ -103.740593113616782, 19.28368504655171 ], [ -103.740323619031543, 19.28368504655171 ], [ -103.740323619031543, 19.283415551966474 ], [ -103.741132102787248, 19.283415551966474 ], [ -103.741132102787248, 19.285032519477888 ] ] ] ] } },
{ "type": "Feature", "properties": { "ZONA_MET": "Colima_Villa_de__lvarez", "INTENSIDAD": "Intensa", "T_PROM_POL": 4.0, "T_MIN_CIUD": 3.0, "DIF_TERMIC": 9.0 }, "geometry": { "type": "MultiPolygon", "coordinates": [ [ [ [ -103.768620550481302, 19.28368504655171 ], [ -103.768081561310836, 19.28368504655171 ], [ -103.768081561310836, 19.283415551966474 ], [ -103.767273077555132, 19.283415551966474 ], [ -103.767273077555132, 19.283146057381238 ], [ -103.767003582969892, 19.283146057381238 ], [ -103.767003582969892, 19.282876562796002 ], [ -103.767542572140357, 19.282876562796002 ], [ -103.767542572140357, 19.282607068210766 ], [ -103.768081561310836, 19.282607068210766 ], [ -103.768081561310836, 19.282876562796002 ], [ -103.768351055896076, 19.282876562796002 ], [ -103.768351055896076, 19.283146057381238 ], [ -103.768620550481302, 19.283146057381238 ], [ -103.768620550481302, 19.28368504655171 ] ] ] ] } },
{ "type": "Feature", "properties": { "ZONA_MET": "Colima_Villa_de__lvarez", "INTENSIDAD": "Intensa", "T_PROM_POL": 4.0, "T_MIN_CIUD": 3.0, "DIF_TERMIC": 9.0 }, "geometry": { "type": "MultiPolygon", "coordinates": [ [ [ [ -103.743827048639602, 19.281798584455057 ], [ -103.742749070298672, 19.281798584455057 ], [ -103.742749070298672, 19.281259595284588 ], [ -103.742210081128192, 19.281259595284588 ], [ -103.742210081128192, 19.280990100699352 ], [ -103.743557554054377, 19.280990100699352 ], [ -103.743557554054377, 19.281259595284588 ], [ -103.743827048639602, 19.281259595284588 ], [ -103.743827048639602, 19.281798584455057 ] ] ] ] } },
{ "type": "Feature", "properties": { "ZONA_MET": "Colima_Villa_de__lvarez", "INTENSIDAD": "Intensa", "T_PROM_POL": 4.0, "T_MIN_CIUD": 3.0, "DIF_TERMIC": 9.0 }, "geometry": { "type": "MultiPolygon", "coordinates": [ [ [ [ -103.732508276059704, 19.282337573625529 ], [ -103.732238781474464, 19.282337573625529 ], [ -103.732238781474464, 19.282068079040293 ], [ -103.731969286889225, 19.282068079040293 ], [ -103.731969286889225, 19.281798584455057 ], [ -103.730082824792575, 19.281798584455057 ], [ -103.730082824792575, 19.281529089869821 ], [ -103.72981333020735, 19.281529089869821 ], [ -103.72981333020735, 19.281259595284588 ], [ -103.730891308548294, 19.281259595284588 ], [ -103.730891308548294, 19.279642627773171 ], [ -103.73116080313352, 19.279642627773171 ], [ -103.73116080313352, 19.279912122358407 ], [ -103.731430297718759, 19.279912122358407 ], [ -103.731430297718759, 19.280181616943644 ], [ -103.731969286889225, 19.280181616943644 ], [ -103.731969286889225, 19.280990100699352 ], [ -103.731699792303999, 19.280990100699352 ], [ -103.731699792303999, 19.281259595284588 ], [ -103.732508276059704, 19.281259595284588 ], [ -103.732508276059704, 19.281798584455057 ], [ -103.732777770644944, 19.281798584455057 ], [ -103.732777770644944, 19.282068079040293 ], [ -103.732508276059704, 19.282068079040293 ], [ -103.732508276059704, 19.282337573625529 ] ] ] ] } },
{ "type": "Feature", "properties": { "ZONA_MET": "Colima_Villa_de__lvarez", "INTENSIDAD": "Intensa", "T_PROM_POL": 4.0, "T_MIN_CIUD": 3.0, "DIF_TERMIC": 9.0 }, "geometry": { "type": "MultiPolygon", "coordinates": [ [ [ [ -103.771854485504136, 19.280720606114116 ], [ -103.771584990918896, 19.280720606114116 ], [ -103.771584990918896, 19.28045111152888 ], [ -103.771315496333671, 19.28045111152888 ], [ -103.771315496333671, 19.280181616943644 ], [ -103.770507012577951, 19.280181616943644 ], [ -103.770507012577951, 19.279642627773171 ], [ -103.770776507163191, 19.279642627773171 ], [ -103.770776507163191, 19.279373133187935 ], [ -103.771046001748431, 19.279373133187935 ], [ -103.771046001748431, 19.279103638602699 ], [ -103.771315496333671, 19.279103638602699 ], [ -103.771315496333671, 19.279912122358407 ], [ -103.771584990918896, 19.279912122358407 ], [ -103.771584990918896, 19.280181616943644 ], [ -103.772123980089376, 19.280181616943644 ], [ -103.772123980089376, 19.28045111152888 ], [ -103.771854485504136, 19.28045111152888 ], [ -103.771854485504136, 19.280720606114116 ] ] ] ] } },
{ "type": "Feature", "properties": { "ZONA_MET": "Colima_Villa_de__lvarez", "INTENSIDAD": "Intensa", "T_PROM_POL": 4.0, "T_MIN_CIUD": 3.0, "DIF_TERMIC": 9.0 }, "geometry": { "type": "MultiPolygon", "coordinates": [ [ [ [ -103.775357915112195, 19.281798584455057 ], [ -103.773740947600785, 19.281798584455057 ], [ -103.773740947600785, 19.281259595284588 ], [ -103.77508842052697, 19.281259595284588 ], [ -103.77508842052697, 19.280720606114116 ], [ -103.774279936771265, 19.280720606114116 ], [ -103.774279936771265, 19.280990100699352 ], [ -103.774010442186025, 19.280990100699352 ], [ -103.774010442186025, 19.280720606114116 ], [ -103.773471453015546, 19.280720606114116 ], [ -103.773471453015546, 19.28045111152888 ], [ -103.773740947600785, 19.28045111152888 ], [ -103.773740947600785, 19.279642627773171 ], [ -103.774010442186025, 19.279642627773171 ], [ -103.774010442186025, 19.279103638602699 ], [ -103.77454943135649, 19.279103638602699 ], [ -103.77454943135649, 19.278564649432226 ], [ -103.77481892594173, 19.278564649432226 ], [ -103.77481892594173, 19.278834144017463 ], [ -103.775627409697435, 19.278834144017463 ], [ -103.775627409697435, 19.279103638602699 ], [ -103.77508842052697, 19.279103638602699 ], [ -103.77508842052697, 19.279373133187935 ], [ -103.775627409697435, 19.279373133187935 ], [ -103.775627409697435, 19.279912122358407 ], [ -103.775896904282675, 19.279912122358407 ], [ -103.775896904282675, 19.280181616943644 ], [ -103.775627409697435, 19.280181616943644 ], [ -103.775627409697435, 19.280990100699352 ], [ -103.775357915112195, 19.280990100699352 ], [ -103.775357915112195, 19.281798584455057 ] ] ] ] } },
{ "type": "Feature", "properties": { "ZONA_MET": "Colima_Villa_de__lvarez", "INTENSIDAD": "Extrema", "T_PROM_POL": 4.0, "T_MIN_CIUD": 3.0, "DIF_TERMIC": 1.0 }, "geometry": { "type": "MultiPolygon", "coordinates": [ [ [ [ -103.766195099214187, 19.279103638602699 ], [ -103.765925604628947, 19.279103638602699 ], [ -103.765925604628947, 19.278564649432226 ], [ -103.764847626288002, 19.278564649432226 ], [ -103.764847626288002, 19.278295154846994 ], [ -103.764039142532297, 19.278295154846994 ], [ -103.764039142532297, 19.278025660261758 ], [ -103.763769647947058, 19.278025660261758 ], [ -103.763769647947058, 19.277756165676522 ], [ -103.765117120873242, 19.277756165676522 ], [ -103.765117120873242, 19.278295154846994 ], [ -103.765386615458482, 19.278295154846994 ], [ -103.765386615458482, 19.278025660261758 ], [ -103.765925604628947, 19.278025660261758 ], [ -103.765925604628947, 19.278295154846994 ], [ -103.766464593799427, 19.278295154846994 ], [ -103.766464593799427, 19.278834144017463 ], [ -103.766195099214187, 19.278834144017463 ], [ -103.766195099214187, 19.279103638602699 ] ] ] ] } },
{ "type": "Feature", "properties": { "ZONA_MET": "Colima_Villa_de__lvarez", "INTENSIDAD": "Intensa", "T_PROM_POL": 4.0, "T_MIN_CIUD": 3.0, "DIF_TERMIC": 9.0 }, "geometry": { "type": "MultiPolygon", "coordinates": [ [ [ [ -103.762961164191353, 19.279103638602699 ], [ -103.762691669606113, 19.279103638602699 ], [ -103.762691669606113, 19.278564649432226 ], [ -103.762152680435648, 19.278564649432226 ], [ -103.762152680435648, 19.277756165676522 ], [ -103.762961164191353, 19.277756165676522 ], [ -103.762961164191353, 19.278295154846994 ], [ -103.763230658776592, 19.278295154846994 ], [ -103.763230658776592, 19.278834144017463 ], [ -103.762961164191353, 19.278834144017463 ], [ -103.762961164191353, 19.279103638602699 ] ] ] ] } },
{ "type": "Feature", "properties": { "ZONA_MET": "Colima_Villa_de__lvarez", "INTENSIDAD": "Intensa", "T_PROM_POL": 4.0, "T_MIN_CIUD": 3.0, "DIF_TERMIC": 9.0 }, "geometry": { "type": "MultiPolygon", "coordinates": [ [ [ [ -103.735742211082538, 19.272366273971805 ], [ -103.735472716497299, 19.272366273971805 ], [ -103.735472716497299, 19.272096779386569 ], [ -103.734933727326819, 19.272096779386569 ], [ -103.734933727326819, 19.271827284801333 ], [ -103.734664232741594, 19.271827284801333 ], [ -103.734664232741594, 19.271557790216097 ], [ -103.734394738156354, 19.271557790216097 ], [ -103.734394738156354, 19.271018801045624 ], [ -103.734125243571114, 19.271018801045624 ], [ -103.734125243571114, 19.270479811875152 ], [ -103.734664232741594, 19.270479811875152 ], [ -103.734664232741594, 19.271018801045624 ], [ -103.734933727326819, 19.271018801045624 ], [ -103.734933727326819, 19.27128829563086 ], [ -103.735203221912059, 19.27128829563086 ], [ -103.735203221912059, 19.271557790216097 ], [ -103.735742211082538, 19.271557790216097 ], [ -103.735742211082538, 19.272366273971805 ] ] ] ] } },
{ "type": "Feature", "properties": { "ZONA_MET": "Colima_Villa_de__lvarez", "INTENSIDAD": "Intensa", "T_PROM_POL": 4.0, "T_MIN_CIUD": 3.0, "DIF_TERMIC": 9.0 }, "geometry": { "type": "MultiPolygon", "coordinates": [ [ [ [ -103.755954304975219, 19.270749306460388 ], [ -103.755415315804754, 19.270749306460388 ], [ -103.755415315804754, 19.270479811875152 ], [ -103.755145821219514, 19.270479811875152 ], [ -103.755145821219514, 19.269671328119443 ], [ -103.755415315804754, 19.269671328119443 ], [ -103.755415315804754, 19.269401833534207 ], [ -103.755954304975219, 19.269401833534207 ], [ -103.755954304975219, 19.269671328119443 ], [ -103.756223799560459, 19.269671328119443 ], [ -103.756223799560459, 19.26994082270468 ], [ -103.756762788730924, 19.26994082270468 ], [ -103.756762788730924, 19.270479811875152 ], [ -103.756493294145699, 19.270479811875152 ], [ -103.756493294145699, 19.270210317289916 ], [ -103.75568481038998, 19.270210317289916 ], [ -103.75568481038998, 19.270479811875152 ], [ -103.755954304975219, 19.270479811875152 ], [ -103.755954304975219, 19.270749306460388 ] ] ] ] } },
{ "type": "Feature", "properties": { "ZONA_MET": "Colima_Villa_de__lvarez", "INTENSIDAD": "Extrema", "T_PROM_POL": 5.0, "T_MIN_CIUD": 3.0, "DIF_TERMIC": 1.0 }, "geometry": { "type": "MultiPolygon", "coordinates": [ [ [ [ -103.737359178593948, 19.274252736068455 ], [ -103.736820189423483, 19.274252736068455 ], [ -103.736820189423483, 19.273983241483219 ], [ -103.736550694838243, 19.273983241483219 ], [ -103.736550694838243, 19.273713746897982 ], [ -103.736281200253003, 19.273713746897982 ], [ -103.736281200253003, 19.273444252312746 ], [ -103.736550694838243, 19.273444252312746 ], [ -103.736550694838243, 19.272905263142274 ], [ -103.736011705667764, 19.272905263142274 ], [ -103.736011705667764, 19.272635768557038 ], [ -103.736281200253003, 19.272635768557038 ], [ -103.736281200253003, 19.272366273971805 ], [ -103.736011705667764, 19.272366273971805 ], [ -103.736011705667764, 19.272096779386569 ], [ -103.735742211082538, 19.272096779386569 ], [ -103.735742211082538, 19.27128829563086 ], [ -103.736011705667764, 19.27128829563086 ], [ -103.736011705667764, 19.270749306460388 ], [ -103.736281200253003, 19.270749306460388 ], [ -103.736281200253003, 19.270210317289916 ], [ -103.736550694838243, 19.270210317289916 ], [ -103.736550694838243, 19.26994082270468 ], [ -103.736011705667764, 19.26994082270468 ], [ -103.736011705667764, 19.269671328119443 ], [ -103.735742211082538, 19.269671328119443 ], [ -103.735742211082538, 19.269401833534207 ], [ -103.735472716497299, 19.269401833534207 ], [ -103.735472716497299, 19.269132338948975 ], [ -103.735742211082538, 19.269132338948975 ], [ -103.735742211082538, 19.268862844363738 ], [ -103.736281200253003, 19.268862844363738 ], [ -103.736281200253003, 19.269132338948975 ], [ -103.736550694838243, 19.269132338948975 ], [ -103.736550694838243, 19.269401833534207 ], [ -103.737089684008708, 19.269401833534207 ], [ -103.737089684008708, 19.269132338948975 ], [ -103.737359178593948, 19.269132338948975 ], [ -103.737359178593948, 19.26994082270468 ], [ -103.737628673179188, 19.26994082270468 ], [ -103.737628673179188, 19.269671328119443 ], [ -103.737898167764413, 19.269671328119443 ], [ -103.737898167764413, 19.270210317289916 ], [ -103.736820189423483, 19.270210317289916 ], [ -103.736820189423483, 19.270479811875152 ], [ -103.736550694838243, 19.270479811875152 ], [ -103.736550694838243, 19.271018801045624 ], [ -103.736820189423483, 19.271018801045624 ], [ -103.736820189423483, 19.27128829563086 ], [ -103.737359178593948, 19.27128829563086 ], [ -103.737359178593948, 19.271557790216097 ], [ -103.738437156934893, 19.271557790216097 ], [ -103.738437156934893, 19.272635768557038 ], [ -103.738976146105358, 19.272635768557038 ], [ -103.738976146105358, 19.272905263142274 ], [ -103.737898167764413, 19.272905263142274 ], [ -103.737898167764413, 19.27317475772751 ], [ -103.737359178593948, 19.27317475772751 ], [ -103.737359178593948, 19.273444252312746 ], [ -103.737089684008708, 19.273444252312746 ], [ -103.737089684008708, 19.273983241483219 ], [ -103.737359178593948, 19.273983241483219 ], [ -103.737359178593948, 19.274252736068455 ] ], [ [ -103.738167662349653, 19.272635768557038 ], [ -103.738167662349653, 19.272366273971805 ], [ -103.737898167764413, 19.272366273971805 ], [ -103.737898167764413, 19.272635768557038 ], [ -103.738167662349653, 19.272635768557038 ] ] ] ] } },
{ "type": "Feature", "properties": { "ZONA_MET": "Colima_Villa_de__lvarez", "INTENSIDAD": "Intensa", "T_PROM_POL": 4.0, "T_MIN_CIUD": 3.0, "DIF_TERMIC": 9.0 }, "geometry": { "type": "MultiPolygon", "coordinates": [ [ [ [ -103.742749070298672, 19.26994082270468 ], [ -103.742479575713432, 19.26994082270468 ], [ -103.742479575713432, 19.269401833534207 ], [ -103.741940586542952, 19.269401833534207 ], [ -103.741940586542952, 19.269671328119443 ], [ -103.741671091957727, 19.269671328119443 ], [ -103.741671091957727, 19.269401833534207 ], [ -103.741132102787248, 19.269401833534207 ], [ -103.741132102787248, 19.269132338948975 ], [ -103.742210081128192, 19.269132338948975 ], [ -103.742210081128192, 19.268862844363738 ], [ -103.742479575713432, 19.268862844363738 ], [ -103.742479575713432, 19.268593349778502 ], [ -103.742749070298672, 19.268593349778502 ], [ -103.742749070298672, 19.26994082270468 ] ] ] ] } },
{ "type": "Feature", "properties": { "ZONA_MET": "Colima_Villa_de__lvarez", "INTENSIDAD": "Extrema", "T_PROM_POL": 4.0, "T_MIN_CIUD": 3.0, "DIF_TERMIC": 1.0 }, "geometry": { "type": "MultiPolygon", "coordinates": [ [ [ [ -103.755145821219514, 19.270210317289916 ], [ -103.754337337463809, 19.270210317289916 ], [ -103.754337337463809, 19.26994082270468 ], [ -103.754876326634275, 19.26994082270468 ], [ -103.754876326634275, 19.269671328119443 ], [ -103.754606832049049, 19.269671328119443 ], [ -103.754606832049049, 19.268593349778502 ], [ -103.75568481038998, 19.268593349778502 ], [ -103.75568481038998, 19.268323855193266 ], [ -103.755954304975219, 19.268323855193266 ], [ -103.755954304975219, 19.268862844363738 ], [ -103.756223799560459, 19.268862844363738 ], [ -103.756223799560459, 19.269132338948975 ], [ -103.755954304975219, 19.269132338948975 ], [ -103.755954304975219, 19.269401833534207 ], [ -103.755415315804754, 19.269401833534207 ], [ -103.755415315804754, 19.269671328119443 ], [ -103.755145821219514, 19.269671328119443 ], [ -103.755145821219514, 19.270210317289916 ] ] ] ] } },
{ "type": "Feature", "properties": { "ZONA_MET": "Colima_Villa_de__lvarez", "INTENSIDAD": "Intensa", "T_PROM_POL": 4.0, "T_MIN_CIUD": 3.0, "DIF_TERMIC": 9.0 }, "geometry": { "type": "MultiPolygon", "coordinates": [ [ [ [ -103.735472716497299, 19.269401833534207 ], [ -103.735203221912059, 19.269401833534207 ], [ -103.735203221912059, 19.268593349778502 ], [ -103.735742211082538, 19.268593349778502 ], [ -103.735742211082538, 19.268323855193266 ], [ -103.736281200253003, 19.268323855193266 ], [ -103.736281200253003, 19.268593349778502 ], [ -103.737089684008708, 19.268593349778502 ], [ -103.737089684008708, 19.268862844363738 ], [ -103.737359178593948, 19.268862844363738 ], [ -103.737359178593948, 19.269132338948975 ], [ -103.736550694838243, 19.269132338948975 ], [ -103.736550694838243, 19.268862844363738 ], [ -103.735472716497299, 19.268862844363738 ], [ -103.735472716497299, 19.269401833534207 ] ] ] ] } },
{ "type": "Feature", "properties": { "ZONA_MET": "Colima_Villa_de__lvarez", "INTENSIDAD": "Intensa", "T_PROM_POL": 4.0, "T_MIN_CIUD": 3.0, "DIF_TERMIC": 9.0 }, "geometry": { "type": "MultiPolygon", "coordinates": [ [ [ [ -103.75029491868527, 19.272096779386569 ], [ -103.750025424100031, 19.272096779386569 ], [ -103.750025424100031, 19.271827284801333 ], [ -103.749216940344326, 19.271827284801333 ], [ -103.749216940344326, 19.271557790216097 ], [ -103.748947445759086, 19.271557790216097 ], [ -103.748947445759086, 19.27128829563086 ], [ -103.74867795117386, 19.27128829563086 ], [ -103.74867795117386, 19.270749306460388 ], [ -103.748408456588621, 19.270749306460388 ], [ -103.748408456588621, 19.270210317289916 ], [ -103.74867795117386, 19.270210317289916 ], [ -103.74867795117386, 19.269671328119443 ], [ -103.747869467418141, 19.269671328119443 ], [ -103.747869467418141, 19.268862844363738 ], [ -103.748138962003381, 19.268862844363738 ], [ -103.748138962003381, 19.268323855193266 ], [ -103.748408456588621, 19.268323855193266 ], [ -103.748408456588621, 19.26805436060803 ], [ -103.748947445759086, 19.26805436060803 ], [ -103.748947445759086, 19.268323855193266 ], [ -103.74867795117386, 19.268323855193266 ], [ -103.74867795117386, 19.268593349778502 ], [ -103.748408456588621, 19.268593349778502 ], [ -103.748408456588621, 19.269132338948975 ], [ -103.74867795117386, 19.269132338948975 ], [ -103.74867795117386, 19.269401833534207 ], [ -103.749216940344326, 19.269401833534207 ], [ -103.749216940344326, 19.269671328119443 ], [ -103.749755929514791, 19.269671328119443 ], [ -103.749755929514791, 19.26994082270468 ], [ -103.749216940344326, 19.26994082270468 ], [ -103.749216940344326, 19.270749306460388 ], [ -103.749755929514791, 19.270749306460388 ], [ -103.749755929514791, 19.271018801045624 ], [ -103.75029491868527, 19.271018801045624 ], [ -103.75029491868527, 19.272096779386569 ] ], [ [ -103.749755929514791, 19.271557790216097 ], [ -103.749755929514791, 19.27128829563086 ], [ -103.749216940344326, 19.27128829563086 ], [ -103.749216940344326, 19.271557790216097 ], [ -103.749755929514791, 19.271557790216097 ] ] ] ] } },
{ "type": "Feature", "properties": { "ZONA_MET": "Colima_Villa_de__lvarez", "INTENSIDAD": "Intensa", "T_PROM_POL": 4.0, "T_MIN_CIUD": 3.0, "DIF_TERMIC": 9.0 }, "geometry": { "type": "MultiPolygon", "coordinates": [ [ [ [ -103.698551958319982, 19.268593349778502 ], [ -103.697743474564277, 19.268593349778502 ], [ -103.697743474564277, 19.268323855193266 ], [ -103.697473979979037, 19.268323855193266 ], [ -103.697473979979037, 19.26805436060803 ], [ -103.696934990808572, 19.26805436060803 ], [ -103.696934990808572, 19.267784866022794 ], [ -103.697204485393812, 19.267784866022794 ], [ -103.697204485393812, 19.267245876852321 ], [ -103.697473979979037, 19.267245876852321 ], [ -103.697473979979037, 19.266976382267085 ], [ -103.697743474564277, 19.266976382267085 ], [ -103.697743474564277, 19.267245876852321 ], [ -103.698282463734756, 19.267245876852321 ], [ -103.698282463734756, 19.26805436060803 ], [ -103.699090947490461, 19.26805436060803 ], [ -103.699090947490461, 19.268323855193266 ], [ -103.698551958319982, 19.268323855193266 ], [ -103.698551958319982, 19.268593349778502 ] ] ] ] } },
{ "type": "Feature", "properties": { "ZONA_MET": "Colima_Villa_de__lvarez", "INTENSIDAD": "Extrema", "T_PROM_POL": 4.0, "T_MIN_CIUD": 3.0, "DIF_TERMIC": 1.0 }, "geometry": { "type": "MultiPolygon", "coordinates": [ [ [ [ -103.701785893342816, 19.267784866022794 ], [ -103.701246904172351, 19.267784866022794 ], [ -103.701246904172351, 19.267515371437558 ], [ -103.700438420416631, 19.267515371437558 ], [ -103.700438420416631, 19.267784866022794 ], [ -103.700168925831406, 19.267784866022794 ], [ -103.700168925831406, 19.266976382267085 ], [ -103.701246904172351, 19.266976382267085 ], [ -103.701246904172351, 19.267245876852321 ], [ -103.701516398757576, 19.267245876852321 ], [ -103.701516398757576, 19.267515371437558 ], [ -103.701785893342816, 19.267515371437558 ], [ -103.701785893342816, 19.267784866022794 ] ] ] ] } },
{ "type": "Feature", "properties": { "ZONA_MET": "Colima_Villa_de__lvarez", "INTENSIDAD": "Extrema", "T_PROM_POL": 5.0, "T_MIN_CIUD": 3.0, "DIF_TERMIC": 1.0 }, "geometry": { "type": "MultiPolygon", "coordinates": [ [ [ [ -103.745713510736266, 19.285841003233596 ], [ -103.745444016151026, 19.285841003233596 ], [ -103.745444016151026, 19.28557150864836 ], [ -103.745174521565787, 19.28557150864836 ], [ -103.745174521565787, 19.285302014063124 ], [ -103.744905026980547, 19.285302014063124 ], [ -103.744905026980547, 19.28557150864836 ], [ -103.744635532395321, 19.28557150864836 ], [ -103.744635532395321, 19.285032519477888 ], [ -103.744366037810082, 19.285032519477888 ], [ -103.744366037810082, 19.284493530307415 ], [ -103.744096543224842, 19.284493530307415 ], [ -103.744096543224842, 19.284224035722183 ], [ -103.743288059469137, 19.284224035722183 ], [ -103.743288059469137, 19.285032519477888 ], [ -103.742749070298672, 19.285032519477888 ], [ -103.742749070298672, 19.285302014063124 ], [ -103.742210081128192, 19.285302014063124 ], [ -103.742210081128192, 19.284763024892651 ], [ -103.741401597372487, 19.284763024892651 ], [ -103.741401597372487, 19.284493530307415 ], [ -103.741940586542952, 19.284493530307415 ], [ -103.741940586542952, 19.284224035722183 ], [ -103.743018564883897, 19.284224035722183 ], [ -103.743018564883897, 19.283954541136946 ], [ -103.743827048639602, 19.283954541136946 ], [ -103.743827048639602, 19.283415551966474 ], [ -103.743288059469137, 19.283415551966474 ], [ -103.743288059469137, 19.283146057381238 ], [ -103.743557554054377, 19.283146057381238 ], [ -103.743557554054377, 19.282607068210766 ], [ -103.743288059469137, 19.282607068210766 ], [ -103.743288059469137, 19.282337573625529 ], [ -103.744366037810082, 19.282337573625529 ], [ -103.744366037810082, 19.282607068210766 ], [ -103.744096543224842, 19.282607068210766 ], [ -103.744096543224842, 19.283146057381238 ], [ -103.744366037810082, 19.283146057381238 ], [ -103.744366037810082, 19.283415551966474 ], [ -103.745444016151026, 19.283415551966474 ], [ -103.745444016151026, 19.283146057381238 ], [ -103.746252499906731, 19.283146057381238 ], [ -103.746252499906731, 19.282876562796002 ], [ -103.747330478247676, 19.282876562796002 ], [ -103.747330478247676, 19.282607068210766 ], [ -103.747869467418141, 19.282607068210766 ], [ -103.747869467418141, 19.282337573625529 ], [ -103.748138962003381, 19.282337573625529 ], [ -103.748138962003381, 19.282068079040293 ], [ -103.748408456588621, 19.282068079040293 ], [ -103.748408456588621, 19.281798584455057 ], [ -103.74867795117386, 19.281798584455057 ], [ -103.74867795117386, 19.281529089869821 ], [ -103.748947445759086, 19.281529089869821 ], [ -103.748947445759086, 19.280990100699352 ], [ -103.749216940344326, 19.280990100699352 ], [ -103.749216940344326, 19.280181616943644 ], [ -103.749486434929565, 19.280181616943644 ], [ -103.749486434929565, 19.279912122358407 ], [ -103.749755929514791, 19.279912122358407 ], [ -103.749755929514791, 19.279103638602699 ], [ -103.75029491868527, 19.279103638602699 ], [ -103.75029491868527, 19.278564649432226 ], [ -103.75056441327051, 19.278564649432226 ], [ -103.75056441327051, 19.275061219824163 ], [ -103.750833907855736, 19.275061219824163 ], [ -103.750833907855736, 19.274791725238927 ], [ -103.751103402440975, 19.274791725238927 ], [ -103.751103402440975, 19.274252736068455 ], [ -103.751372897026215, 19.274252736068455 ], [ -103.751372897026215, 19.273444252312746 ], [ -103.751642391611455, 19.273444252312746 ], [ -103.751642391611455, 19.272635768557038 ], [ -103.75191188619668, 19.272635768557038 ], [ -103.75191188619668, 19.272366273971805 ], [ -103.75218138078192, 19.272366273971805 ], [ -103.75218138078192, 19.27128829563086 ], [ -103.75245087536716, 19.27128829563086 ], [ -103.75245087536716, 19.271018801045624 ], [ -103.75218138078192, 19.271018801045624 ], [ -103.75218138078192, 19.270749306460388 ], [ -103.75245087536716, 19.270749306460388 ], [ -103.75245087536716, 19.270479811875152 ], [ -103.75218138078192, 19.270479811875152 ], [ -103.75218138078192, 19.270210317289916 ], [ -103.752720369952385, 19.270210317289916 ], [ -103.752720369952385, 19.269401833534207 ], [ -103.752989864537625, 19.269401833534207 ], [ -103.752989864537625, 19.269132338948975 ], [ -103.753259359122865, 19.269132338948975 ], [ -103.753259359122865, 19.268593349778502 ], [ -103.753528853708104, 19.268593349778502 ], [ -103.753528853708104, 19.26805436060803 ], [ -103.75379834829333, 19.26805436060803 ], [ -103.75379834829333, 19.267515371437558 ], [ -103.75406784287857, 19.267515371437558 ], [ -103.75406784287857, 19.266976382267085 ], [ -103.754337337463809, 19.266976382267085 ], [ -103.754337337463809, 19.266706887681849 ], [ -103.754606832049049, 19.266706887681849 ], [ -103.754606832049049, 19.266437393096613 ], [ -103.754876326634275, 19.266437393096613 ], [ -103.754876326634275, 19.266976382267085 ], [ -103.754606832049049, 19.266976382267085 ], [ -103.754606832049049, 19.267245876852321 ], [ -103.754337337463809, 19.267245876852321 ], [ -103.754337337463809, 19.26805436060803 ], [ -103.75406784287857, 19.26805436060803 ], [ -103.75406784287857, 19.268593349778502 ], [ -103.75379834829333, 19.268593349778502 ], [ -103.75379834829333, 19.269132338948975 ], [ -103.75406784287857, 19.269132338948975 ], [ -103.75406784287857, 19.268862844363738 ], [ -103.754337337463809, 19.268862844363738 ], [ -103.754337337463809, 19.26994082270468 ], [ -103.75379834829333, 19.26994082270468 ], [ -103.75379834829333, 19.269671328119443 ], [ -103.753259359122865, 19.269671328119443 ], [ -103.753259359122865, 19.270210317289916 ], [ -103.752989864537625, 19.270210317289916 ], [ -103.752989864537625, 19.270749306460388 ], [ -103.752720369952385, 19.270749306460388 ], [ -103.752720369952385, 19.271557790216097 ], [ -103.75245087536716, 19.271557790216097 ], [ -103.75245087536716, 19.272366273971805 ], [ -103.752720369952385, 19.272366273971805 ], [ -103.752720369952385, 19.272905263142274 ], [ -103.75245087536716, 19.272905263142274 ], [ -103.75245087536716, 19.273444252312746 ], [ -103.752720369952385, 19.273444252312746 ], [ -103.752720369952385, 19.27317475772751 ], [ -103.752989864537625, 19.27317475772751 ], [ -103.752989864537625, 19.273983241483219 ], [ -103.752720369952385, 19.273983241483219 ], [ -103.752720369952385, 19.273713746897982 ], [ -103.75191188619668, 19.273713746897982 ], [ -103.75191188619668, 19.274252736068455 ], [ -103.751642391611455, 19.274252736068455 ], [ -103.751642391611455, 19.274522230653691 ], [ -103.751372897026215, 19.274522230653691 ], [ -103.751372897026215, 19.275061219824163 ], [ -103.751103402440975, 19.275061219824163 ], [ -103.751103402440975, 19.275330714409399 ], [ -103.751372897026215, 19.275330714409399 ], [ -103.751372897026215, 19.275600208994632 ], [ -103.751103402440975, 19.275600208994632 ], [ -103.751103402440975, 19.277217176506049 ], [ -103.751372897026215, 19.277217176506049 ], [ -103.751372897026215, 19.277486671091285 ], [ -103.751642391611455, 19.277486671091285 ], [ -103.751642391611455, 19.277756165676522 ], [ -103.75218138078192, 19.277756165676522 ], [ -103.75218138078192, 19.278025660261758 ], [ -103.75245087536716, 19.278025660261758 ], [ -103.75245087536716, 19.278295154846994 ], [ -103.75218138078192, 19.278295154846994 ], [ -103.75218138078192, 19.278564649432226 ], [ -103.75191188619668, 19.278564649432226 ], [ -103.75191188619668, 19.278834144017463 ], [ -103.751642391611455, 19.278834144017463 ], [ -103.751642391611455, 19.278564649432226 ], [ -103.750833907855736, 19.278564649432226 ], [ -103.750833907855736, 19.278834144017463 ], [ -103.75056441327051, 19.278834144017463 ], [ -103.75056441327051, 19.279642627773171 ], [ -103.75029491868527, 19.279642627773171 ], [ -103.75029491868527, 19.280181616943644 ], [ -103.750025424100031, 19.280181616943644 ], [ -103.750025424100031, 19.28045111152888 ], [ -103.749755929514791, 19.28045111152888 ], [ -103.749755929514791, 19.281259595284588 ], [ -103.749216940344326, 19.281259595284588 ], [ -103.749216940344326, 19.282068079040293 ], [ -103.748947445759086, 19.282068079040293 ], [ -103.748947445759086, 19.282337573625529 ], [ -103.74867795117386, 19.282337573625529 ], [ -103.74867795117386, 19.282607068210766 ], [ -103.748408456588621, 19.282607068210766 ], [ -103.748408456588621, 19.282876562796002 ], [ -103.747599972832916, 19.282876562796002 ], [ -103.747599972832916, 19.283146057381238 ], [ -103.747060983662436, 19.283146057381238 ], [ -103.747060983662436, 19.283415551966474 ], [ -103.746252499906731, 19.283415551966474 ], [ -103.746252499906731, 19.28368504655171 ], [ -103.745444016151026, 19.28368504655171 ], [ -103.745444016151026, 19.283954541136946 ], [ -103.745174521565787, 19.283954541136946 ], [ -103.745174521565787, 19.284224035722183 ], [ -103.745713510736266, 19.284224035722183 ], [ -103.745713510736266, 19.284493530307415 ], [ -103.745174521565787, 19.284493530307415 ], [ -103.745174521565787, 19.285032519477888 ], [ -103.745983005321492, 19.285032519477888 ], [ -103.745983005321492, 19.285302014063124 ], [ -103.745713510736266, 19.285302014063124 ], [ -103.745713510736266, 19.285841003233596 ] ], [ [ -103.742749070298672, 19.284763024892651 ], [ -103.742749070298672, 19.284493530307415 ], [ -103.742479575713432, 19.284493530307415 ], [ -103.742479575713432, 19.284763024892651 ], [ -103.742749070298672, 19.284763024892651 ] ], [ [ -103.744366037810082, 19.284224035722183 ], [ -103.744366037810082, 19.283954541136946 ], [ -103.744096543224842, 19.283954541136946 ], [ -103.744096543224842, 19.284224035722183 ], [ -103.744366037810082, 19.284224035722183 ] ], [ [ -103.75379834829333, 19.269401833534207 ], [ -103.75379834829333, 19.269132338948975 ], [ -103.753528853708104, 19.269132338948975 ], [ -103.753528853708104, 19.269401833534207 ], [ -103.75379834829333, 19.269401833534207 ] ] ] ] } },
{ "type": "Feature", "properties": { "ZONA_MET": "Colima_Villa_de__lvarez", "INTENSIDAD": "Extrema", "T_PROM_POL": 4.0, "T_MIN_CIUD": 3.0, "DIF_TERMIC": 1.0 }, "geometry": { "type": "MultiPolygon", "coordinates": [ [ [ [ -103.696126507052867, 19.266976382267085 ], [ -103.695587517882387, 19.266976382267085 ], [ -103.695587517882387, 19.266706887681849 ], [ -103.695048528711922, 19.266706887681849 ], [ -103.695048528711922, 19.266437393096613 ], [ -103.694779034126682, 19.266437393096613 ], [ -103.694779034126682, 19.265898403926144 ], [ -103.695048528711922, 19.265898403926144 ], [ -103.695048528711922, 19.26616789851138 ], [ -103.695318023297162, 19.26616789851138 ], [ -103.695318023297162, 19.265898403926144 ], [ -103.696126507052867, 19.265898403926144 ], [ -103.696126507052867, 19.266976382267085 ] ] ] ] } },
{ "type": "Feature", "properties": { "ZONA_MET": "Colima_Villa_de__lvarez", "INTENSIDAD": "Intensa", "T_PROM_POL": 4.0, "T_MIN_CIUD": 3.0, "DIF_TERMIC": 9.0 }, "geometry": { "type": "MultiPolygon", "coordinates": [ [ [ [ -103.749755929514791, 19.267784866022794 ], [ -103.749216940344326, 19.267784866022794 ], [ -103.749216940344326, 19.267515371437558 ], [ -103.749486434929565, 19.267515371437558 ], [ -103.749486434929565, 19.267245876852321 ], [ -103.749216940344326, 19.267245876852321 ], [ -103.749216940344326, 19.266706887681849 ], [ -103.74867795117386, 19.266706887681849 ], [ -103.74867795117386, 19.266437393096613 ], [ -103.748408456588621, 19.266437393096613 ], [ -103.748408456588621, 19.26616789851138 ], [ -103.748138962003381, 19.26616789851138 ], [ -103.748138962003381, 19.265898403926144 ], [ -103.747599972832916, 19.265898403926144 ], [ -103.747599972832916, 19.265628909340908 ], [ -103.749216940344326, 19.265628909340908 ], [ -103.749216940344326, 19.265898403926144 ], [ -103.749755929514791, 19.265898403926144 ], [ -103.749755929514791, 19.266706887681849 ], [ -103.750025424100031, 19.266706887681849 ], [ -103.750025424100031, 19.267245876852321 ], [ -103.749755929514791, 19.267245876852321 ], [ -103.749755929514791, 19.267784866022794 ] ], [ [ -103.74867795117386, 19.26616789851138 ], [ -103.74867795117386, 19.265898403926144 ], [ -103.748408456588621, 19.265898403926144 ], [ -103.748408456588621, 19.26616789851138 ], [ -103.74867795117386, 19.26616789851138 ] ] ] ] } },
{ "type": "Feature", "properties": { "ZONA_MET": "Colima_Villa_de__lvarez", "INTENSIDAD": "Intensa", "T_PROM_POL": 4.0, "T_MIN_CIUD": 3.0, "DIF_TERMIC": 9.0 }, "geometry": { "type": "MultiPolygon", "coordinates": [ [ [ [ -103.697204485393812, 19.267245876852321 ], [ -103.696934990808572, 19.267245876852321 ], [ -103.696934990808572, 19.266976382267085 ], [ -103.696396001638092, 19.266976382267085 ], [ -103.696396001638092, 19.267245876852321 ], [ -103.695857012467627, 19.267245876852321 ], [ -103.695857012467627, 19.266976382267085 ], [ -103.696126507052867, 19.266976382267085 ], [ -103.696126507052867, 19.265898403926144 ], [ -103.696665496223332, 19.265898403926144 ], [ -103.696665496223332, 19.265628909340908 ], [ -103.697204485393812, 19.265628909340908 ], [ -103.697204485393812, 19.266437393096613 ], [ -103.696934990808572, 19.266437393096613 ], [ -103.696934990808572, 19.266706887681849 ], [ -103.697204485393812, 19.266706887681849 ], [ -103.697204485393812, 19.267245876852321 ] ] ] ] } },
{ "type": "Feature", "properties": { "ZONA_MET": "Colima_Villa_de__lvarez", "INTENSIDAD": "Intensa", "T_PROM_POL": 4.0, "T_MIN_CIUD": 3.0, "DIF_TERMIC": 9.0 }, "geometry": { "type": "MultiPolygon", "coordinates": [ [ [ [ -103.699629936660926, 19.269401833534207 ], [ -103.699090947490461, 19.269401833534207 ], [ -103.699090947490461, 19.269132338948975 ], [ -103.698551958319982, 19.269132338948975 ], [ -103.698551958319982, 19.268593349778502 ], [ -103.699360442075687, 19.268593349778502 ], [ -103.699360442075687, 19.267245876852321 ], [ -103.699090947490461, 19.267245876852321 ], [ -103.699090947490461, 19.266976382267085 ], [ -103.698821452905221, 19.266976382267085 ], [ -103.698821452905221, 19.266706887681849 ], [ -103.698551958319982, 19.266706887681849 ], [ -103.698551958319982, 19.266976382267085 ], [ -103.698282463734756, 19.266976382267085 ], [ -103.698282463734756, 19.266437393096613 ], [ -103.697743474564277, 19.266437393096613 ], [ -103.697743474564277, 19.265898403926144 ], [ -103.697473979979037, 19.265898403926144 ], [ -103.697473979979037, 19.265628909340908 ], [ -103.698012969149516, 19.265628909340908 ], [ -103.698012969149516, 19.265359414755672 ], [ -103.698282463734756, 19.265359414755672 ], [ -103.698282463734756, 19.265898403926144 ], [ -103.698551958319982, 19.265898403926144 ], [ -103.698551958319982, 19.265628909340908 ], [ -103.698821452905221, 19.265628909340908 ], [ -103.698821452905221, 19.265898403926144 ], [ -103.699629936660926, 19.265898403926144 ], [ -103.699629936660926, 19.26616789851138 ], [ -103.699090947490461, 19.26616789851138 ], [ -103.699090947490461, 19.266437393096613 ], [ -103.699899431246166, 19.266437393096613 ], [ -103.699899431246166, 19.265898403926144 ], [ -103.700168925831406, 19.265898403926144 ], [ -103.700168925831406, 19.266437393096613 ], [ -103.700438420416631, 19.266437393096613 ], [ -103.700438420416631, 19.266706887681849 ], [ -103.700707915001871, 19.266706887681849 ], [ -103.700707915001871, 19.266437393096613 ], [ -103.700977409587111, 19.266437393096613 ], [ -103.700977409587111, 19.266706887681849 ], [ -103.701246904172351, 19.266706887681849 ], [ -103.701246904172351, 19.266976382267085 ], [ -103.699899431246166, 19.266976382267085 ], [ -103.699899431246166, 19.267245876852321 ], [ -103.700168925831406, 19.267245876852321 ], [ -103.700168925831406, 19.267784866022794 ], [ -103.699899431246166, 19.267784866022794 ], [ -103.699899431246166, 19.268323855193266 ], [ -103.699629936660926, 19.268323855193266 ], [ -103.699629936660926, 19.269401833534207 ] ] ] ] } },
{ "type": "Feature", "properties": { "ZONA_MET": "Colima_Villa_de__lvarez", "INTENSIDAD": "Extrema", "T_PROM_POL": 5.0, "T_MIN_CIUD": 3.0, "DIF_TERMIC": 1.0 }, "geometry": { "type": "MultiPolygon", "coordinates": [ [ [ [ -103.694779034126682, 19.265359414755672 ], [ -103.694240044956217, 19.265359414755672 ], [ -103.694240044956217, 19.264820425585199 ], [ -103.694509539541443, 19.264820425585199 ], [ -103.694509539541443, 19.264281436414727 ], [ -103.694779034126682, 19.264281436414727 ], [ -103.694779034126682, 19.264011941829491 ], [ -103.695048528711922, 19.264011941829491 ], [ -103.695048528711922, 19.263472952659018 ], [ -103.695587517882387, 19.263472952659018 ], [ -103.695587517882387, 19.263742447244255 ], [ -103.695857012467627, 19.263742447244255 ], [ -103.695857012467627, 19.264011941829491 ], [ -103.696665496223332, 19.264011941829491 ], [ -103.696665496223332, 19.264281436414727 ], [ -103.696396001638092, 19.264281436414727 ], [ -103.696396001638092, 19.264550930999963 ], [ -103.696934990808572, 19.264550930999963 ], [ -103.696934990808572, 19.265089920170436 ], [ -103.696126507052867, 19.265089920170436 ], [ -103.696126507052867, 19.264550930999963 ], [ -103.695587517882387, 19.264550930999963 ], [ -103.695587517882387, 19.264281436414727 ], [ -103.695318023297162, 19.264281436414727 ], [ -103.695318023297162, 19.264550930999963 ], [ -103.695048528711922, 19.264550930999963 ], [ -103.695048528711922, 19.265089920170436 ], [ -103.694779034126682, 19.265089920170436 ], [ -103.694779034126682, 19.265359414755672 ] ] ] ] } },
{ "type": "Feature", "properties": { "ZONA_MET": "Colima_Villa_de__lvarez", "INTENSIDAD": "Intensa", "T_PROM_POL": 4.0, "T_MIN_CIUD": 3.0, "DIF_TERMIC": 9.0 }, "geometry": { "type": "MultiPolygon", "coordinates": [ [ [ [ -103.757571272486643, 19.264281436414727 ], [ -103.757032283316164, 19.264281436414727 ], [ -103.757032283316164, 19.264011941829491 ], [ -103.756493294145699, 19.264011941829491 ], [ -103.756493294145699, 19.263472952659018 ], [ -103.756762788730924, 19.263472952659018 ], [ -103.756762788730924, 19.263742447244255 ], [ -103.757032283316164, 19.263742447244255 ], [ -103.757032283316164, 19.26293396348855 ], [ -103.757301777901404, 19.26293396348855 ], [ -103.757301777901404, 19.262664468903314 ], [ -103.757840767071869, 19.262664468903314 ], [ -103.757840767071869, 19.26293396348855 ], [ -103.757571272486643, 19.26293396348855 ], [ -103.757571272486643, 19.263472952659018 ], [ -103.757301777901404, 19.263472952659018 ], [ -103.757301777901404, 19.264011941829491 ], [ -103.757571272486643, 19.264011941829491 ], [ -103.757571272486643, 19.264281436414727 ] ] ] ] } },
{ "type": "Feature", "properties": { "ZONA_MET": "Colima_Villa_de__lvarez", "INTENSIDAD": "Intensa", "T_PROM_POL": 4.0, "T_MIN_CIUD": 3.0, "DIF_TERMIC": 9.0 }, "geometry": { "type": "MultiPolygon", "coordinates": [ [ [ [ -103.755954304975219, 19.265089920170436 ], [ -103.755415315804754, 19.265089920170436 ], [ -103.755415315804754, 19.264820425585199 ], [ -103.75568481038998, 19.264820425585199 ], [ -103.75568481038998, 19.264550930999963 ], [ -103.755954304975219, 19.264550930999963 ], [ -103.755954304975219, 19.264281436414727 ], [ -103.75568481038998, 19.264281436414727 ], [ -103.75568481038998, 19.264011941829491 ], [ -103.755415315804754, 19.264011941829491 ], [ -103.755415315804754, 19.263742447244255 ], [ -103.755145821219514, 19.263742447244255 ], [ -103.755145821219514, 19.263472952659018 ], [ -103.755415315804754, 19.263472952659018 ], [ -103.755415315804754, 19.263203458073786 ], [ -103.754876326634275, 19.263203458073786 ], [ -103.754876326634275, 19.262664468903314 ], [ -103.754606832049049, 19.262664468903314 ], [ -103.754606832049049, 19.262394974318077 ], [ -103.755145821219514, 19.262394974318077 ], [ -103.755145821219514, 19.262664468903314 ], [ -103.755415315804754, 19.262664468903314 ], [ -103.755415315804754, 19.26293396348855 ], [ -103.75568481038998, 19.26293396348855 ], [ -103.75568481038998, 19.263203458073786 ], [ -103.755954304975219, 19.263203458073786 ], [ -103.755954304975219, 19.26293396348855 ], [ -103.756223799560459, 19.26293396348855 ], [ -103.756223799560459, 19.263472952659018 ], [ -103.755954304975219, 19.263472952659018 ], [ -103.755954304975219, 19.263742447244255 ], [ -103.756223799560459, 19.263742447244255 ], [ -103.756223799560459, 19.264820425585199 ], [ -103.755954304975219, 19.264820425585199 ], [ -103.755954304975219, 19.265089920170436 ] ] ] ] } },
{ "type": "Feature", "properties": { "ZONA_MET": "Colima_Villa_de__lvarez", "INTENSIDAD": "Extrema", "T_PROM_POL": 4.0, "T_MIN_CIUD": 3.0, "DIF_TERMIC": 1.0 }, "geometry": { "type": "MultiPolygon", "coordinates": [ [ [ [ -103.757840767071869, 19.262664468903314 ], [ -103.757301777901404, 19.262664468903314 ], [ -103.757301777901404, 19.262394974318077 ], [ -103.757032283316164, 19.262394974318077 ], [ -103.757032283316164, 19.262664468903314 ], [ -103.756223799560459, 19.262664468903314 ], [ -103.756223799560459, 19.262125479732841 ], [ -103.756493294145699, 19.262125479732841 ], [ -103.756493294145699, 19.261855985147605 ], [ -103.756762788730924, 19.261855985147605 ], [ -103.756762788730924, 19.261586490562369 ], [ -103.757032283316164, 19.261586490562369 ], [ -103.757032283316164, 19.261316995977133 ], [ -103.757301777901404, 19.261316995977133 ], [ -103.757301777901404, 19.261047501391896 ], [ -103.758110261657109, 19.261047501391896 ], [ -103.758110261657109, 19.261316995977133 ], [ -103.758379756242348, 19.261316995977133 ], [ -103.758379756242348, 19.261586490562369 ], [ -103.757571272486643, 19.261586490562369 ], [ -103.757571272486643, 19.262394974318077 ], [ -103.757840767071869, 19.262394974318077 ], [ -103.757840767071869, 19.262664468903314 ] ], [ [ -103.757032283316164, 19.262125479732841 ], [ -103.757032283316164, 19.261855985147605 ], [ -103.756762788730924, 19.261855985147605 ], [ -103.756762788730924, 19.262125479732841 ], [ -103.757032283316164, 19.262125479732841 ] ] ] ] } },
{ "type": "Feature", "properties": { "ZONA_MET": "Colima_Villa_de__lvarez", "INTENSIDAD": "Intensa", "T_PROM_POL": 4.0, "T_MIN_CIUD": 3.0, "DIF_TERMIC": 9.0 }, "geometry": { "type": "MultiPolygon", "coordinates": [ [ [ [ -103.682921272376305, 19.261586490562369 ], [ -103.682651777791065, 19.261586490562369 ], [ -103.682651777791065, 19.261316995977133 ], [ -103.68238228320584, 19.261316995977133 ], [ -103.68238228320584, 19.261047501391896 ], [ -103.6821127886206, 19.261047501391896 ], [ -103.6821127886206, 19.26077800680666 ], [ -103.68238228320584, 19.26077800680666 ], [ -103.68238228320584, 19.260239017636192 ], [ -103.682921272376305, 19.260239017636192 ], [ -103.682921272376305, 19.259700028465719 ], [ -103.683190766961545, 19.259700028465719 ], [ -103.683190766961545, 19.259430533880483 ], [ -103.683460261546784, 19.259430533880483 ], [ -103.683460261546784, 19.259969523050955 ], [ -103.684268745302489, 19.259969523050955 ], [ -103.684268745302489, 19.26077800680666 ], [ -103.68399925071725, 19.26077800680666 ], [ -103.68399925071725, 19.260508512221424 ], [ -103.683190766961545, 19.260508512221424 ], [ -103.683190766961545, 19.26077800680666 ], [ -103.682651777791065, 19.26077800680666 ], [ -103.682651777791065, 19.261047501391896 ], [ -103.682921272376305, 19.261047501391896 ], [ -103.682921272376305, 19.261586490562369 ] ] ] ] } },
{ "type": "Feature", "properties": { "ZONA_MET": "Colima_Villa_de__lvarez", "INTENSIDAD": "Intensa", "T_PROM_POL": 4.0, "T_MIN_CIUD": 3.0, "DIF_TERMIC": 9.0 }, "geometry": { "type": "MultiPolygon", "coordinates": [ [ [ [ -103.758918745412814, 19.261855985147605 ], [ -103.758649250827574, 19.261855985147605 ], [ -103.758649250827574, 19.261586490562369 ], [ -103.758379756242348, 19.261586490562369 ], [ -103.758379756242348, 19.261316995977133 ], [ -103.758110261657109, 19.261316995977133 ], [ -103.758110261657109, 19.261047501391896 ], [ -103.757571272486643, 19.261047501391896 ], [ -103.757571272486643, 19.26077800680666 ], [ -103.757301777901404, 19.26077800680666 ], [ -103.757301777901404, 19.259700028465719 ], [ -103.757571272486643, 19.259700028465719 ], [ -103.757571272486643, 19.259969523050955 ], [ -103.757840767071869, 19.259969523050955 ], [ -103.757840767071869, 19.259700028465719 ], [ -103.758110261657109, 19.259700028465719 ], [ -103.758110261657109, 19.258891544710011 ], [ -103.758379756242348, 19.258891544710011 ], [ -103.758379756242348, 19.259161039295247 ], [ -103.758918745412814, 19.259161039295247 ], [ -103.758918745412814, 19.259700028465719 ], [ -103.758649250827574, 19.259700028465719 ], [ -103.758649250827574, 19.259430533880483 ], [ -103.758379756242348, 19.259430533880483 ], [ -103.758379756242348, 19.260239017636192 ], [ -103.758918745412814, 19.260239017636192 ], [ -103.758918745412814, 19.26077800680666 ], [ -103.758649250827574, 19.26077800680666 ], [ -103.758649250827574, 19.261316995977133 ], [ -103.758918745412814, 19.261316995977133 ], [ -103.758918745412814, 19.261855985147605 ] ], [ [ -103.758379756242348, 19.261047501391896 ], [ -103.758379756242348, 19.26077800680666 ], [ -103.758110261657109, 19.26077800680666 ], [ -103.758110261657109, 19.261047501391896 ], [ -103.758379756242348, 19.261047501391896 ] ] ] ] } },
{ "type": "Feature", "properties": { "ZONA_MET": "Colima_Villa_de__lvarez", "INTENSIDAD": "Intensa", "T_PROM_POL": 4.0, "T_MIN_CIUD": 3.0, "DIF_TERMIC": 9.0 }, "geometry": { "type": "MultiPolygon", "coordinates": [ [ [ [ -103.690736615348143, 19.259700028465719 ], [ -103.690197626177678, 19.259700028465719 ], [ -103.690197626177678, 19.259430533880483 ], [ -103.688850153251494, 19.259430533880483 ], [ -103.688850153251494, 19.259161039295247 ], [ -103.688041669495789, 19.259161039295247 ], [ -103.688041669495789, 19.258083060954302 ], [ -103.688850153251494, 19.258083060954302 ], [ -103.688850153251494, 19.257005082613361 ], [ -103.689928131592438, 19.257005082613361 ], [ -103.689928131592438, 19.257274577198597 ], [ -103.690197626177678, 19.257274577198597 ], [ -103.690197626177678, 19.25754407178383 ], [ -103.689658637007199, 19.25754407178383 ], [ -103.689658637007199, 19.257813566369066 ], [ -103.690197626177678, 19.257813566369066 ], [ -103.690197626177678, 19.258352555539538 ], [ -103.689658637007199, 19.258352555539538 ], [ -103.689658637007199, 19.258622050124774 ], [ -103.690467120762918, 19.258622050124774 ], [ -103.690467120762918, 19.258352555539538 ], [ -103.690736615348143, 19.258352555539538 ], [ -103.690736615348143, 19.258622050124774 ], [ -103.691006109933383, 19.258622050124774 ], [ -103.691006109933383, 19.258891544710011 ], [ -103.690736615348143, 19.258891544710011 ], [ -103.690736615348143, 19.259700028465719 ] ], [ [ -103.688850153251494, 19.258622050124774 ], [ -103.688850153251494, 19.258352555539538 ], [ -103.688580658666254, 19.258352555539538 ], [ -103.688580658666254, 19.258622050124774 ], [ -103.688850153251494, 19.258622050124774 ] ], [ [ -103.689658637007199, 19.258083060954302 ], [ -103.689658637007199, 19.257813566369066 ], [ -103.689389142421973, 19.257813566369066 ], [ -103.689389142421973, 19.258083060954302 ], [ -103.689658637007199, 19.258083060954302 ] ] ] ] } },
{ "type": "Feature", "properties": { "ZONA_MET": "Colima_Villa_de__lvarez", "INTENSIDAD": "Intensa", "T_PROM_POL": 4.0, "T_MIN_CIUD": 3.0, "DIF_TERMIC": 9.0 }, "geometry": { "type": "MultiPolygon", "coordinates": [ [ [ [ -103.715799611775083, 19.257274577198597 ], [ -103.714991128019378, 19.257274577198597 ], [ -103.714991128019378, 19.256735588028125 ], [ -103.714721633434138, 19.256735588028125 ], [ -103.714721633434138, 19.256466093442889 ], [ -103.714991128019378, 19.256466093442889 ], [ -103.714991128019378, 19.256196598857652 ], [ -103.715530117189843, 19.256196598857652 ], [ -103.715530117189843, 19.256466093442889 ], [ -103.716069106360322, 19.256466093442889 ], [ -103.716069106360322, 19.257005082613361 ], [ -103.715799611775083, 19.257005082613361 ], [ -103.715799611775083, 19.257274577198597 ] ] ] ] } },
{ "type": "Feature", "properties": { "ZONA_MET": "Colima_Villa_de__lvarez", "INTENSIDAD": "Intensa", "T_PROM_POL": 4.0, "T_MIN_CIUD": 3.0, "DIF_TERMIC": 9.0 }, "geometry": { "type": "MultiPolygon", "coordinates": [ [ [ [ -103.68399925071725, 19.259430533880483 ], [ -103.683460261546784, 19.259430533880483 ], [ -103.683460261546784, 19.258891544710011 ], [ -103.68372975613201, 19.258891544710011 ], [ -103.68372975613201, 19.258083060954302 ], [ -103.68399925071725, 19.258083060954302 ], [ -103.68399925071725, 19.25754407178383 ], [ -103.684268745302489, 19.25754407178383 ], [ -103.684268745302489, 19.257274577198597 ], [ -103.684538239887729, 19.257274577198597 ], [ -103.684538239887729, 19.256735588028125 ], [ -103.684268745302489, 19.256735588028125 ], [ -103.684268745302489, 19.256466093442889 ], [ -103.685077229058194, 19.256466093442889 ], [ -103.685077229058194, 19.256735588028125 ], [ -103.685346723643434, 19.256735588028125 ], [ -103.685346723643434, 19.256196598857652 ], [ -103.685885712813899, 19.256196598857652 ], [ -103.685885712813899, 19.256466093442889 ], [ -103.68561621822866, 19.256466093442889 ], [ -103.68561621822866, 19.257005082613361 ], [ -103.685077229058194, 19.257005082613361 ], [ -103.685077229058194, 19.257274577198597 ], [ -103.684807734472955, 19.257274577198597 ], [ -103.684807734472955, 19.25754407178383 ], [ -103.684538239887729, 19.25754407178383 ], [ -103.684538239887729, 19.258083060954302 ], [ -103.684268745302489, 19.258083060954302 ], [ -103.684268745302489, 19.258622050124774 ], [ -103.68399925071725, 19.258622050124774 ], [ -103.68399925071725, 19.259430533880483 ] ] ] ] } },
{ "type": "Feature", "properties": { "ZONA_MET": "Colima_Villa_de__lvarez", "INTENSIDAD": "Intensa", "T_PROM_POL": 4.0, "T_MIN_CIUD": 3.0, "DIF_TERMIC": 8.0 }, "geometry": { "type": "MultiPolygon", "coordinates": [ [ [ [ -103.743557554054377, 19.256196598857652 ], [ -103.743018564883897, 19.256196598857652 ], [ -103.743018564883897, 19.25565760968718 ], [ -103.742749070298672, 19.25565760968718 ], [ -103.742749070298672, 19.255388115101944 ], [ -103.743288059469137, 19.255388115101944 ], [ -103.743288059469137, 19.255118620516708 ], [ -103.743557554054377, 19.255118620516708 ], [ -103.743557554054377, 19.254040642175767 ], [ -103.743827048639602, 19.254040642175767 ], [ -103.743827048639602, 19.254310136761003 ], [ -103.744096543224842, 19.254310136761003 ], [ -103.744096543224842, 19.254849125931472 ], [ -103.743827048639602, 19.254849125931472 ], [ -103.743827048639602, 19.255118620516708 ], [ -103.744096543224842, 19.255118620516708 ], [ -103.744096543224842, 19.25565760968718 ], [ -103.743827048639602, 19.25565760968718 ], [ -103.743827048639602, 19.255927104272416 ], [ -103.743557554054377, 19.255927104272416 ], [ -103.743557554054377, 19.256196598857652 ] ] ] ] } },
{ "type": "Feature", "properties": { "ZONA_MET": "Colima_Villa_de__lvarez", "INTENSIDAD": "Intensa", "T_PROM_POL": 4.0, "T_MIN_CIUD": 3.0, "DIF_TERMIC": 9.0 }, "geometry": { "type": "MultiPolygon", "coordinates": [ [ [ [ -103.759996723753758, 19.255927104272416 ], [ -103.759727229168519, 19.255927104272416 ], [ -103.759727229168519, 19.255118620516708 ], [ -103.759996723753758, 19.255118620516708 ], [ -103.759996723753758, 19.254579631346235 ], [ -103.760266218338998, 19.254579631346235 ], [ -103.760266218338998, 19.25377114759053 ], [ -103.760535712924238, 19.25377114759053 ], [ -103.760535712924238, 19.253501653005294 ], [ -103.760805207509463, 19.253501653005294 ], [ -103.760805207509463, 19.254310136761003 ], [ -103.760535712924238, 19.254310136761003 ], [ -103.760535712924238, 19.254849125931472 ], [ -103.760266218338998, 19.254849125931472 ], [ -103.760266218338998, 19.255388115101944 ], [ -103.759996723753758, 19.255388115101944 ], [ -103.759996723753758, 19.255927104272416 ] ] ] ] } },
{ "type": "Feature", "properties": { "ZONA_MET": "Colima_Villa_de__lvarez", "INTENSIDAD": "Intensa", "T_PROM_POL": 4.0, "T_MIN_CIUD": 3.0, "DIF_TERMIC": 9.0 }, "geometry": { "type": "MultiPolygon", "coordinates": [ [ [ [ -103.761074702094703, 19.253501653005294 ], [ -103.760805207509463, 19.253501653005294 ], [ -103.760805207509463, 19.25242367466435 ], [ -103.761074702094703, 19.25242367466435 ], [ -103.761074702094703, 19.251884685493877 ], [ -103.761344196679943, 19.251884685493877 ], [ -103.761344196679943, 19.251615190908641 ], [ -103.761883185850408, 19.251615190908641 ], [ -103.761883185850408, 19.251884685493877 ], [ -103.762152680435648, 19.251884685493877 ], [ -103.762152680435648, 19.252154180079113 ], [ -103.761883185850408, 19.252154180079113 ], [ -103.761883185850408, 19.252693169249586 ], [ -103.761074702094703, 19.252693169249586 ], [ -103.761074702094703, 19.253501653005294 ] ] ] ] } },
{ "type": "Feature", "properties": { "ZONA_MET": "Colima_Villa_de__lvarez", "INTENSIDAD": "Intensa", "T_PROM_POL": 4.0, "T_MIN_CIUD": 3.0, "DIF_TERMIC": 9.0 }, "geometry": { "type": "MultiPolygon", "coordinates": [ [ [ [ -103.693701055785738, 19.252962663834822 ], [ -103.693162066615272, 19.252962663834822 ], [ -103.693162066615272, 19.252693169249586 ], [ -103.692892572030033, 19.252693169249586 ], [ -103.692892572030033, 19.25242367466435 ], [ -103.693162066615272, 19.25242367466435 ], [ -103.693162066615272, 19.252154180079113 ], [ -103.692892572030033, 19.252154180079113 ], [ -103.692892572030033, 19.251884685493877 ], [ -103.692623077444793, 19.251884685493877 ], [ -103.692623077444793, 19.251615190908641 ], [ -103.692353582859567, 19.251615190908641 ], [ -103.692353582859567, 19.251884685493877 ], [ -103.692084088274328, 19.251884685493877 ], [ -103.692084088274328, 19.251615190908641 ], [ -103.691814593689088, 19.251615190908641 ], [ -103.691814593689088, 19.251884685493877 ], [ -103.691545099103848, 19.251884685493877 ], [ -103.691545099103848, 19.252154180079113 ], [ -103.691275604518623, 19.252154180079113 ], [ -103.691275604518623, 19.25242367466435 ], [ -103.691006109933383, 19.25242367466435 ], [ -103.691006109933383, 19.251076201738172 ], [ -103.691545099103848, 19.251076201738172 ], [ -103.691545099103848, 19.251345696323405 ], [ -103.691814593689088, 19.251345696323405 ], [ -103.691814593689088, 19.251076201738172 ], [ -103.692353582859567, 19.251076201738172 ], [ -103.692353582859567, 19.250806707152936 ], [ -103.692623077444793, 19.250806707152936 ], [ -103.692623077444793, 19.2505372125677 ], [ -103.692892572030033, 19.2505372125677 ], [ -103.692892572030033, 19.250267717982464 ], [ -103.693431561200498, 19.250267717982464 ], [ -103.693431561200498, 19.2505372125677 ], [ -103.693162066615272, 19.2505372125677 ], [ -103.693162066615272, 19.250806707152936 ], [ -103.692892572030033, 19.250806707152936 ], [ -103.692892572030033, 19.251615190908641 ], [ -103.693162066615272, 19.251615190908641 ], [ -103.693162066615272, 19.251884685493877 ], [ -103.693701055785738, 19.251884685493877 ], [ -103.693701055785738, 19.252154180079113 ], [ -103.694240044956217, 19.252154180079113 ], [ -103.694240044956217, 19.252693169249586 ], [ -103.693701055785738, 19.252693169249586 ], [ -103.693701055785738, 19.252962663834822 ] ] ] ] } },
{ "type": "Feature", "properties": { "ZONA_MET": "Colima_Villa_de__lvarez", "INTENSIDAD": "Intensa", "T_PROM_POL": 4.0, "T_MIN_CIUD": 3.0, "DIF_TERMIC": 9.0 }, "geometry": { "type": "MultiPolygon", "coordinates": [ [ [ [ -103.762691669606113, 19.250267717982464 ], [ -103.762152680435648, 19.250267717982464 ], [ -103.762152680435648, 19.249998223397228 ], [ -103.762422175020887, 19.249998223397228 ], [ -103.762422175020887, 19.249459234226755 ], [ -103.762152680435648, 19.249459234226755 ], [ -103.762152680435648, 19.249189739641519 ], [ -103.761883185850408, 19.249189739641519 ], [ -103.761883185850408, 19.248650750471047 ], [ -103.762152680435648, 19.248650750471047 ], [ -103.762152680435648, 19.248920245056283 ], [ -103.762691669606113, 19.248920245056283 ], [ -103.762691669606113, 19.249459234226755 ], [ -103.762961164191353, 19.249459234226755 ], [ -103.762961164191353, 19.249998223397228 ], [ -103.762691669606113, 19.249998223397228 ], [ -103.762691669606113, 19.250267717982464 ] ] ] ] } },
{ "type": "Feature", "properties": { "ZONA_MET": "Colima_Villa_de__lvarez", "INTENSIDAD": "Extrema", "T_PROM_POL": 5.0, "T_MIN_CIUD": 3.0, "DIF_TERMIC": 1.0 }, "geometry": { "type": "MultiPolygon", "coordinates": [ [ [ [ -103.702594377098521, 19.249728728811991 ], [ -103.702055387928056, 19.249728728811991 ], [ -103.702055387928056, 19.249459234226755 ], [ -103.701785893342816, 19.249459234226755 ], [ -103.701785893342816, 19.248650750471047 ], [ -103.702055387928056, 19.248650750471047 ], [ -103.702055387928056, 19.248920245056283 ], [ -103.702324882513281, 19.248920245056283 ], [ -103.702324882513281, 19.248650750471047 ], [ -103.702863871683761, 19.248650750471047 ], [ -103.702863871683761, 19.248920245056283 ], [ -103.703402860854226, 19.248920245056283 ], [ -103.703402860854226, 19.249459234226755 ], [ -103.702594377098521, 19.249459234226755 ], [ -103.702594377098521, 19.249728728811991 ] ] ] ] } },
{ "type": "Feature", "properties": { "ZONA_MET": "Colima_Villa_de__lvarez", "INTENSIDAD": "Extrema", "T_PROM_POL": 4.0, "T_MIN_CIUD": 3.0, "DIF_TERMIC": 1.0 }, "geometry": { "type": "MultiPolygon", "coordinates": [ [ [ [ -103.761613691265168, 19.248381255885811 ], [ -103.761344196679943, 19.248381255885811 ], [ -103.761344196679943, 19.248111761300578 ], [ -103.760805207509463, 19.248111761300578 ], [ -103.760805207509463, 19.247842266715342 ], [ -103.760535712924238, 19.247842266715342 ], [ -103.760535712924238, 19.247033782959633 ], [ -103.761074702094703, 19.247033782959633 ], [ -103.761074702094703, 19.247572772130106 ], [ -103.761613691265168, 19.247572772130106 ], [ -103.761613691265168, 19.248381255885811 ] ] ] ] } },
{ "type": "Feature", "properties": { "ZONA_MET": "Colima_Villa_de__lvarez", "INTENSIDAD": "Intensa", "T_PROM_POL": 4.0, "T_MIN_CIUD": 3.0, "DIF_TERMIC": 9.0 }, "geometry": { "type": "MultiPolygon", "coordinates": [ [ [ [ -103.760535712924238, 19.247842266715342 ], [ -103.759996723753758, 19.247842266715342 ], [ -103.759996723753758, 19.247303277544869 ], [ -103.760266218338998, 19.247303277544869 ], [ -103.760266218338998, 19.247033782959633 ], [ -103.759996723753758, 19.247033782959633 ], [ -103.759996723753758, 19.246764288374397 ], [ -103.759727229168519, 19.246764288374397 ], [ -103.759727229168519, 19.246494793789161 ], [ -103.759457734583293, 19.246494793789161 ], [ -103.759457734583293, 19.245955804618688 ], [ -103.758649250827574, 19.245955804618688 ], [ -103.758649250827574, 19.245686310033452 ], [ -103.758379756242348, 19.245686310033452 ], [ -103.758379756242348, 19.245416815448216 ], [ -103.758918745412814, 19.245416815448216 ], [ -103.758918745412814, 19.245686310033452 ], [ -103.759188239998053, 19.245686310033452 ], [ -103.759188239998053, 19.245416815448216 ], [ -103.759727229168519, 19.245416815448216 ], [ -103.759727229168519, 19.245686310033452 ], [ -103.759996723753758, 19.245686310033452 ], [ -103.759996723753758, 19.246225299203925 ], [ -103.760535712924238, 19.246225299203925 ], [ -103.760535712924238, 19.246494793789161 ], [ -103.761074702094703, 19.246494793789161 ], [ -103.761074702094703, 19.246764288374397 ], [ -103.760535712924238, 19.246764288374397 ], [ -103.760535712924238, 19.247842266715342 ] ] ] ] } },
{ "type": "Feature", "properties": { "ZONA_MET": "Colima_Villa_de__lvarez", "INTENSIDAD": "Intensa", "T_PROM_POL": 4.0, "T_MIN_CIUD": 3.0, "DIF_TERMIC": 9.0 }, "geometry": { "type": "MultiPolygon", "coordinates": [ [ [ [ -103.759188239998053, 19.245416815448216 ], [ -103.758918745412814, 19.245416815448216 ], [ -103.758918745412814, 19.245147320862984 ], [ -103.758379756242348, 19.245147320862984 ], [ -103.758379756242348, 19.245416815448216 ], [ -103.758110261657109, 19.245416815448216 ], [ -103.758110261657109, 19.245147320862984 ], [ -103.757840767071869, 19.245147320862984 ], [ -103.757840767071869, 19.244877826277747 ], [ -103.757571272486643, 19.244877826277747 ], [ -103.757571272486643, 19.244608331692511 ], [ -103.757840767071869, 19.244608331692511 ], [ -103.757840767071869, 19.243799847936803 ], [ -103.757301777901404, 19.243799847936803 ], [ -103.757301777901404, 19.243530353351566 ], [ -103.757032283316164, 19.243530353351566 ], [ -103.757032283316164, 19.24326085876633 ], [ -103.756762788730924, 19.24326085876633 ], [ -103.756762788730924, 19.242991364181094 ], [ -103.757301777901404, 19.242991364181094 ], [ -103.757301777901404, 19.24326085876633 ], [ -103.757840767071869, 19.24326085876633 ], [ -103.757840767071869, 19.243530353351566 ], [ -103.758110261657109, 19.243530353351566 ], [ -103.758110261657109, 19.243799847936803 ], [ -103.758379756242348, 19.243799847936803 ], [ -103.758379756242348, 19.244608331692511 ], [ -103.758649250827574, 19.244608331692511 ], [ -103.758649250827574, 19.244877826277747 ], [ -103.759188239998053, 19.244877826277747 ], [ -103.759188239998053, 19.245416815448216 ] ], [ [ -103.758379756242348, 19.244877826277747 ], [ -103.758379756242348, 19.244608331692511 ], [ -103.758110261657109, 19.244608331692511 ], [ -103.758110261657109, 19.244877826277747 ], [ -103.758379756242348, 19.244877826277747 ] ] ] ] } },
{ "type": "Feature", "properties": { "ZONA_MET": "Colima_Villa_de__lvarez", "INTENSIDAD": "Intensa", "T_PROM_POL": 4.0, "T_MIN_CIUD": 3.0, "DIF_TERMIC": 9.0 }, "geometry": { "type": "MultiPolygon", "coordinates": [ [ [ [ -103.773740947600785, 19.244338837107275 ], [ -103.773471453015546, 19.244338837107275 ], [ -103.773471453015546, 19.244069342522039 ], [ -103.77320195843032, 19.244069342522039 ], [ -103.77320195843032, 19.243799847936803 ], [ -103.773471453015546, 19.243799847936803 ], [ -103.773471453015546, 19.243530353351566 ], [ -103.773740947600785, 19.243530353351566 ], [ -103.773740947600785, 19.242452375010622 ], [ -103.774279936771265, 19.242452375010622 ], [ -103.774279936771265, 19.242721869595858 ], [ -103.774010442186025, 19.242721869595858 ], [ -103.774010442186025, 19.24326085876633 ], [ -103.774279936771265, 19.24326085876633 ], [ -103.774279936771265, 19.243530353351566 ], [ -103.77481892594173, 19.243530353351566 ], [ -103.77481892594173, 19.243799847936803 ], [ -103.773740947600785, 19.243799847936803 ], [ -103.773740947600785, 19.244338837107275 ] ] ] ] } },
{ "type": "Feature", "properties": { "ZONA_MET": "Colima_Villa_de__lvarez", "INTENSIDAD": "Extrema", "T_PROM_POL": 4.0, "T_MIN_CIUD": 3.0, "DIF_TERMIC": 1.0 }, "geometry": { "type": "MultiPolygon", "coordinates": [ [ [ [ -103.739784629861077, 19.243799847936803 ], [ -103.738437156934893, 19.243799847936803 ], [ -103.738437156934893, 19.243530353351566 ], [ -103.737898167764413, 19.243530353351566 ], [ -103.737898167764413, 19.242991364181094 ], [ -103.738706651520133, 19.242991364181094 ], [ -103.738706651520133, 19.242721869595858 ], [ -103.738437156934893, 19.242721869595858 ], [ -103.738437156934893, 19.242452375010622 ], [ -103.738976146105358, 19.242452375010622 ], [ -103.738976146105358, 19.242182880425389 ], [ -103.739245640690598, 19.242182880425389 ], [ -103.739245640690598, 19.242452375010622 ], [ -103.739784629861077, 19.242452375010622 ], [ -103.739784629861077, 19.242721869595858 ], [ -103.739515135275838, 19.242721869595858 ], [ -103.739515135275838, 19.242991364181094 ], [ -103.740054124446303, 19.242991364181094 ], [ -103.740054124446303, 19.24326085876633 ], [ -103.740593113616782, 19.24326085876633 ], [ -103.740593113616782, 19.243530353351566 ], [ -103.739784629861077, 19.243530353351566 ], [ -103.739784629861077, 19.243799847936803 ] ] ] ] } },
{ "type": "Feature", "properties": { "ZONA_MET": "Colima_Villa_de__lvarez", "INTENSIDAD": "Intensa", "T_PROM_POL": 4.0, "T_MIN_CIUD": 3.0, "DIF_TERMIC": 8.0 }, "geometry": { "type": "MultiPolygon", "coordinates": [ [ [ [ -103.757840767071869, 19.241913385840153 ], [ -103.756493294145699, 19.241913385840153 ], [ -103.756493294145699, 19.241374396669681 ], [ -103.757032283316164, 19.241374396669681 ], [ -103.757032283316164, 19.241104902084444 ], [ -103.757301777901404, 19.241104902084444 ], [ -103.757301777901404, 19.241374396669681 ], [ -103.757571272486643, 19.241374396669681 ], [ -103.757571272486643, 19.241104902084444 ], [ -103.757840767071869, 19.241104902084444 ], [ -103.757840767071869, 19.241374396669681 ], [ -103.758110261657109, 19.241374396669681 ], [ -103.758110261657109, 19.241643891254917 ], [ -103.757840767071869, 19.241643891254917 ], [ -103.757840767071869, 19.241913385840153 ] ] ] ] } },
{ "type": "Feature", "properties": { "ZONA_MET": "Colima_Villa_de__lvarez", "INTENSIDAD": "Intensa", "T_PROM_POL": 4.0, "T_MIN_CIUD": 3.0, "DIF_TERMIC": 9.0 }, "geometry": { "type": "MultiPolygon", "coordinates": [ [ [ [ -103.715530117189843, 19.239218439987795 ], [ -103.714991128019378, 19.239218439987795 ], [ -103.714991128019378, 19.238679450817322 ], [ -103.714721633434138, 19.238679450817322 ], [ -103.714721633434138, 19.23814046164685 ], [ -103.714991128019378, 19.23814046164685 ], [ -103.714991128019378, 19.237870967061614 ], [ -103.715260622604603, 19.237870967061614 ], [ -103.715260622604603, 19.237601472476378 ], [ -103.715799611775083, 19.237601472476378 ], [ -103.715799611775083, 19.237870967061614 ], [ -103.716608095530788, 19.237870967061614 ], [ -103.716608095530788, 19.23814046164685 ], [ -103.716069106360322, 19.23814046164685 ], [ -103.716069106360322, 19.238679450817322 ], [ -103.715799611775083, 19.238679450817322 ], [ -103.715799611775083, 19.238948945402559 ], [ -103.715530117189843, 19.238948945402559 ], [ -103.715530117189843, 19.239218439987795 ] ] ] ] } },
{ "type": "Feature", "properties": { "ZONA_MET": "Colima_Villa_de__lvarez", "INTENSIDAD": "Intensa", "T_PROM_POL": 4.0, "T_MIN_CIUD": 3.0, "DIF_TERMIC": 8.0 }, "geometry": { "type": "MultiPolygon", "coordinates": [ [ [ [ -103.760535712924238, 19.237601472476378 ], [ -103.759996723753758, 19.237601472476378 ], [ -103.759996723753758, 19.236792988720669 ], [ -103.759727229168519, 19.236792988720669 ], [ -103.759727229168519, 19.2362539995502 ], [ -103.759996723753758, 19.2362539995502 ], [ -103.759996723753758, 19.235984504964964 ], [ -103.761074702094703, 19.235984504964964 ], [ -103.761074702094703, 19.237062483305905 ], [ -103.760805207509463, 19.237062483305905 ], [ -103.760805207509463, 19.237331977891142 ], [ -103.760535712924238, 19.237331977891142 ], [ -103.760535712924238, 19.237601472476378 ] ], [ [ -103.760805207509463, 19.236792988720669 ], [ -103.760805207509463, 19.2362539995502 ], [ -103.760266218338998, 19.2362539995502 ], [ -103.760266218338998, 19.236792988720669 ], [ -103.760805207509463, 19.236792988720669 ] ] ] ] } },
{ "type": "Feature", "properties": { "ZONA_MET": "Colima_Villa_de__lvarez", "INTENSIDAD": "Intensa", "T_PROM_POL": 4.0, "T_MIN_CIUD": 3.0, "DIF_TERMIC": 8.0 }, "geometry": { "type": "MultiPolygon", "coordinates": [ [ [ [ -103.684538239887729, 19.237331977891142 ], [ -103.68399925071725, 19.237331977891142 ], [ -103.68399925071725, 19.237062483305905 ], [ -103.68372975613201, 19.237062483305905 ], [ -103.68372975613201, 19.2362539995502 ], [ -103.684538239887729, 19.2362539995502 ], [ -103.684538239887729, 19.235984504964964 ], [ -103.684807734472955, 19.235984504964964 ], [ -103.684807734472955, 19.2362539995502 ], [ -103.685077229058194, 19.2362539995502 ], [ -103.685077229058194, 19.236523494135433 ], [ -103.684807734472955, 19.236523494135433 ], [ -103.684807734472955, 19.236792988720669 ], [ -103.684538239887729, 19.236792988720669 ], [ -103.684538239887729, 19.237331977891142 ] ] ] ] } },
{ "type": "Feature", "properties": { "ZONA_MET": "Colima_Villa_de__lvarez", "INTENSIDAD": "Intensa", "T_PROM_POL": 4.0, "T_MIN_CIUD": 3.0, "DIF_TERMIC": 8.0 }, "geometry": { "type": "MultiPolygon", "coordinates": [ [ [ [ -103.681304304864895, 19.237601472476378 ], [ -103.681034810279655, 19.237601472476378 ], [ -103.681034810279655, 19.235984504964964 ], [ -103.68049582110919, 19.235984504964964 ], [ -103.68049582110919, 19.2362539995502 ], [ -103.68022632652395, 19.2362539995502 ], [ -103.68022632652395, 19.235715010379728 ], [ -103.68049582110919, 19.235715010379728 ], [ -103.68049582110919, 19.235445515794492 ], [ -103.680765315694416, 19.235445515794492 ], [ -103.680765315694416, 19.235715010379728 ], [ -103.681304304864895, 19.235715010379728 ], [ -103.681304304864895, 19.235984504964964 ], [ -103.681573799450135, 19.235984504964964 ], [ -103.681573799450135, 19.236792988720669 ], [ -103.681304304864895, 19.236792988720669 ], [ -103.681304304864895, 19.237062483305905 ], [ -103.681573799450135, 19.237062483305905 ], [ -103.681573799450135, 19.237331977891142 ], [ -103.681304304864895, 19.237331977891142 ], [ -103.681304304864895, 19.237601472476378 ] ] ] ] } },
{ "type": "Feature", "properties": { "ZONA_MET": "Colima_Villa_de__lvarez", "INTENSIDAD": "Intensa", "T_PROM_POL": 4.0, "T_MIN_CIUD": 3.0, "DIF_TERMIC": 9.0 }, "geometry": { "type": "MultiPolygon", "coordinates": [ [ [ [ -103.70448083919517, 19.234098042868311 ], [ -103.703941850024705, 19.234098042868311 ], [ -103.703941850024705, 19.232211580771661 ], [ -103.704211344609945, 19.232211580771661 ], [ -103.704211344609945, 19.232481075356898 ], [ -103.70448083919517, 19.232481075356898 ], [ -103.70448083919517, 19.232211580771661 ], [ -103.70475033378041, 19.232211580771661 ], [ -103.70475033378041, 19.232750569942134 ], [ -103.705289322950875, 19.232750569942134 ], [ -103.705289322950875, 19.23302006452737 ], [ -103.70501982836565, 19.23302006452737 ], [ -103.70501982836565, 19.233289559112606 ], [ -103.70475033378041, 19.233289559112606 ], [ -103.70475033378041, 19.23302006452737 ], [ -103.70448083919517, 19.23302006452737 ], [ -103.70448083919517, 19.233559053697839 ], [ -103.704211344609945, 19.233559053697839 ], [ -103.704211344609945, 19.233828548283075 ], [ -103.70448083919517, 19.233828548283075 ], [ -103.70448083919517, 19.234098042868311 ] ] ] ] } },
{ "type": "Feature", "properties": { "ZONA_MET": "Colima_Villa_de__lvarez", "INTENSIDAD": "Extrema", "T_PROM_POL": 4.0, "T_MIN_CIUD": 3.0, "DIF_TERMIC": 1.0 }, "geometry": { "type": "MultiPolygon", "coordinates": [ [ [ [ -103.709331741729414, 19.232481075356898 ], [ -103.709062247144189, 19.232481075356898 ], [ -103.709062247144189, 19.232211580771661 ], [ -103.708792752558949, 19.232211580771661 ], [ -103.708792752558949, 19.231942086186425 ], [ -103.70852325797371, 19.231942086186425 ], [ -103.70852325797371, 19.231672591601189 ], [ -103.709062247144189, 19.231672591601189 ], [ -103.709062247144189, 19.230594613260244 ], [ -103.709331741729414, 19.230594613260244 ], [ -103.709331741729414, 19.231133602430717 ], [ -103.709601236314654, 19.231133602430717 ], [ -103.709601236314654, 19.231672591601189 ], [ -103.709870730899894, 19.231672591601189 ], [ -103.709870730899894, 19.231942086186425 ], [ -103.709601236314654, 19.231942086186425 ], [ -103.709601236314654, 19.232211580771661 ], [ -103.709331741729414, 19.232211580771661 ], [ -103.709331741729414, 19.232481075356898 ] ] ] ] } },
{ "type": "Feature", "properties": { "ZONA_MET": "Colima_Villa_de__lvarez", "INTENSIDAD": "Intensa", "T_PROM_POL": 4.0, "T_MIN_CIUD": 3.0, "DIF_TERMIC": 9.0 }, "geometry": { "type": "MultiPolygon", "coordinates": [ [ [ [ -103.710679214655599, 19.230594613260244 ], [ -103.709870730899894, 19.230594613260244 ], [ -103.709870730899894, 19.230325118675008 ], [ -103.709331741729414, 19.230325118675008 ], [ -103.709331741729414, 19.230594613260244 ], [ -103.708792752558949, 19.230594613260244 ], [ -103.708792752558949, 19.229786129504539 ], [ -103.709062247144189, 19.229786129504539 ], [ -103.709062247144189, 19.229247140334067 ], [ -103.709870730899894, 19.229247140334067 ], [ -103.709870730899894, 19.229516634919303 ], [ -103.710679214655599, 19.229516634919303 ], [ -103.710679214655599, 19.229786129504539 ], [ -103.710140225485134, 19.229786129504539 ], [ -103.710140225485134, 19.230055624089776 ], [ -103.711218203826064, 19.230055624089776 ], [ -103.711218203826064, 19.230325118675008 ], [ -103.710679214655599, 19.230325118675008 ], [ -103.710679214655599, 19.230594613260244 ] ] ] ] } },
{ "type": "Feature", "properties": { "ZONA_MET": "Colima_Villa_de__lvarez", "INTENSIDAD": "Intensa", "T_PROM_POL": 4.0, "T_MIN_CIUD": 3.0, "DIF_TERMIC": 9.0 }, "geometry": { "type": "MultiPolygon", "coordinates": [ [ [ [ -103.676453402330651, 19.227899667407886 ], [ -103.675914413160172, 19.227899667407886 ], [ -103.675914413160172, 19.22763017282265 ], [ -103.675644918574946, 19.22763017282265 ], [ -103.675644918574946, 19.227091183652181 ], [ -103.675375423989706, 19.227091183652181 ], [ -103.675375423989706, 19.226282699896473 ], [ -103.676183907745411, 19.226282699896473 ], [ -103.676183907745411, 19.226552194481709 ], [ -103.676453402330651, 19.226552194481709 ], [ -103.676453402330651, 19.227899667407886 ] ] ] ] } },
{ "type": "Feature", "properties": { "ZONA_MET": "Colima_Villa_de__lvarez", "INTENSIDAD": "Intensa", "T_PROM_POL": 4.0, "T_MIN_CIUD": 3.0, "DIF_TERMIC": 9.0 }, "geometry": { "type": "MultiPolygon", "coordinates": [ [ [ [ -103.709870730899894, 19.223857248629351 ], [ -103.709062247144189, 19.223857248629351 ], [ -103.709062247144189, 19.223587754044114 ], [ -103.709331741729414, 19.223587754044114 ], [ -103.709331741729414, 19.223048764873642 ], [ -103.70852325797371, 19.223048764873642 ], [ -103.70852325797371, 19.22250977570317 ], [ -103.708792752558949, 19.22250977570317 ], [ -103.708792752558949, 19.222240281117934 ], [ -103.709870730899894, 19.222240281117934 ], [ -103.709870730899894, 19.223318259458878 ], [ -103.710140225485134, 19.223318259458878 ], [ -103.710140225485134, 19.222779270288406 ], [ -103.710679214655599, 19.222779270288406 ], [ -103.710679214655599, 19.223048764873642 ], [ -103.710409720070359, 19.223048764873642 ], [ -103.710409720070359, 19.223318259458878 ], [ -103.710679214655599, 19.223318259458878 ], [ -103.710679214655599, 19.223587754044114 ], [ -103.709870730899894, 19.223587754044114 ], [ -103.709870730899894, 19.223857248629351 ] ] ] ] } },
{ "type": "Feature", "properties": { "ZONA_MET": "Colima_Villa_de__lvarez", "INTENSIDAD": "Intensa", "T_PROM_POL": 4.0, "T_MIN_CIUD": 3.0, "DIF_TERMIC": 8.0 }, "geometry": { "type": "MultiPolygon", "coordinates": [ [ [ [ -103.721728492650271, 19.223857248629351 ], [ -103.721458998065032, 19.223857248629351 ], [ -103.721458998065032, 19.223048764873642 ], [ -103.721189503479792, 19.223048764873642 ], [ -103.721189503479792, 19.222779270288406 ], [ -103.721997987235511, 19.222779270288406 ], [ -103.721997987235511, 19.22250977570317 ], [ -103.722267481820737, 19.22250977570317 ], [ -103.722267481820737, 19.223048764873642 ], [ -103.722806470991216, 19.223048764873642 ], [ -103.722806470991216, 19.221701291947461 ], [ -103.723345460161681, 19.221701291947461 ], [ -103.723345460161681, 19.222240281117934 ], [ -103.723075965576442, 19.222240281117934 ], [ -103.723075965576442, 19.22250977570317 ], [ -103.723345460161681, 19.22250977570317 ], [ -103.723345460161681, 19.222779270288406 ], [ -103.723614954746921, 19.222779270288406 ], [ -103.723614954746921, 19.223048764873642 ], [ -103.723075965576442, 19.223048764873642 ], [ -103.723075965576442, 19.223318259458878 ], [ -103.722536976405976, 19.223318259458878 ], [ -103.722536976405976, 19.223587754044114 ], [ -103.721728492650271, 19.223587754044114 ], [ -103.721728492650271, 19.223857248629351 ] ] ] ] } },
{ "type": "Feature", "properties": { "ZONA_MET": "Colima_Villa_de__lvarez", "INTENSIDAD": "Intensa", "T_PROM_POL": 4.0, "T_MIN_CIUD": 3.0, "DIF_TERMIC": 8.0 }, "geometry": { "type": "MultiPolygon", "coordinates": [ [ [ [ -103.711218203826064, 19.224126743214587 ], [ -103.710948709240839, 19.224126743214587 ], [ -103.710948709240839, 19.22250977570317 ], [ -103.711218203826064, 19.22250977570317 ], [ -103.711218203826064, 19.221970786532697 ], [ -103.711757192996544, 19.221970786532697 ], [ -103.711757192996544, 19.221701291947461 ], [ -103.712026687581783, 19.221701291947461 ], [ -103.712026687581783, 19.221431797362225 ], [ -103.712565676752249, 19.221431797362225 ], [ -103.712565676752249, 19.221701291947461 ], [ -103.712835171337488, 19.221701291947461 ], [ -103.712835171337488, 19.222240281117934 ], [ -103.712565676752249, 19.222240281117934 ], [ -103.712565676752249, 19.223048764873642 ], [ -103.712296182167009, 19.223048764873642 ], [ -103.712296182167009, 19.223587754044114 ], [ -103.711487698411304, 19.223587754044114 ], [ -103.711487698411304, 19.223857248629351 ], [ -103.711218203826064, 19.223857248629351 ], [ -103.711218203826064, 19.224126743214587 ] ], [ [ -103.711757192996544, 19.222779270288406 ], [ -103.711757192996544, 19.22250977570317 ], [ -103.711487698411304, 19.22250977570317 ], [ -103.711487698411304, 19.222779270288406 ], [ -103.711757192996544, 19.222779270288406 ] ] ] ] } },
{ "type": "Feature", "properties": { "ZONA_MET": "Colima_Villa_de__lvarez", "INTENSIDAD": "Intensa", "T_PROM_POL": 4.0, "T_MIN_CIUD": 3.0, "DIF_TERMIC": 9.0 }, "geometry": { "type": "MultiPolygon", "coordinates": [ [ [ [ -103.727118384354981, 19.222240281117934 ], [ -103.726579395184515, 19.222240281117934 ], [ -103.726579395184515, 19.221970786532697 ], [ -103.726309900599276, 19.221970786532697 ], [ -103.726309900599276, 19.221701291947461 ], [ -103.726040406014036, 19.221701291947461 ], [ -103.726040406014036, 19.221431797362225 ], [ -103.72577091142881, 19.221431797362225 ], [ -103.72577091142881, 19.220892808191756 ], [ -103.726040406014036, 19.220892808191756 ], [ -103.726040406014036, 19.22062331360652 ], [ -103.726309900599276, 19.22062331360652 ], [ -103.726309900599276, 19.221162302776992 ], [ -103.726579395184515, 19.221162302776992 ], [ -103.726579395184515, 19.220353819021284 ], [ -103.726848889769755, 19.220353819021284 ], [ -103.726848889769755, 19.22062331360652 ], [ -103.727118384354981, 19.22062331360652 ], [ -103.727118384354981, 19.220892808191756 ], [ -103.72738787894022, 19.220892808191756 ], [ -103.72738787894022, 19.221701291947461 ], [ -103.727118384354981, 19.221701291947461 ], [ -103.727118384354981, 19.222240281117934 ] ] ] ] } },
{ "type": "Feature", "properties": { "ZONA_MET": "Colima_Villa_de__lvarez", "INTENSIDAD": "Intensa", "T_PROM_POL": 4.0, "T_MIN_CIUD": 3.0, "DIF_TERMIC": 8.0 }, "geometry": { "type": "MultiPolygon", "coordinates": [ [ [ [ -103.723075965576442, 19.221162302776992 ], [ -103.722806470991216, 19.221162302776992 ], [ -103.722806470991216, 19.22062331360652 ], [ -103.722536976405976, 19.22062331360652 ], [ -103.722536976405976, 19.220353819021284 ], [ -103.722267481820737, 19.220353819021284 ], [ -103.722267481820737, 19.219545335265575 ], [ -103.722536976405976, 19.219545335265575 ], [ -103.722536976405976, 19.219275840680339 ], [ -103.722806470991216, 19.219275840680339 ], [ -103.722806470991216, 19.219545335265575 ], [ -103.723075965576442, 19.219545335265575 ], [ -103.723075965576442, 19.219275840680339 ], [ -103.723345460161681, 19.219275840680339 ], [ -103.723345460161681, 19.219545335265575 ], [ -103.723614954746921, 19.219545335265575 ], [ -103.723614954746921, 19.219814829850812 ], [ -103.723345460161681, 19.219814829850812 ], [ -103.723345460161681, 19.220084324436048 ], [ -103.723614954746921, 19.220084324436048 ], [ -103.723614954746921, 19.22062331360652 ], [ -103.723075965576442, 19.22062331360652 ], [ -103.723075965576442, 19.221162302776992 ] ] ] ] } },
{ "type": "Feature", "properties": { "ZONA_MET": "Colima_Villa_de__lvarez", "INTENSIDAD": "Extrema", "T_PROM_POL": 4.0, "T_MIN_CIUD": 3.0, "DIF_TERMIC": 1.0 }, "geometry": { "type": "MultiPolygon", "coordinates": [ [ [ [ -103.714991128019378, 19.219814829850812 ], [ -103.714452138848898, 19.219814829850812 ], [ -103.714452138848898, 19.219006346095103 ], [ -103.714721633434138, 19.219006346095103 ], [ -103.714721633434138, 19.218736851509867 ], [ -103.714991128019378, 19.218736851509867 ], [ -103.714991128019378, 19.218467356924631 ], [ -103.715260622604603, 19.218467356924631 ], [ -103.715260622604603, 19.217928367754162 ], [ -103.715799611775083, 19.217928367754162 ], [ -103.715799611775083, 19.218467356924631 ], [ -103.715530117189843, 19.218467356924631 ], [ -103.715530117189843, 19.218736851509867 ], [ -103.715260622604603, 19.218736851509867 ], [ -103.715260622604603, 19.219275840680339 ], [ -103.714991128019378, 19.219275840680339 ], [ -103.714991128019378, 19.219814829850812 ] ] ] ] } },
{ "type": "Feature", "properties": { "ZONA_MET": "Colima_Villa_de__lvarez", "INTENSIDAD": "Intensa", "T_PROM_POL": 4.0, "T_MIN_CIUD": 3.0, "DIF_TERMIC": 8.0 }, "geometry": { "type": "MultiPolygon", "coordinates": [ [ [ [ -103.722267481820737, 19.21738937858369 ], [ -103.721997987235511, 19.21738937858369 ], [ -103.721997987235511, 19.216311400242745 ], [ -103.721728492650271, 19.216311400242745 ], [ -103.721728492650271, 19.217119883998453 ], [ -103.721189503479792, 19.217119883998453 ], [ -103.721189503479792, 19.21738937858369 ], [ -103.720920008894566, 19.21738937858369 ], [ -103.720920008894566, 19.217119883998453 ], [ -103.720381019724087, 19.217119883998453 ], [ -103.720381019724087, 19.216850389413217 ], [ -103.720111525138847, 19.216850389413217 ], [ -103.720111525138847, 19.216580894827981 ], [ -103.720381019724087, 19.216580894827981 ], [ -103.720381019724087, 19.216311400242745 ], [ -103.721458998065032, 19.216311400242745 ], [ -103.721458998065032, 19.215772411072273 ], [ -103.721189503479792, 19.215772411072273 ], [ -103.721189503479792, 19.214963927316568 ], [ -103.721458998065032, 19.214963927316568 ], [ -103.721458998065032, 19.214694432731331 ], [ -103.722267481820737, 19.214694432731331 ], [ -103.722267481820737, 19.214963927316568 ], [ -103.723075965576442, 19.214963927316568 ], [ -103.723075965576442, 19.215502916487036 ], [ -103.722806470991216, 19.215502916487036 ], [ -103.722806470991216, 19.216311400242745 ], [ -103.722536976405976, 19.216311400242745 ], [ -103.722536976405976, 19.217119883998453 ], [ -103.722267481820737, 19.217119883998453 ], [ -103.722267481820737, 19.21738937858369 ] ], [ [ -103.721997987235511, 19.216041905657509 ], [ -103.721997987235511, 19.215772411072273 ], [ -103.721728492650271, 19.215772411072273 ], [ -103.721728492650271, 19.216041905657509 ], [ -103.721997987235511, 19.216041905657509 ] ], [ [ -103.722267481820737, 19.215233421901804 ], [ -103.722267481820737, 19.214963927316568 ], [ -103.721997987235511, 19.214963927316568 ], [ -103.721997987235511, 19.215233421901804 ], [ -103.722267481820737, 19.215233421901804 ] ] ] ] } },
{ "type": "Feature", "properties": { "ZONA_MET": "Colima_Villa_de__lvarez", "INTENSIDAD": "Intensa", "T_PROM_POL": 4.0, "T_MIN_CIUD": 3.0, "DIF_TERMIC": 9.0 }, "geometry": { "type": "MultiPolygon", "coordinates": [ [ [ [ -103.725231922258331, 19.215502916487036 ], [ -103.724423438502626, 19.215502916487036 ], [ -103.724423438502626, 19.214694432731331 ], [ -103.724153943917386, 19.214694432731331 ], [ -103.724153943917386, 19.214424938146095 ], [ -103.724692933087866, 19.214424938146095 ], [ -103.724692933087866, 19.213885948975623 ], [ -103.724962427673105, 19.213885948975623 ], [ -103.724962427673105, 19.214155443560859 ], [ -103.725231922258331, 19.214155443560859 ], [ -103.725231922258331, 19.215502916487036 ] ], [ [ -103.724962427673105, 19.215233421901804 ], [ -103.724962427673105, 19.214963927316568 ], [ -103.724692933087866, 19.214963927316568 ], [ -103.724692933087866, 19.215233421901804 ], [ -103.724962427673105, 19.215233421901804 ] ], [ [ -103.724962427673105, 19.214694432731331 ], [ -103.724962427673105, 19.214424938146095 ], [ -103.724692933087866, 19.214424938146095 ], [ -103.724692933087866, 19.214694432731331 ], [ -103.724962427673105, 19.214694432731331 ] ] ] ] } }
]
}
