{
"type": "FeatureCollection",
"name": "UHI_Reynosa",
"crs": { "type": "name", "properties": { "name": "urn:ogc:def:crs:OGC:1.3:CRS84" } },
"features": [
{ "type": "Feature", "properties": { "ZONA_MET": "Reynosa", "INTENSIDAD": "Intensa", "T_PROM_POL": 3.0, "T_MIN_CIUD": 2.0, "DIF_TERMIC": 1.0 }, "geometry": { "type": "MultiPolygon", "coordinates": [ [ [ [ -98.258534260748974, 26.123457619837748 ], [ -98.257995271578508, 26.123457619837748 ], [ -98.257995271578508, 26.122110146911567 ], [ -98.258264766163748, 26.122110146911567 ], [ -98.258264766163748, 26.121571157741098 ], [ -98.258534260748974, 26.121571157741098 ], [ -98.258534260748974, 26.121301663155862 ], [ -98.258803755334213, 26.121301663155862 ], [ -98.258803755334213, 26.122649136082039 ], [ -98.258534260748974, 26.122649136082039 ], [ -98.258534260748974, 26.123457619837748 ] ] ] ] } },
{ "type": "Feature", "properties": { "ZONA_MET": "Reynosa", "INTENSIDAD": "Intensa", "T_PROM_POL": 3.0, "T_MIN_CIUD": 2.0, "DIF_TERMIC": 1.0 }, "geometry": { "type": "MultiPolygon", "coordinates": [ [ [ [ -98.256917293237564, 26.11887621188874 ], [ -98.256378304067098, 26.11887621188874 ], [ -98.256378304067098, 26.118606717303503 ], [ -98.256108809481859, 26.118606717303503 ], [ -98.256108809481859, 26.118337222718267 ], [ -98.255839314896619, 26.118337222718267 ], [ -98.255839314896619, 26.118067728133031 ], [ -98.256108809481859, 26.118067728133031 ], [ -98.256108809481859, 26.117798233547795 ], [ -98.256378304067098, 26.117798233547795 ], [ -98.256378304067098, 26.117528738962559 ], [ -98.257186787822803, 26.117528738962559 ], [ -98.257186787822803, 26.118606717303503 ], [ -98.256917293237564, 26.118606717303503 ], [ -98.256917293237564, 26.11887621188874 ] ] ] ] } },
{ "type": "Feature", "properties": { "ZONA_MET": "Reynosa", "INTENSIDAD": "Extrema", "T_PROM_POL": 3.0, "T_MIN_CIUD": 2.0, "DIF_TERMIC": 1.0 }, "geometry": { "type": "MultiPolygon", "coordinates": [ [ [ [ -98.261768195771808, 26.110791374331662 ], [ -98.260959712016103, 26.110791374331662 ], [ -98.260959712016103, 26.110521879746425 ], [ -98.261229206601342, 26.110521879746425 ], [ -98.261229206601342, 26.109982890575957 ], [ -98.260959712016103, 26.109982890575957 ], [ -98.260959712016103, 26.109443901405484 ], [ -98.261768195771808, 26.109443901405484 ], [ -98.261768195771808, 26.110791374331662 ] ] ] ] } },
{ "type": "Feature", "properties": { "ZONA_MET": "Reynosa", "INTENSIDAD": "Intensa", "T_PROM_POL": 3.0, "T_MIN_CIUD": 2.0, "DIF_TERMIC": 1.0 }, "geometry": { "type": "MultiPolygon", "coordinates": [ [ [ [ -98.278207365471204, 26.089770796683265 ], [ -98.277937870885964, 26.089770796683265 ], [ -98.277937870885964, 26.089231807512792 ], [ -98.277668376300724, 26.089231807512792 ], [ -98.277668376300724, 26.088692818342324 ], [ -98.278207365471204, 26.088692818342324 ], [ -98.278207365471204, 26.088423323757088 ], [ -98.277937870885964, 26.088423323757088 ], [ -98.277937870885964, 26.088153829171851 ], [ -98.278207365471204, 26.088153829171851 ], [ -98.278207365471204, 26.087614840001379 ], [ -98.278476860056429, 26.087614840001379 ], [ -98.278476860056429, 26.088153829171851 ], [ -98.279015849226909, 26.088153829171851 ], [ -98.279015849226909, 26.088423323757088 ], [ -98.278746354641669, 26.088423323757088 ], [ -98.278746354641669, 26.089231807512792 ], [ -98.278207365471204, 26.089231807512792 ], [ -98.278207365471204, 26.089770796683265 ] ] ] ] } },
{ "type": "Feature", "properties": { "ZONA_MET": "Reynosa", "INTENSIDAD": "Intensa", "T_PROM_POL": 3.0, "T_MIN_CIUD": 2.0, "DIF_TERMIC": 1.0 }, "geometry": { "type": "MultiPolygon", "coordinates": [ [ [ [ -98.304078845653834, 26.082763937467135 ], [ -98.303809351068608, 26.082763937467135 ], [ -98.303809351068608, 26.082224948296663 ], [ -98.303539856483368, 26.082224948296663 ], [ -98.303539856483368, 26.081955453711426 ], [ -98.303809351068608, 26.081955453711426 ], [ -98.303809351068608, 26.08168595912619 ], [ -98.304348340239073, 26.08168595912619 ], [ -98.304348340239073, 26.081146969955718 ], [ -98.304078845653834, 26.081146969955718 ], [ -98.304078845653834, 26.081416464540954 ], [ -98.303809351068608, 26.081416464540954 ], [ -98.303809351068608, 26.080877475370482 ], [ -98.304348340239073, 26.080877475370482 ], [ -98.304348340239073, 26.080607980785246 ], [ -98.304617834824313, 26.080607980785246 ], [ -98.304617834824313, 26.081146969955718 ], [ -98.304887329409553, 26.081146969955718 ], [ -98.304887329409553, 26.081955453711426 ], [ -98.304617834824313, 26.081955453711426 ], [ -98.304617834824313, 26.082494442881899 ], [ -98.304078845653834, 26.082494442881899 ], [ -98.304078845653834, 26.082763937467135 ] ] ] ] } },
{ "type": "Feature", "properties": { "ZONA_MET": "Reynosa", "INTENSIDAD": "Extrema", "T_PROM_POL": 3.0, "T_MIN_CIUD": 2.0, "DIF_TERMIC": 1.0 }, "geometry": { "type": "MultiPolygon", "coordinates": [ [ [ [ -98.379537329519877, 26.080338486200009 ], [ -98.378728845764172, 26.080338486200009 ], [ -98.378728845764172, 26.079799497029541 ], [ -98.378459351178932, 26.079799497029541 ], [ -98.378459351178932, 26.079530002444304 ], [ -98.378728845764172, 26.079530002444304 ], [ -98.378728845764172, 26.078991013273832 ], [ -98.378998340349412, 26.078991013273832 ], [ -98.378998340349412, 26.078721518688596 ], [ -98.379806824105117, 26.078721518688596 ], [ -98.379806824105117, 26.080068991614773 ], [ -98.379537329519877, 26.080068991614773 ], [ -98.379537329519877, 26.080338486200009 ] ] ] ] } },
{ "type": "Feature", "properties": { "ZONA_MET": "Reynosa", "INTENSIDAD": "Intensa", "T_PROM_POL": 3.0, "T_MIN_CIUD": 2.0, "DIF_TERMIC": 1.0 }, "geometry": { "type": "MultiPolygon", "coordinates": [ [ [ [ -98.312972166966617, 26.07656556200671 ], [ -98.311894188625672, 26.07656556200671 ], [ -98.311894188625672, 26.076296067421474 ], [ -98.312433177796152, 26.076296067421474 ], [ -98.312433177796152, 26.076026572836238 ], [ -98.311894188625672, 26.076026572836238 ], [ -98.311894188625672, 26.075757078251002 ], [ -98.311624694040447, 26.075757078251002 ], [ -98.311624694040447, 26.075487583665765 ], [ -98.312163683210912, 26.075487583665765 ], [ -98.312163683210912, 26.075218089080529 ], [ -98.311624694040447, 26.075218089080529 ], [ -98.311624694040447, 26.074948594495293 ], [ -98.311894188625672, 26.074948594495293 ], [ -98.311894188625672, 26.074679099910057 ], [ -98.312433177796152, 26.074679099910057 ], [ -98.312433177796152, 26.074948594495293 ], [ -98.312972166966617, 26.074948594495293 ], [ -98.312972166966617, 26.075218089080529 ], [ -98.313241661551857, 26.075218089080529 ], [ -98.313241661551857, 26.074948594495293 ], [ -98.314050145307561, 26.074948594495293 ], [ -98.314050145307561, 26.075218089080529 ], [ -98.314319639892801, 26.075218089080529 ], [ -98.314319639892801, 26.074948594495293 ], [ -98.314589134478041, 26.074948594495293 ], [ -98.314589134478041, 26.075487583665765 ], [ -98.314319639892801, 26.075487583665765 ], [ -98.314319639892801, 26.075757078251002 ], [ -98.314050145307561, 26.075757078251002 ], [ -98.314050145307561, 26.076026572836238 ], [ -98.313780650722336, 26.076026572836238 ], [ -98.313780650722336, 26.076296067421474 ], [ -98.312972166966617, 26.076296067421474 ], [ -98.312972166966617, 26.07656556200671 ] ], [ [ -98.313511156137096, 26.076026572836238 ], [ -98.313511156137096, 26.075218089080529 ], [ -98.313241661551857, 26.075218089080529 ], [ -98.313241661551857, 26.075487583665765 ], [ -98.312972166966617, 26.075487583665765 ], [ -98.312972166966617, 26.075757078251002 ], [ -98.313241661551857, 26.075757078251002 ], [ -98.313241661551857, 26.076026572836238 ], [ -98.313511156137096, 26.076026572836238 ] ] ] ] } },
{ "type": "Feature", "properties": { "ZONA_MET": "Reynosa", "INTENSIDAD": "Intensa", "T_PROM_POL": 3.0, "T_MIN_CIUD": 2.0, "DIF_TERMIC": 1.0 }, "geometry": { "type": "MultiPolygon", "coordinates": [ [ [ [ -98.31674509115993, 26.076026572836238 ], [ -98.316475596574691, 26.076026572836238 ], [ -98.316475596574691, 26.075487583665765 ], [ -98.315936607404211, 26.075487583665765 ], [ -98.315936607404211, 26.075218089080529 ], [ -98.316475596574691, 26.075218089080529 ], [ -98.316475596574691, 26.074409605324821 ], [ -98.317014585745156, 26.074409605324821 ], [ -98.317014585745156, 26.074948594495293 ], [ -98.31674509115993, 26.074948594495293 ], [ -98.31674509115993, 26.075218089080529 ], [ -98.317553574915635, 26.075218089080529 ], [ -98.317553574915635, 26.075487583665765 ], [ -98.317014585745156, 26.075487583665765 ], [ -98.317014585745156, 26.075757078251002 ], [ -98.31674509115993, 26.075757078251002 ], [ -98.31674509115993, 26.076026572836238 ] ] ] ] } },
{ "type": "Feature", "properties": { "ZONA_MET": "Reynosa", "INTENSIDAD": "Extrema", "T_PROM_POL": 3.0, "T_MIN_CIUD": 2.0, "DIF_TERMIC": 1.0 }, "geometry": { "type": "MultiPolygon", "coordinates": [ [ [ [ -98.317823069500861, 26.075487583665765 ], [ -98.317553574915635, 26.075487583665765 ], [ -98.317553574915635, 26.075218089080529 ], [ -98.31674509115993, 26.075218089080529 ], [ -98.31674509115993, 26.074948594495293 ], [ -98.317014585745156, 26.074948594495293 ], [ -98.317014585745156, 26.074140110739584 ], [ -98.317284080330396, 26.074140110739584 ], [ -98.317284080330396, 26.073870616154352 ], [ -98.31836205867134, 26.073870616154352 ], [ -98.31836205867134, 26.073601121569116 ], [ -98.31863155325658, 26.073601121569116 ], [ -98.31863155325658, 26.073062132398643 ], [ -98.319440037012285, 26.073062132398643 ], [ -98.319440037012285, 26.074679099910057 ], [ -98.319170542427045, 26.074679099910057 ], [ -98.319170542427045, 26.074948594495293 ], [ -98.317823069500861, 26.074948594495293 ], [ -98.317823069500861, 26.075487583665765 ] ] ] ] } },
{ "type": "Feature", "properties": { "ZONA_MET": "Reynosa", "INTENSIDAD": "Intensa", "T_PROM_POL": 3.0, "T_MIN_CIUD": 2.0, "DIF_TERMIC": 1.0 }, "geometry": { "type": "MultiPolygon", "coordinates": [ [ [ [ -98.322404477449879, 26.074140110739584 ], [ -98.321057004523695, 26.074140110739584 ], [ -98.321057004523695, 26.07333162698388 ], [ -98.321595993694174, 26.07333162698388 ], [ -98.321595993694174, 26.073601121569116 ], [ -98.32213498286464, 26.073601121569116 ], [ -98.32213498286464, 26.073062132398643 ], [ -98.322404477449879, 26.073062132398643 ], [ -98.322404477449879, 26.07333162698388 ], [ -98.322673972035119, 26.07333162698388 ], [ -98.322673972035119, 26.073601121569116 ], [ -98.322404477449879, 26.073601121569116 ], [ -98.322404477449879, 26.074140110739584 ] ] ] ] } },
{ "type": "Feature", "properties": { "ZONA_MET": "Reynosa", "INTENSIDAD": "Intensa", "T_PROM_POL": 3.0, "T_MIN_CIUD": 2.0, "DIF_TERMIC": 1.0 }, "geometry": { "type": "MultiPolygon", "coordinates": [ [ [ [ -98.319709531597525, 26.074140110739584 ], [ -98.319440037012285, 26.074140110739584 ], [ -98.319440037012285, 26.073062132398643 ], [ -98.31863155325658, 26.073062132398643 ], [ -98.31863155325658, 26.072792637813407 ], [ -98.319709531597525, 26.072792637813407 ], [ -98.319709531597525, 26.072253648642935 ], [ -98.31997902618275, 26.072253648642935 ], [ -98.31997902618275, 26.071984154057699 ], [ -98.32024852076799, 26.071984154057699 ], [ -98.32024852076799, 26.072523143228171 ], [ -98.31997902618275, 26.072523143228171 ], [ -98.31997902618275, 26.073062132398643 ], [ -98.319709531597525, 26.073062132398643 ], [ -98.319709531597525, 26.07333162698388 ], [ -98.31997902618275, 26.07333162698388 ], [ -98.31997902618275, 26.073601121569116 ], [ -98.32024852076799, 26.073601121569116 ], [ -98.32024852076799, 26.073870616154352 ], [ -98.319709531597525, 26.073870616154352 ], [ -98.319709531597525, 26.074140110739584 ] ] ] ] } },
{ "type": "Feature", "properties": { "ZONA_MET": "Reynosa", "INTENSIDAD": "Extrema", "T_PROM_POL": 3.0, "T_MIN_CIUD": 2.0, "DIF_TERMIC": 1.0 }, "geometry": { "type": "MultiPolygon", "coordinates": [ [ [ [ -98.366332094843315, 26.073062132398643 ], [ -98.364715127331905, 26.073062132398643 ], [ -98.364715127331905, 26.072523143228171 ], [ -98.364984621917145, 26.072523143228171 ], [ -98.364984621917145, 26.072253648642935 ], [ -98.365254116502385, 26.072253648642935 ], [ -98.365254116502385, 26.071714659472462 ], [ -98.36579310567285, 26.071714659472462 ], [ -98.36579310567285, 26.071445164887226 ], [ -98.36606260025809, 26.071445164887226 ], [ -98.36606260025809, 26.07117567030199 ], [ -98.36579310567285, 26.07117567030199 ], [ -98.36579310567285, 26.070906175716758 ], [ -98.366332094843315, 26.070906175716758 ], [ -98.366332094843315, 26.07117567030199 ], [ -98.366601589428555, 26.07117567030199 ], [ -98.366601589428555, 26.071445164887226 ], [ -98.366871084013795, 26.071445164887226 ], [ -98.366871084013795, 26.072523143228171 ], [ -98.366601589428555, 26.072523143228171 ], [ -98.366601589428555, 26.072792637813407 ], [ -98.366332094843315, 26.072792637813407 ], [ -98.366332094843315, 26.073062132398643 ] ] ] ] } },
{ "type": "Feature", "properties": { "ZONA_MET": "Reynosa", "INTENSIDAD": "Intensa", "T_PROM_POL": 3.0, "T_MIN_CIUD": 2.0, "DIF_TERMIC": 1.0 }, "geometry": { "type": "MultiPolygon", "coordinates": [ [ [ [ -98.322943466620345, 26.073062132398643 ], [ -98.322673972035119, 26.073062132398643 ], [ -98.322673972035119, 26.072792637813407 ], [ -98.322404477449879, 26.072792637813407 ], [ -98.322404477449879, 26.072523143228171 ], [ -98.322673972035119, 26.072523143228171 ], [ -98.322673972035119, 26.072253648642935 ], [ -98.322943466620345, 26.072253648642935 ], [ -98.322943466620345, 26.07117567030199 ], [ -98.322673972035119, 26.07117567030199 ], [ -98.322673972035119, 26.070906175716758 ], [ -98.322404477449879, 26.070906175716758 ], [ -98.322404477449879, 26.070636681131521 ], [ -98.323482455790824, 26.070636681131521 ], [ -98.323482455790824, 26.072523143228171 ], [ -98.322943466620345, 26.072523143228171 ], [ -98.322943466620345, 26.073062132398643 ] ] ] ] } },
{ "type": "Feature", "properties": { "ZONA_MET": "Reynosa", "INTENSIDAD": "Extrema", "T_PROM_POL": 3.0, "T_MIN_CIUD": 2.0, "DIF_TERMIC": 1.0 }, "geometry": { "type": "MultiPolygon", "coordinates": [ [ [ [ -98.3218654882794, 26.072792637813407 ], [ -98.31997902618275, 26.072792637813407 ], [ -98.31997902618275, 26.072523143228171 ], [ -98.32024852076799, 26.072523143228171 ], [ -98.32024852076799, 26.071984154057699 ], [ -98.321057004523695, 26.071984154057699 ], [ -98.321057004523695, 26.071445164887226 ], [ -98.321595993694174, 26.071445164887226 ], [ -98.321595993694174, 26.070906175716758 ], [ -98.32213498286464, 26.070906175716758 ], [ -98.32213498286464, 26.070636681131521 ], [ -98.322404477449879, 26.070636681131521 ], [ -98.322404477449879, 26.070906175716758 ], [ -98.322673972035119, 26.070906175716758 ], [ -98.322673972035119, 26.07117567030199 ], [ -98.322404477449879, 26.07117567030199 ], [ -98.322404477449879, 26.072253648642935 ], [ -98.32213498286464, 26.072253648642935 ], [ -98.32213498286464, 26.072523143228171 ], [ -98.3218654882794, 26.072523143228171 ], [ -98.3218654882794, 26.072792637813407 ] ] ] ] } },
{ "type": "Feature", "properties": { "ZONA_MET": "Reynosa", "INTENSIDAD": "Extrema", "T_PROM_POL": 3.0, "T_MIN_CIUD": 2.0, "DIF_TERMIC": 1.0 }, "geometry": { "type": "MultiPolygon", "coordinates": [ [ [ [ -98.375494910741338, 26.072253648642935 ], [ -98.374955921570873, 26.072253648642935 ], [ -98.374955921570873, 26.071984154057699 ], [ -98.374686426985633, 26.071984154057699 ], [ -98.374686426985633, 26.071714659472462 ], [ -98.373877943229928, 26.071714659472462 ], [ -98.373877943229928, 26.071445164887226 ], [ -98.373069459474223, 26.071445164887226 ], [ -98.373069459474223, 26.07117567030199 ], [ -98.373338954059449, 26.07117567030199 ], [ -98.373338954059449, 26.070367186546285 ], [ -98.374686426985633, 26.070367186546285 ], [ -98.374686426985633, 26.070636681131521 ], [ -98.374955921570873, 26.070636681131521 ], [ -98.374955921570873, 26.070906175716758 ], [ -98.375225416156098, 26.070906175716758 ], [ -98.375225416156098, 26.07117567030199 ], [ -98.375764405326578, 26.07117567030199 ], [ -98.375764405326578, 26.071445164887226 ], [ -98.375494910741338, 26.071445164887226 ], [ -98.375494910741338, 26.071714659472462 ], [ -98.375764405326578, 26.071714659472462 ], [ -98.375764405326578, 26.071984154057699 ], [ -98.375494910741338, 26.071984154057699 ], [ -98.375494910741338, 26.072253648642935 ] ] ] ] } },
{ "type": "Feature", "properties": { "ZONA_MET": "Reynosa", "INTENSIDAD": "Extrema", "T_PROM_POL": 3.0, "T_MIN_CIUD": 2.0, "DIF_TERMIC": 1.0 }, "geometry": { "type": "MultiPolygon", "coordinates": [ [ [ [ -98.372530470303744, 26.071714659472462 ], [ -98.371452491962799, 26.071714659472462 ], [ -98.371452491962799, 26.071445164887226 ], [ -98.371182997377574, 26.071445164887226 ], [ -98.371182997377574, 26.070906175716758 ], [ -98.371452491962799, 26.070906175716758 ], [ -98.371452491962799, 26.069828197375813 ], [ -98.371721986548039, 26.069828197375813 ], [ -98.371721986548039, 26.06928920820534 ], [ -98.372530470303744, 26.06928920820534 ], [ -98.372530470303744, 26.069558702790577 ], [ -98.373608448644688, 26.069558702790577 ], [ -98.373608448644688, 26.069828197375813 ], [ -98.373338954059449, 26.069828197375813 ], [ -98.373338954059449, 26.070367186546285 ], [ -98.372799964888983, 26.070367186546285 ], [ -98.372799964888983, 26.07117567030199 ], [ -98.372530470303744, 26.07117567030199 ], [ -98.372530470303744, 26.071714659472462 ] ] ] ] } },
{ "type": "Feature", "properties": { "ZONA_MET": "Reynosa", "INTENSIDAD": "Intensa", "T_PROM_POL": 3.0, "T_MIN_CIUD": 2.0, "DIF_TERMIC": 1.0 }, "geometry": { "type": "MultiPolygon", "coordinates": [ [ [ [ -98.375225416156098, 26.068750219034868 ], [ -98.373877943229928, 26.068750219034868 ], [ -98.373877943229928, 26.068480724449632 ], [ -98.374147437815168, 26.068480724449632 ], [ -98.374147437815168, 26.068211229864396 ], [ -98.374416932400393, 26.068211229864396 ], [ -98.374416932400393, 26.068480724449632 ], [ -98.374955921570873, 26.068480724449632 ], [ -98.374955921570873, 26.068211229864396 ], [ -98.374686426985633, 26.068211229864396 ], [ -98.374686426985633, 26.067402746108691 ], [ -98.374955921570873, 26.067402746108691 ], [ -98.374955921570873, 26.067133251523455 ], [ -98.375494910741338, 26.067133251523455 ], [ -98.375494910741338, 26.067672240693927 ], [ -98.375225416156098, 26.067672240693927 ], [ -98.375225416156098, 26.068750219034868 ] ] ] ] } },
{ "type": "Feature", "properties": { "ZONA_MET": "Reynosa", "INTENSIDAD": "Intensa", "T_PROM_POL": 3.0, "T_MIN_CIUD": 2.0, "DIF_TERMIC": 1.0 }, "geometry": { "type": "MultiPolygon", "coordinates": [ [ [ [ -98.379806824105117, 26.067941735279163 ], [ -98.379537329519877, 26.067941735279163 ], [ -98.379537329519877, 26.067672240693927 ], [ -98.378459351178932, 26.067672240693927 ], [ -98.378459351178932, 26.067402746108691 ], [ -98.379267834934637, 26.067402746108691 ], [ -98.379267834934637, 26.066863756938218 ], [ -98.379537329519877, 26.066863756938218 ], [ -98.379537329519877, 26.066594262352982 ], [ -98.379806824105117, 26.066594262352982 ], [ -98.379806824105117, 26.066863756938218 ], [ -98.380076318690357, 26.066863756938218 ], [ -98.380076318690357, 26.067672240693927 ], [ -98.379806824105117, 26.067672240693927 ], [ -98.379806824105117, 26.067941735279163 ] ] ] ] } },
{ "type": "Feature", "properties": { "ZONA_MET": "Reynosa", "INTENSIDAD": "Extrema", "T_PROM_POL": 3.0, "T_MIN_CIUD": 2.0, "DIF_TERMIC": 1.0 }, "geometry": { "type": "MultiPolygon", "coordinates": [ [ [ [ -98.379267834934637, 26.067402746108691 ], [ -98.377650867423228, 26.067402746108691 ], [ -98.377650867423228, 26.067133251523455 ], [ -98.377111878252762, 26.067133251523455 ], [ -98.377111878252762, 26.066324767767746 ], [ -98.377381372837988, 26.066324767767746 ], [ -98.377381372837988, 26.06605527318251 ], [ -98.377920362008467, 26.06605527318251 ], [ -98.377920362008467, 26.066324767767746 ], [ -98.379267834934637, 26.066324767767746 ], [ -98.379267834934637, 26.066594262352982 ], [ -98.379537329519877, 26.066594262352982 ], [ -98.379537329519877, 26.066863756938218 ], [ -98.379267834934637, 26.066863756938218 ], [ -98.379267834934637, 26.067402746108691 ] ] ] ] } },
{ "type": "Feature", "properties": { "ZONA_MET": "Reynosa", "INTENSIDAD": "Intensa", "T_PROM_POL": 3.0, "T_MIN_CIUD": 2.0, "DIF_TERMIC": 1.0 }, "geometry": { "type": "MultiPolygon", "coordinates": [ [ [ [ -98.370374513621854, 26.067941735279163 ], [ -98.370105019036629, 26.067941735279163 ], [ -98.370105019036629, 26.067402746108691 ], [ -98.369835524451389, 26.067402746108691 ], [ -98.369835524451389, 26.066863756938218 ], [ -98.370105019036629, 26.066863756938218 ], [ -98.370105019036629, 26.06605527318251 ], [ -98.371182997377574, 26.06605527318251 ], [ -98.371182997377574, 26.066594262352982 ], [ -98.370913502792334, 26.066594262352982 ], [ -98.370913502792334, 26.067133251523455 ], [ -98.370374513621854, 26.067133251523455 ], [ -98.370374513621854, 26.067941735279163 ] ] ] ] } },
{ "type": "Feature", "properties": { "ZONA_MET": "Reynosa", "INTENSIDAD": "Intensa", "T_PROM_POL": 3.0, "T_MIN_CIUD": 2.0, "DIF_TERMIC": 1.0 }, "geometry": { "type": "MultiPolygon", "coordinates": [ [ [ [ -98.377111878252762, 26.067133251523455 ], [ -98.376842383667523, 26.067133251523455 ], [ -98.376842383667523, 26.066863756938218 ], [ -98.376572889082283, 26.066863756938218 ], [ -98.376572889082283, 26.066594262352982 ], [ -98.376303394497043, 26.066594262352982 ], [ -98.376303394497043, 26.067133251523455 ], [ -98.375494910741338, 26.067133251523455 ], [ -98.375494910741338, 26.066863756938218 ], [ -98.374955921570873, 26.066863756938218 ], [ -98.374955921570873, 26.066324767767746 ], [ -98.375225416156098, 26.066324767767746 ], [ -98.375225416156098, 26.066594262352982 ], [ -98.375494910741338, 26.066594262352982 ], [ -98.375494910741338, 26.066324767767746 ], [ -98.375764405326578, 26.066324767767746 ], [ -98.375764405326578, 26.065785778597274 ], [ -98.376303394497043, 26.065785778597274 ], [ -98.376303394497043, 26.06605527318251 ], [ -98.376572889082283, 26.06605527318251 ], [ -98.376572889082283, 26.065785778597274 ], [ -98.377111878252762, 26.065785778597274 ], [ -98.377111878252762, 26.06605527318251 ], [ -98.376842383667523, 26.06605527318251 ], [ -98.376842383667523, 26.066324767767746 ], [ -98.377111878252762, 26.066324767767746 ], [ -98.377111878252762, 26.067133251523455 ] ] ] ] } },
{ "type": "Feature", "properties": { "ZONA_MET": "Reynosa", "INTENSIDAD": "Intensa", "T_PROM_POL": 3.0, "T_MIN_CIUD": 2.0, "DIF_TERMIC": 1.0 }, "geometry": { "type": "MultiPolygon", "coordinates": [ [ [ [ -98.358247257286251, 26.065785778597274 ], [ -98.356899784360067, 26.065785778597274 ], [ -98.356899784360067, 26.064977294841569 ], [ -98.357708268115772, 26.064977294841569 ], [ -98.357708268115772, 26.064707800256333 ], [ -98.358516751871477, 26.064707800256333 ], [ -98.358516751871477, 26.064977294841569 ], [ -98.358786246456717, 26.064977294841569 ], [ -98.358786246456717, 26.06416881108586 ], [ -98.359594730212422, 26.06416881108586 ], [ -98.359594730212422, 26.064707800256333 ], [ -98.359325235627196, 26.064707800256333 ], [ -98.359325235627196, 26.065516284012038 ], [ -98.359055741041956, 26.065516284012038 ], [ -98.359055741041956, 26.065246789426801 ], [ -98.358786246456717, 26.065246789426801 ], [ -98.358786246456717, 26.065516284012038 ], [ -98.358516751871477, 26.065516284012038 ], [ -98.358516751871477, 26.065246789426801 ], [ -98.357977762701012, 26.065246789426801 ], [ -98.357977762701012, 26.065516284012038 ], [ -98.358247257286251, 26.065516284012038 ], [ -98.358247257286251, 26.065785778597274 ] ] ] ] } },
{ "type": "Feature", "properties": { "ZONA_MET": "Reynosa", "INTENSIDAD": "Intensa", "T_PROM_POL": 3.0, "T_MIN_CIUD": 2.0, "DIF_TERMIC": 1.0 }, "geometry": { "type": "MultiPolygon", "coordinates": [ [ [ [ -98.369835524451389, 26.065516284012038 ], [ -98.36929653528091, 26.065516284012038 ], [ -98.36929653528091, 26.065246789426801 ], [ -98.369027040695684, 26.065246789426801 ], [ -98.369027040695684, 26.065516284012038 ], [ -98.368757546110444, 26.065516284012038 ], [ -98.368757546110444, 26.064707800256333 ], [ -98.368488051525205, 26.064707800256333 ], [ -98.368488051525205, 26.064438305671096 ], [ -98.368757546110444, 26.064438305671096 ], [ -98.368757546110444, 26.06416881108586 ], [ -98.369027040695684, 26.06416881108586 ], [ -98.369027040695684, 26.063899316500624 ], [ -98.369566029866149, 26.063899316500624 ], [ -98.369566029866149, 26.06416881108586 ], [ -98.369835524451389, 26.06416881108586 ], [ -98.369835524451389, 26.063899316500624 ], [ -98.370105019036629, 26.063899316500624 ], [ -98.370105019036629, 26.064438305671096 ], [ -98.369027040695684, 26.064438305671096 ], [ -98.369027040695684, 26.064977294841569 ], [ -98.369835524451389, 26.064977294841569 ], [ -98.369835524451389, 26.065516284012038 ] ] ] ] } },
{ "type": "Feature", "properties": { "ZONA_MET": "Reynosa", "INTENSIDAD": "Extrema", "T_PROM_POL": 3.0, "T_MIN_CIUD": 2.0, "DIF_TERMIC": 1.0 }, "geometry": { "type": "MultiPolygon", "coordinates": [ [ [ [ -98.369835524451389, 26.067133251523455 ], [ -98.369566029866149, 26.067133251523455 ], [ -98.369566029866149, 26.066324767767746 ], [ -98.36929653528091, 26.066324767767746 ], [ -98.36929653528091, 26.06605527318251 ], [ -98.369566029866149, 26.06605527318251 ], [ -98.369566029866149, 26.065516284012038 ], [ -98.369835524451389, 26.065516284012038 ], [ -98.369835524451389, 26.065246789426801 ], [ -98.370105019036629, 26.065246789426801 ], [ -98.370105019036629, 26.063899316500624 ], [ -98.370913502792334, 26.063899316500624 ], [ -98.370913502792334, 26.06416881108586 ], [ -98.371182997377574, 26.06416881108586 ], [ -98.371182997377574, 26.063899316500624 ], [ -98.371721986548039, 26.063899316500624 ], [ -98.371721986548039, 26.06416881108586 ], [ -98.371452491962799, 26.06416881108586 ], [ -98.371452491962799, 26.064977294841569 ], [ -98.371182997377574, 26.064977294841569 ], [ -98.371182997377574, 26.065785778597274 ], [ -98.370913502792334, 26.065785778597274 ], [ -98.370913502792334, 26.065246789426801 ], [ -98.370374513621854, 26.065246789426801 ], [ -98.370374513621854, 26.065785778597274 ], [ -98.370105019036629, 26.065785778597274 ], [ -98.370105019036629, 26.066863756938218 ], [ -98.369835524451389, 26.066863756938218 ], [ -98.369835524451389, 26.067133251523455 ] ] ] ] } },
{ "type": "Feature", "properties": { "ZONA_MET": "Reynosa", "INTENSIDAD": "Extrema", "T_PROM_POL": 3.0, "T_MIN_CIUD": 2.0, "DIF_TERMIC": 1.0 }, "geometry": { "type": "MultiPolygon", "coordinates": [ [ [ [ -98.36552361108761, 26.056353468114018 ], [ -98.364715127331905, 26.056353468114018 ], [ -98.364715127331905, 26.056083973528782 ], [ -98.36417613816144, 26.056083973528782 ], [ -98.36417613816144, 26.05581447894355 ], [ -98.3639066435762, 26.05581447894355 ], [ -98.3639066435762, 26.055005995187841 ], [ -98.363367654405721, 26.055005995187841 ], [ -98.363367654405721, 26.054736500602605 ], [ -98.363637148990961, 26.054736500602605 ], [ -98.363637148990961, 26.054197511432132 ], [ -98.363367654405721, 26.054197511432132 ], [ -98.363367654405721, 26.053389027676424 ], [ -98.363637148990961, 26.053389027676424 ], [ -98.363637148990961, 26.05365852226166 ], [ -98.36417613816144, 26.05365852226166 ], [ -98.36417613816144, 26.052580543920719 ], [ -98.364445632746666, 26.052580543920719 ], [ -98.364445632746666, 26.052041554750247 ], [ -98.364984621917145, 26.052041554750247 ], [ -98.364984621917145, 26.052311049335483 ], [ -98.36579310567285, 26.052311049335483 ], [ -98.36579310567285, 26.052580543920719 ], [ -98.36606260025809, 26.052580543920719 ], [ -98.36606260025809, 26.052850038505955 ], [ -98.36579310567285, 26.052850038505955 ], [ -98.36579310567285, 26.053119533091188 ], [ -98.36606260025809, 26.053119533091188 ], [ -98.36606260025809, 26.053928016846896 ], [ -98.366332094843315, 26.053928016846896 ], [ -98.366332094843315, 26.054197511432132 ], [ -98.36579310567285, 26.054197511432132 ], [ -98.36579310567285, 26.054736500602605 ], [ -98.36606260025809, 26.054736500602605 ], [ -98.36606260025809, 26.056083973528782 ], [ -98.36552361108761, 26.056083973528782 ], [ -98.36552361108761, 26.056353468114018 ] ], [ [ -98.36579310567285, 26.05581447894355 ], [ -98.36579310567285, 26.054736500602605 ], [ -98.36552361108761, 26.054736500602605 ], [ -98.36552361108761, 26.05581447894355 ], [ -98.36579310567285, 26.05581447894355 ] ] ] ] } },
{ "type": "Feature", "properties": { "ZONA_MET": "Reynosa", "INTENSIDAD": "Extrema", "T_PROM_POL": 3.0, "T_MIN_CIUD": 2.0, "DIF_TERMIC": 1.0 }, "geometry": { "type": "MultiPolygon", "coordinates": [ [ [ [ -98.372260975718504, 26.052850038505955 ], [ -98.371991481133279, 26.052850038505955 ], [ -98.371991481133279, 26.052041554750247 ], [ -98.371721986548039, 26.052041554750247 ], [ -98.371721986548039, 26.051502565579774 ], [ -98.371452491962799, 26.051502565579774 ], [ -98.371452491962799, 26.050963576409302 ], [ -98.371721986548039, 26.050963576409302 ], [ -98.371721986548039, 26.050694081824066 ], [ -98.372260975718504, 26.050694081824066 ], [ -98.372260975718504, 26.05177206016501 ], [ -98.372799964888983, 26.05177206016501 ], [ -98.372799964888983, 26.052580543920719 ], [ -98.372260975718504, 26.052580543920719 ], [ -98.372260975718504, 26.052850038505955 ] ] ] ] } },
{ "type": "Feature", "properties": { "ZONA_MET": "Reynosa", "INTENSIDAD": "Extrema", "T_PROM_POL": 3.0, "T_MIN_CIUD": 2.0, "DIF_TERMIC": 1.0 }, "geometry": { "type": "MultiPolygon", "coordinates": [ [ [ [ -98.369566029866149, 26.050963576409302 ], [ -98.368488051525205, 26.050963576409302 ], [ -98.368488051525205, 26.050694081824066 ], [ -98.367949062354739, 26.050694081824066 ], [ -98.367949062354739, 26.049885598068361 ], [ -98.368218556939979, 26.049885598068361 ], [ -98.368218556939979, 26.049616103483125 ], [ -98.368757546110444, 26.049616103483125 ], [ -98.368757546110444, 26.049346608897888 ], [ -98.369027040695684, 26.049346608897888 ], [ -98.369027040695684, 26.05042458723883 ], [ -98.36929653528091, 26.05042458723883 ], [ -98.36929653528091, 26.050694081824066 ], [ -98.369566029866149, 26.050694081824066 ], [ -98.369566029866149, 26.050963576409302 ] ] ] ] } },
{ "type": "Feature", "properties": { "ZONA_MET": "Reynosa", "INTENSIDAD": "Intensa", "T_PROM_POL": 3.0, "T_MIN_CIUD": 2.0, "DIF_TERMIC": 1.0 }, "geometry": { "type": "MultiPolygon", "coordinates": [ [ [ [ -98.359325235627196, 26.047999135971708 ], [ -98.357438773530532, 26.047999135971708 ], [ -98.357438773530532, 26.047190652215999 ], [ -98.357977762701012, 26.047190652215999 ], [ -98.357977762701012, 26.047729641386471 ], [ -98.358786246456717, 26.047729641386471 ], [ -98.358786246456717, 26.047460146801235 ], [ -98.359325235627196, 26.047460146801235 ], [ -98.359325235627196, 26.047999135971708 ] ] ] ] } },
{ "type": "Feature", "properties": { "ZONA_MET": "Reynosa", "INTENSIDAD": "Extrema", "T_PROM_POL": 3.0, "T_MIN_CIUD": 2.0, "DIF_TERMIC": 1.0 }, "geometry": { "type": "MultiPolygon", "coordinates": [ [ [ [ -98.366332094843315, 26.048268630556944 ], [ -98.364984621917145, 26.048268630556944 ], [ -98.364984621917145, 26.047999135971708 ], [ -98.365254116502385, 26.047999135971708 ], [ -98.365254116502385, 26.046921157630766 ], [ -98.36552361108761, 26.046921157630766 ], [ -98.36552361108761, 26.04665166304553 ], [ -98.365254116502385, 26.04665166304553 ], [ -98.365254116502385, 26.046382168460294 ], [ -98.36417613816144, 26.046382168460294 ], [ -98.36417613816144, 26.04665166304553 ], [ -98.363367654405721, 26.04665166304553 ], [ -98.363367654405721, 26.047190652215999 ], [ -98.363098159820495, 26.047190652215999 ], [ -98.363098159820495, 26.047460146801235 ], [ -98.361211697723846, 26.047460146801235 ], [ -98.361211697723846, 26.046921157630766 ], [ -98.360942203138606, 26.046921157630766 ], [ -98.360942203138606, 26.046382168460294 ], [ -98.361211697723846, 26.046382168460294 ], [ -98.361211697723846, 26.046112673875058 ], [ -98.360942203138606, 26.046112673875058 ], [ -98.360942203138606, 26.045573684704586 ], [ -98.360672708553366, 26.045573684704586 ], [ -98.360672708553366, 26.045304190119349 ], [ -98.361211697723846, 26.045304190119349 ], [ -98.361211697723846, 26.044765200948877 ], [ -98.361481192309071, 26.044765200948877 ], [ -98.361481192309071, 26.044495706363641 ], [ -98.362559170650016, 26.044495706363641 ], [ -98.362559170650016, 26.044226211778405 ], [ -98.362828665235256, 26.044226211778405 ], [ -98.362828665235256, 26.044495706363641 ], [ -98.3639066435762, 26.044495706363641 ], [ -98.3639066435762, 26.044226211778405 ], [ -98.364715127331905, 26.044226211778405 ], [ -98.364715127331905, 26.043956717193172 ], [ -98.36552361108761, 26.043956717193172 ], [ -98.36552361108761, 26.045034695534113 ], [ -98.36606260025809, 26.045034695534113 ], [ -98.36606260025809, 26.045304190119349 ], [ -98.366332094843315, 26.045304190119349 ], [ -98.366332094843315, 26.045573684704586 ], [ -98.366601589428555, 26.045573684704586 ], [ -98.366601589428555, 26.046112673875058 ], [ -98.36606260025809, 26.046112673875058 ], [ -98.36606260025809, 26.046382168460294 ], [ -98.366332094843315, 26.046382168460294 ], [ -98.366332094843315, 26.04665166304553 ], [ -98.36579310567285, 26.04665166304553 ], [ -98.36579310567285, 26.047460146801235 ], [ -98.36606260025809, 26.047460146801235 ], [ -98.36606260025809, 26.047729641386471 ], [ -98.366332094843315, 26.047729641386471 ], [ -98.366332094843315, 26.048268630556944 ] ], [ [ -98.364715127331905, 26.046112673875058 ], [ -98.364715127331905, 26.045843179289822 ], [ -98.364984621917145, 26.045843179289822 ], [ -98.364984621917145, 26.045304190119349 ], [ -98.365254116502385, 26.045304190119349 ], [ -98.365254116502385, 26.045034695534113 ], [ -98.364715127331905, 26.045034695534113 ], [ -98.364715127331905, 26.045304190119349 ], [ -98.36417613816144, 26.045304190119349 ], [ -98.36417613816144, 26.045573684704586 ], [ -98.3639066435762, 26.045573684704586 ], [ -98.3639066435762, 26.044765200948877 ], [ -98.363637148990961, 26.044765200948877 ], [ -98.363637148990961, 26.045573684704586 ], [ -98.363367654405721, 26.045573684704586 ], [ -98.363367654405721, 26.045843179289822 ], [ -98.363637148990961, 26.045843179289822 ], [ -98.363637148990961, 26.046112673875058 ], [ -98.364715127331905, 26.046112673875058 ] ], [ [ -98.362559170650016, 26.046112673875058 ], [ -98.362559170650016, 26.045843179289822 ], [ -98.36228967606479, 26.045843179289822 ], [ -98.36228967606479, 26.046112673875058 ], [ -98.362559170650016, 26.046112673875058 ] ] ] ] } },
{ "type": "Feature", "properties": { "ZONA_MET": "Reynosa", "INTENSIDAD": "Extrema", "T_PROM_POL": 3.0, "T_MIN_CIUD": 2.0, "DIF_TERMIC": 1.0 }, "geometry": { "type": "MultiPolygon", "coordinates": [ [ [ [ -98.369027040695684, 26.049077114312652 ], [ -98.368488051525205, 26.049077114312652 ], [ -98.368488051525205, 26.048807619727416 ], [ -98.368218556939979, 26.048807619727416 ], [ -98.368218556939979, 26.049077114312652 ], [ -98.367949062354739, 26.049077114312652 ], [ -98.367949062354739, 26.048807619727416 ], [ -98.3676795677695, 26.048807619727416 ], [ -98.3676795677695, 26.047999135971708 ], [ -98.367949062354739, 26.047999135971708 ], [ -98.367949062354739, 26.047729641386471 ], [ -98.3676795677695, 26.047729641386471 ], [ -98.3676795677695, 26.047460146801235 ], [ -98.367949062354739, 26.047460146801235 ], [ -98.367949062354739, 26.047190652215999 ], [ -98.3676795677695, 26.047190652215999 ], [ -98.3676795677695, 26.046921157630766 ], [ -98.367949062354739, 26.046921157630766 ], [ -98.367949062354739, 26.046382168460294 ], [ -98.3676795677695, 26.046382168460294 ], [ -98.3676795677695, 26.04665166304553 ], [ -98.366871084013795, 26.04665166304553 ], [ -98.366871084013795, 26.046112673875058 ], [ -98.3676795677695, 26.046112673875058 ], [ -98.3676795677695, 26.045573684704586 ], [ -98.36741007318426, 26.045573684704586 ], [ -98.36741007318426, 26.045304190119349 ], [ -98.366601589428555, 26.045304190119349 ], [ -98.366601589428555, 26.045034695534113 ], [ -98.367140578599034, 26.045034695534113 ], [ -98.367140578599034, 26.044226211778405 ], [ -98.36741007318426, 26.044226211778405 ], [ -98.36741007318426, 26.043956717193172 ], [ -98.36929653528091, 26.043956717193172 ], [ -98.36929653528091, 26.043687222607936 ], [ -98.370374513621854, 26.043687222607936 ], [ -98.370374513621854, 26.044765200948877 ], [ -98.370644008207094, 26.044765200948877 ], [ -98.370644008207094, 26.045034695534113 ], [ -98.370374513621854, 26.045034695534113 ], [ -98.370374513621854, 26.045304190119349 ], [ -98.370105019036629, 26.045304190119349 ], [ -98.370105019036629, 26.045843179289822 ], [ -98.369835524451389, 26.045843179289822 ], [ -98.369835524451389, 26.045034695534113 ], [ -98.36929653528091, 26.045034695534113 ], [ -98.36929653528091, 26.044765200948877 ], [ -98.368757546110444, 26.044765200948877 ], [ -98.368757546110444, 26.044495706363641 ], [ -98.368488051525205, 26.044495706363641 ], [ -98.368488051525205, 26.045034695534113 ], [ -98.368757546110444, 26.045034695534113 ], [ -98.368757546110444, 26.046112673875058 ], [ -98.368488051525205, 26.046112673875058 ], [ -98.368488051525205, 26.046382168460294 ], [ -98.368218556939979, 26.046382168460294 ], [ -98.368218556939979, 26.04665166304553 ], [ -98.368757546110444, 26.04665166304553 ], [ -98.368757546110444, 26.047190652215999 ], [ -98.369027040695684, 26.047190652215999 ], [ -98.369027040695684, 26.047460146801235 ], [ -98.368757546110444, 26.047460146801235 ], [ -98.368757546110444, 26.047729641386471 ], [ -98.368488051525205, 26.047729641386471 ], [ -98.368488051525205, 26.047999135971708 ], [ -98.369027040695684, 26.047999135971708 ], [ -98.369027040695684, 26.047729641386471 ], [ -98.370105019036629, 26.047729641386471 ], [ -98.370105019036629, 26.048268630556944 ], [ -98.36929653528091, 26.048268630556944 ], [ -98.36929653528091, 26.04853812514218 ], [ -98.369027040695684, 26.04853812514218 ], [ -98.369027040695684, 26.049077114312652 ] ] ] ] } },
{ "type": "Feature", "properties": { "ZONA_MET": "Reynosa", "INTENSIDAD": "Intensa", "T_PROM_POL": 3.0, "T_MIN_CIUD": 2.0, "DIF_TERMIC": 1.0 }, "geometry": { "type": "MultiPolygon", "coordinates": [ [ [ [ -98.310816210284742, 26.044495706363641 ], [ -98.309738231943797, 26.044495706363641 ], [ -98.309738231943797, 26.044226211778405 ], [ -98.310277221114262, 26.044226211778405 ], [ -98.310277221114262, 26.043687222607936 ], [ -98.310546715699502, 26.043687222607936 ], [ -98.310546715699502, 26.043148233437464 ], [ -98.311355199455207, 26.043148233437464 ], [ -98.311355199455207, 26.043956717193172 ], [ -98.310816210284742, 26.043956717193172 ], [ -98.310816210284742, 26.044495706363641 ] ] ] ] } },
{ "type": "Feature", "properties": { "ZONA_MET": "Reynosa", "INTENSIDAD": "Intensa", "T_PROM_POL": 3.0, "T_MIN_CIUD": 2.0, "DIF_TERMIC": 1.0 }, "geometry": { "type": "MultiPolygon", "coordinates": [ [ [ [ -98.361211697723846, 26.045304190119349 ], [ -98.360672708553366, 26.045304190119349 ], [ -98.360672708553366, 26.044765200948877 ], [ -98.360942203138606, 26.044765200948877 ], [ -98.360942203138606, 26.044495706363641 ], [ -98.361211697723846, 26.044495706363641 ], [ -98.361211697723846, 26.044226211778405 ], [ -98.361481192309071, 26.044226211778405 ], [ -98.361481192309071, 26.043956717193172 ], [ -98.362020181479551, 26.043956717193172 ], [ -98.362020181479551, 26.043687222607936 ], [ -98.36228967606479, 26.043687222607936 ], [ -98.36228967606479, 26.043956717193172 ], [ -98.362559170650016, 26.043956717193172 ], [ -98.362559170650016, 26.043687222607936 ], [ -98.362828665235256, 26.043687222607936 ], [ -98.362828665235256, 26.0434177280227 ], [ -98.363098159820495, 26.0434177280227 ], [ -98.363098159820495, 26.043148233437464 ], [ -98.363637148990961, 26.043148233437464 ], [ -98.363637148990961, 26.0434177280227 ], [ -98.363367654405721, 26.0434177280227 ], [ -98.363367654405721, 26.043956717193172 ], [ -98.362828665235256, 26.043956717193172 ], [ -98.362828665235256, 26.044226211778405 ], [ -98.362559170650016, 26.044226211778405 ], [ -98.362559170650016, 26.044495706363641 ], [ -98.361481192309071, 26.044495706363641 ], [ -98.361481192309071, 26.044765200948877 ], [ -98.361211697723846, 26.044765200948877 ], [ -98.361211697723846, 26.045304190119349 ] ] ] ] } },
{ "type": "Feature", "properties": { "ZONA_MET": "Reynosa", "INTENSIDAD": "Extrema", "T_PROM_POL": 3.0, "T_MIN_CIUD": 2.0, "DIF_TERMIC": 1.0 }, "geometry": { "type": "MultiPolygon", "coordinates": [ [ [ [ -98.36606260025809, 26.043687222607936 ], [ -98.365254116502385, 26.043687222607936 ], [ -98.365254116502385, 26.0434177280227 ], [ -98.364715127331905, 26.0434177280227 ], [ -98.364715127331905, 26.043687222607936 ], [ -98.3639066435762, 26.043687222607936 ], [ -98.3639066435762, 26.0434177280227 ], [ -98.363637148990961, 26.0434177280227 ], [ -98.363637148990961, 26.043148233437464 ], [ -98.3639066435762, 26.043148233437464 ], [ -98.3639066435762, 26.042878738852227 ], [ -98.364445632746666, 26.042878738852227 ], [ -98.364445632746666, 26.042609244266991 ], [ -98.366332094843315, 26.042609244266991 ], [ -98.366332094843315, 26.043148233437464 ], [ -98.366601589428555, 26.043148233437464 ], [ -98.366601589428555, 26.0434177280227 ], [ -98.36606260025809, 26.0434177280227 ], [ -98.36606260025809, 26.043687222607936 ] ] ] ] } },
{ "type": "Feature", "properties": { "ZONA_MET": "Reynosa", "INTENSIDAD": "Intensa", "T_PROM_POL": 3.0, "T_MIN_CIUD": 2.0, "DIF_TERMIC": 1.0 }, "geometry": { "type": "MultiPolygon", "coordinates": [ [ [ [ -98.3676795677695, 26.043148233437464 ], [ -98.366332094843315, 26.043148233437464 ], [ -98.366332094843315, 26.042609244266991 ], [ -98.36579310567285, 26.042609244266991 ], [ -98.36579310567285, 26.042339749681755 ], [ -98.366601589428555, 26.042339749681755 ], [ -98.366601589428555, 26.042609244266991 ], [ -98.3676795677695, 26.042609244266991 ], [ -98.3676795677695, 26.043148233437464 ] ] ] ] } },
{ "type": "Feature", "properties": { "ZONA_MET": "Reynosa", "INTENSIDAD": "Intensa", "T_PROM_POL": 3.0, "T_MIN_CIUD": 2.0, "DIF_TERMIC": 1.0 }, "geometry": { "type": "MultiPolygon", "coordinates": [ [ [ [ -98.36552361108761, 26.042070255096519 ], [ -98.363367654405721, 26.042070255096519 ], [ -98.363367654405721, 26.041531265926047 ], [ -98.3639066435762, 26.041531265926047 ], [ -98.3639066435762, 26.041800760511283 ], [ -98.364715127331905, 26.041800760511283 ], [ -98.364715127331905, 26.041531265926047 ], [ -98.36552361108761, 26.041531265926047 ], [ -98.36552361108761, 26.042070255096519 ] ] ] ] } },
{ "type": "Feature", "properties": { "ZONA_MET": "Reynosa", "INTENSIDAD": "Extrema", "T_PROM_POL": 3.0, "T_MIN_CIUD": 2.0, "DIF_TERMIC": 1.0 }, "geometry": { "type": "MultiPolygon", "coordinates": [ [ [ [ -98.232123791395864, 26.043687222607936 ], [ -98.231854296810624, 26.043687222607936 ], [ -98.231854296810624, 26.0434177280227 ], [ -98.231584802225399, 26.0434177280227 ], [ -98.231584802225399, 26.043148233437464 ], [ -98.231315307640159, 26.043148233437464 ], [ -98.231315307640159, 26.042609244266991 ], [ -98.231584802225399, 26.042609244266991 ], [ -98.231584802225399, 26.041800760511283 ], [ -98.231315307640159, 26.041800760511283 ], [ -98.231315307640159, 26.041531265926047 ], [ -98.231584802225399, 26.041531265926047 ], [ -98.231584802225399, 26.040992276755578 ], [ -98.231315307640159, 26.040992276755578 ], [ -98.231315307640159, 26.040453287585105 ], [ -98.231584802225399, 26.040453287585105 ], [ -98.231584802225399, 26.040722782170342 ], [ -98.231854296810624, 26.040722782170342 ], [ -98.231854296810624, 26.040992276755578 ], [ -98.232123791395864, 26.040992276755578 ], [ -98.232123791395864, 26.04126177134081 ], [ -98.232393285981104, 26.04126177134081 ], [ -98.232393285981104, 26.041531265926047 ], [ -98.232123791395864, 26.041531265926047 ], [ -98.232123791395864, 26.043687222607936 ] ] ] ] } },
{ "type": "Feature", "properties": { "ZONA_MET": "Reynosa", "INTENSIDAD": "Extrema", "T_PROM_POL": 3.0, "T_MIN_CIUD": 2.0, "DIF_TERMIC": 1.0 }, "geometry": { "type": "MultiPolygon", "coordinates": [ [ [ [ -98.228620361787804, 26.039375309244161 ], [ -98.227811878032085, 26.039375309244161 ], [ -98.227811878032085, 26.039105814658924 ], [ -98.22754238344686, 26.039105814658924 ], [ -98.22754238344686, 26.038297330903216 ], [ -98.228620361787804, 26.038297330903216 ], [ -98.228620361787804, 26.038836320073688 ], [ -98.228350867202565, 26.038836320073688 ], [ -98.228350867202565, 26.039105814658924 ], [ -98.228620361787804, 26.039105814658924 ], [ -98.228620361787804, 26.039375309244161 ] ], [ [ -98.228081372617325, 26.039105814658924 ], [ -98.228081372617325, 26.038836320073688 ], [ -98.227811878032085, 26.038836320073688 ], [ -98.227811878032085, 26.039105814658924 ], [ -98.228081372617325, 26.039105814658924 ] ] ] ] } },
{ "type": "Feature", "properties": { "ZONA_MET": "Reynosa", "INTENSIDAD": "Extrema", "T_PROM_POL": 3.0, "T_MIN_CIUD": 2.0, "DIF_TERMIC": 1.0 }, "geometry": { "type": "MultiPolygon", "coordinates": [ [ [ [ -98.214606643355538, 26.039644803829397 ], [ -98.214337148770298, 26.039644803829397 ], [ -98.214337148770298, 26.038297330903216 ], [ -98.214067654185058, 26.038297330903216 ], [ -98.214067654185058, 26.037758341732747 ], [ -98.214337148770298, 26.037758341732747 ], [ -98.214337148770298, 26.037219352562275 ], [ -98.214606643355538, 26.037219352562275 ], [ -98.214606643355538, 26.037758341732747 ], [ -98.214876137940777, 26.037758341732747 ], [ -98.214876137940777, 26.038836320073688 ], [ -98.215145632526003, 26.038836320073688 ], [ -98.215145632526003, 26.039375309244161 ], [ -98.214606643355538, 26.039375309244161 ], [ -98.214606643355538, 26.039644803829397 ] ] ] ] } },
{ "type": "Feature", "properties": { "ZONA_MET": "Reynosa", "INTENSIDAD": "Extrema", "T_PROM_POL": 3.0, "T_MIN_CIUD": 2.0, "DIF_TERMIC": 1.0 }, "geometry": { "type": "MultiPolygon", "coordinates": [ [ [ [ -98.217301589207892, 26.039644803829397 ], [ -98.217032094622652, 26.039644803829397 ], [ -98.217032094622652, 26.039375309244161 ], [ -98.216762600037427, 26.039375309244161 ], [ -98.216762600037427, 26.039644803829397 ], [ -98.216493105452187, 26.039644803829397 ], [ -98.216493105452187, 26.039375309244161 ], [ -98.216223610866948, 26.039375309244161 ], [ -98.216223610866948, 26.039644803829397 ], [ -98.215415127111243, 26.039644803829397 ], [ -98.215415127111243, 26.038836320073688 ], [ -98.215145632526003, 26.038836320073688 ], [ -98.215145632526003, 26.038566825488452 ], [ -98.215415127111243, 26.038566825488452 ], [ -98.215415127111243, 26.038297330903216 ], [ -98.215145632526003, 26.038297330903216 ], [ -98.215145632526003, 26.037488847147511 ], [ -98.215415127111243, 26.037488847147511 ], [ -98.215415127111243, 26.036949857977039 ], [ -98.216223610866948, 26.036949857977039 ], [ -98.216223610866948, 26.037488847147511 ], [ -98.216493105452187, 26.037488847147511 ], [ -98.216493105452187, 26.038027836317983 ], [ -98.216762600037427, 26.038027836317983 ], [ -98.216762600037427, 26.037758341732747 ], [ -98.217032094622652, 26.037758341732747 ], [ -98.217032094622652, 26.038027836317983 ], [ -98.217301589207892, 26.038027836317983 ], [ -98.217301589207892, 26.038566825488452 ], [ -98.217840578378372, 26.038566825488452 ], [ -98.217840578378372, 26.039375309244161 ], [ -98.217301589207892, 26.039375309244161 ], [ -98.217301589207892, 26.039644803829397 ] ] ] ] } },
{ "type": "Feature", "properties": { "ZONA_MET": "Reynosa", "INTENSIDAD": "Intensa", "T_PROM_POL": 3.0, "T_MIN_CIUD": 2.0, "DIF_TERMIC": 1.0 }, "geometry": { "type": "MultiPolygon", "coordinates": [ [ [ [ -98.214337148770298, 26.037758341732747 ], [ -98.214067654185058, 26.037758341732747 ], [ -98.214067654185058, 26.037488847147511 ], [ -98.213798159599833, 26.037488847147511 ], [ -98.213798159599833, 26.036949857977039 ], [ -98.214337148770298, 26.036949857977039 ], [ -98.214337148770298, 26.03614137422133 ], [ -98.214606643355538, 26.03614137422133 ], [ -98.214606643355538, 26.036410868806566 ], [ -98.215415127111243, 26.036410868806566 ], [ -98.215415127111243, 26.036680363391802 ], [ -98.214876137940777, 26.036680363391802 ], [ -98.214876137940777, 26.036949857977039 ], [ -98.214606643355538, 26.036949857977039 ], [ -98.214606643355538, 26.037219352562275 ], [ -98.214337148770298, 26.037219352562275 ], [ -98.214337148770298, 26.037758341732747 ] ] ] ] } },
{ "type": "Feature", "properties": { "ZONA_MET": "Reynosa", "INTENSIDAD": "Intensa", "T_PROM_POL": 3.0, "T_MIN_CIUD": 2.0, "DIF_TERMIC": 1.0 }, "geometry": { "type": "MultiPolygon", "coordinates": [ [ [ [ -98.368488051525205, 26.038027836317983 ], [ -98.367949062354739, 26.038027836317983 ], [ -98.367949062354739, 26.037758341732747 ], [ -98.368218556939979, 26.037758341732747 ], [ -98.368218556939979, 26.037488847147511 ], [ -98.367949062354739, 26.037488847147511 ], [ -98.367949062354739, 26.036949857977039 ], [ -98.368218556939979, 26.036949857977039 ], [ -98.368218556939979, 26.036410868806566 ], [ -98.36606260025809, 26.036410868806566 ], [ -98.36606260025809, 26.035871879636094 ], [ -98.366332094843315, 26.035871879636094 ], [ -98.366332094843315, 26.035602385050858 ], [ -98.366871084013795, 26.035602385050858 ], [ -98.366871084013795, 26.035332890465622 ], [ -98.36741007318426, 26.035332890465622 ], [ -98.36741007318426, 26.035602385050858 ], [ -98.367140578599034, 26.035602385050858 ], [ -98.367140578599034, 26.03614137422133 ], [ -98.3676795677695, 26.03614137422133 ], [ -98.3676795677695, 26.035871879636094 ], [ -98.368218556939979, 26.035871879636094 ], [ -98.368218556939979, 26.035602385050858 ], [ -98.369566029866149, 26.035602385050858 ], [ -98.369566029866149, 26.036410868806566 ], [ -98.369835524451389, 26.036410868806566 ], [ -98.369835524451389, 26.036680363391802 ], [ -98.369566029866149, 26.036680363391802 ], [ -98.369566029866149, 26.037219352562275 ], [ -98.368757546110444, 26.037219352562275 ], [ -98.368757546110444, 26.037488847147511 ], [ -98.368488051525205, 26.037488847147511 ], [ -98.368488051525205, 26.038027836317983 ] ] ] ] } },
{ "type": "Feature", "properties": { "ZONA_MET": "Reynosa", "INTENSIDAD": "Intensa", "T_PROM_POL": 3.0, "T_MIN_CIUD": 2.0, "DIF_TERMIC": 1.0 }, "geometry": { "type": "MultiPolygon", "coordinates": [ [ [ [ -98.217301589207892, 26.036680363391802 ], [ -98.217032094622652, 26.036680363391802 ], [ -98.217032094622652, 26.035871879636094 ], [ -98.217301589207892, 26.035871879636094 ], [ -98.217301589207892, 26.035602385050858 ], [ -98.216762600037427, 26.035602385050858 ], [ -98.216762600037427, 26.035332890465622 ], [ -98.217032094622652, 26.035332890465622 ], [ -98.217032094622652, 26.035063395880385 ], [ -98.217571083793132, 26.035063395880385 ], [ -98.217571083793132, 26.035332890465622 ], [ -98.217840578378372, 26.035332890465622 ], [ -98.217840578378372, 26.035602385050858 ], [ -98.218110072963597, 26.035602385050858 ], [ -98.218110072963597, 26.035871879636094 ], [ -98.217840578378372, 26.035871879636094 ], [ -98.217840578378372, 26.036410868806566 ], [ -98.217301589207892, 26.036410868806566 ], [ -98.217301589207892, 26.036680363391802 ] ] ] ] } },
{ "type": "Feature", "properties": { "ZONA_MET": "Reynosa", "INTENSIDAD": "Intensa", "T_PROM_POL": 3.0, "T_MIN_CIUD": 2.0, "DIF_TERMIC": 1.0 }, "geometry": { "type": "MultiPolygon", "coordinates": [ [ [ [ -98.219727040475021, 26.03614137422133 ], [ -98.219457545889782, 26.03614137422133 ], [ -98.219457545889782, 26.035602385050858 ], [ -98.219188051304542, 26.035602385050858 ], [ -98.219188051304542, 26.035063395880385 ], [ -98.218918556719302, 26.035063395880385 ], [ -98.218918556719302, 26.035602385050858 ], [ -98.218649062134077, 26.035602385050858 ], [ -98.218649062134077, 26.035871879636094 ], [ -98.218918556719302, 26.035871879636094 ], [ -98.218918556719302, 26.03614137422133 ], [ -98.218379567548837, 26.03614137422133 ], [ -98.218379567548837, 26.034793901295153 ], [ -98.219457545889782, 26.034793901295153 ], [ -98.219457545889782, 26.035063395880385 ], [ -98.219727040475021, 26.035063395880385 ], [ -98.219727040475021, 26.03614137422133 ] ] ] ] } },
{ "type": "Feature", "properties": { "ZONA_MET": "Reynosa", "INTENSIDAD": "Extrema", "T_PROM_POL": 3.0, "T_MIN_CIUD": 2.0, "DIF_TERMIC": 1.0 }, "geometry": { "type": "MultiPolygon", "coordinates": [ [ [ [ -98.215415127111243, 26.035063395880385 ], [ -98.215145632526003, 26.035063395880385 ], [ -98.215145632526003, 26.034524406709917 ], [ -98.214067654185058, 26.034524406709917 ], [ -98.214067654185058, 26.03425491212468 ], [ -98.214337148770298, 26.03425491212468 ], [ -98.214337148770298, 26.033176933783736 ], [ -98.214876137940777, 26.033176933783736 ], [ -98.214876137940777, 26.0329074391985 ], [ -98.215145632526003, 26.0329074391985 ], [ -98.215145632526003, 26.032368450028027 ], [ -98.215415127111243, 26.032368450028027 ], [ -98.215415127111243, 26.032637944613263 ], [ -98.215684621696482, 26.032637944613263 ], [ -98.215684621696482, 26.034793901295153 ], [ -98.215415127111243, 26.034793901295153 ], [ -98.215415127111243, 26.035063395880385 ] ] ] ] } },
{ "type": "Feature", "properties": { "ZONA_MET": "Reynosa", "INTENSIDAD": "Intensa", "T_PROM_POL": 3.0, "T_MIN_CIUD": 2.0, "DIF_TERMIC": 1.0 }, "geometry": { "type": "MultiPolygon", "coordinates": [ [ [ [ -98.215684621696482, 26.032637944613263 ], [ -98.215415127111243, 26.032637944613263 ], [ -98.215415127111243, 26.032368450028027 ], [ -98.215145632526003, 26.032368450028027 ], [ -98.215145632526003, 26.031559966272322 ], [ -98.214876137940777, 26.031559966272322 ], [ -98.214876137940777, 26.032098955442791 ], [ -98.214337148770298, 26.032098955442791 ], [ -98.214337148770298, 26.031829460857558 ], [ -98.214606643355538, 26.031829460857558 ], [ -98.214606643355538, 26.03102097710185 ], [ -98.215415127111243, 26.03102097710185 ], [ -98.215415127111243, 26.031559966272322 ], [ -98.215684621696482, 26.031559966272322 ], [ -98.215684621696482, 26.032637944613263 ] ] ] ] } },
{ "type": "Feature", "properties": { "ZONA_MET": "Reynosa", "INTENSIDAD": "Intensa", "T_PROM_POL": 3.0, "T_MIN_CIUD": 2.0, "DIF_TERMIC": 1.0 }, "geometry": { "type": "MultiPolygon", "coordinates": [ [ [ [ -98.36579310567285, 26.032637944613263 ], [ -98.36552361108761, 26.032637944613263 ], [ -98.36552361108761, 26.032098955442791 ], [ -98.365254116502385, 26.032098955442791 ], [ -98.365254116502385, 26.032368450028027 ], [ -98.364984621917145, 26.032368450028027 ], [ -98.364984621917145, 26.03102097710185 ], [ -98.36552361108761, 26.03102097710185 ], [ -98.36552361108761, 26.030751482516614 ], [ -98.36579310567285, 26.030751482516614 ], [ -98.36579310567285, 26.031829460857558 ], [ -98.36606260025809, 26.031829460857558 ], [ -98.36606260025809, 26.032368450028027 ], [ -98.36579310567285, 26.032368450028027 ], [ -98.36579310567285, 26.032637944613263 ] ] ] ] } },
{ "type": "Feature", "properties": { "ZONA_MET": "Reynosa", "INTENSIDAD": "Extrema", "T_PROM_POL": 3.0, "T_MIN_CIUD": 2.0, "DIF_TERMIC": 1.0 }, "geometry": { "type": "MultiPolygon", "coordinates": [ [ [ [ -98.219188051304542, 26.031290471687086 ], [ -98.218918556719302, 26.031290471687086 ], [ -98.218918556719302, 26.030751482516614 ], [ -98.219188051304542, 26.030751482516614 ], [ -98.219188051304542, 26.030481987931378 ], [ -98.218649062134077, 26.030481987931378 ], [ -98.218649062134077, 26.030212493346141 ], [ -98.218918556719302, 26.030212493346141 ], [ -98.218918556719302, 26.029942998760905 ], [ -98.219188051304542, 26.029942998760905 ], [ -98.219188051304542, 26.029404009590433 ], [ -98.220266029645487, 26.029404009590433 ], [ -98.220266029645487, 26.029942998760905 ], [ -98.219996535060247, 26.029942998760905 ], [ -98.219996535060247, 26.030212493346141 ], [ -98.219727040475021, 26.030212493346141 ], [ -98.219727040475021, 26.03102097710185 ], [ -98.219188051304542, 26.03102097710185 ], [ -98.219188051304542, 26.031290471687086 ] ], [ [ -98.219457545889782, 26.030481987931378 ], [ -98.219457545889782, 26.030212493346141 ], [ -98.219188051304542, 26.030212493346141 ], [ -98.219188051304542, 26.030481987931378 ], [ -98.219457545889782, 26.030481987931378 ] ] ] ] } },
{ "type": "Feature", "properties": { "ZONA_MET": "Reynosa", "INTENSIDAD": "Extrema", "T_PROM_POL": 3.0, "T_MIN_CIUD": 2.0, "DIF_TERMIC": 1.0 }, "geometry": { "type": "MultiPolygon", "coordinates": [ [ [ [ -98.217032094622652, 26.021858161203831 ], [ -98.216223610866948, 26.021858161203831 ], [ -98.216223610866948, 26.020780182862886 ], [ -98.217032094622652, 26.020780182862886 ], [ -98.217032094622652, 26.021049677448122 ], [ -98.216762600037427, 26.021049677448122 ], [ -98.216762600037427, 26.021319172033358 ], [ -98.217571083793132, 26.021319172033358 ], [ -98.217571083793132, 26.021049677448122 ], [ -98.217840578378372, 26.021049677448122 ], [ -98.217840578378372, 26.021588666618594 ], [ -98.217032094622652, 26.021588666618594 ], [ -98.217032094622652, 26.021858161203831 ] ] ] ] } },
{ "type": "Feature", "properties": { "ZONA_MET": "Reynosa", "INTENSIDAD": "Extrema", "T_PROM_POL": 3.0, "T_MIN_CIUD": 2.0, "DIF_TERMIC": 1.0 }, "geometry": { "type": "MultiPolygon", "coordinates": [ [ [ [ -98.221613502571671, 26.021588666618594 ], [ -98.221344007986431, 26.021588666618594 ], [ -98.221344007986431, 26.021319172033358 ], [ -98.220266029645487, 26.021319172033358 ], [ -98.220266029645487, 26.021049677448122 ], [ -98.219727040475021, 26.021049677448122 ], [ -98.219727040475021, 26.020780182862886 ], [ -98.218649062134077, 26.020780182862886 ], [ -98.218649062134077, 26.02051068827765 ], [ -98.218918556719302, 26.02051068827765 ], [ -98.218918556719302, 26.020241193692414 ], [ -98.218649062134077, 26.020241193692414 ], [ -98.218649062134077, 26.019971699107181 ], [ -98.218918556719302, 26.019971699107181 ], [ -98.218918556719302, 26.019702204521945 ], [ -98.220266029645487, 26.019702204521945 ], [ -98.220266029645487, 26.019971699107181 ], [ -98.221074513401192, 26.019971699107181 ], [ -98.221074513401192, 26.019702204521945 ], [ -98.221344007986431, 26.019702204521945 ], [ -98.221344007986431, 26.019971699107181 ], [ -98.221613502571671, 26.019971699107181 ], [ -98.221613502571671, 26.020241193692414 ], [ -98.222152491742136, 26.020241193692414 ], [ -98.222152491742136, 26.02051068827765 ], [ -98.221613502571671, 26.02051068827765 ], [ -98.221613502571671, 26.021588666618594 ] ], [ [ -98.221074513401192, 26.021049677448122 ], [ -98.221074513401192, 26.020780182862886 ], [ -98.220535524230726, 26.020780182862886 ], [ -98.220535524230726, 26.021049677448122 ], [ -98.221074513401192, 26.021049677448122 ] ] ] ] } },
{ "type": "Feature", "properties": { "ZONA_MET": "Reynosa", "INTENSIDAD": "Intensa", "T_PROM_POL": 3.0, "T_MIN_CIUD": 2.0, "DIF_TERMIC": 1.0 }, "geometry": { "type": "MultiPolygon", "coordinates": [ [ [ [ -98.209755740821294, 26.018893720766236 ], [ -98.208947257065589, 26.018893720766236 ], [ -98.208947257065589, 26.017815742425292 ], [ -98.209755740821294, 26.017815742425292 ], [ -98.209755740821294, 26.017546247840055 ], [ -98.210294729991759, 26.017546247840055 ], [ -98.210294729991759, 26.018085237010528 ], [ -98.210025235406519, 26.018085237010528 ], [ -98.210025235406519, 26.018354731595764 ], [ -98.209755740821294, 26.018354731595764 ], [ -98.209755740821294, 26.018893720766236 ] ] ] ] } },
{ "type": "Feature", "properties": { "ZONA_MET": "Reynosa", "INTENSIDAD": "Extrema", "T_PROM_POL": 3.0, "T_MIN_CIUD": 2.0, "DIF_TERMIC": 1.0 }, "geometry": { "type": "MultiPolygon", "coordinates": [ [ [ [ -98.184423249809115, 26.015929280328642 ], [ -98.183884260638649, 26.015929280328642 ], [ -98.183884260638649, 26.015659785743406 ], [ -98.18361476605341, 26.015659785743406 ], [ -98.18361476605341, 26.01539029115817 ], [ -98.183075776882944, 26.01539029115817 ], [ -98.183075776882944, 26.015120796572933 ], [ -98.182536787712465, 26.015120796572933 ], [ -98.182536787712465, 26.014851301987697 ], [ -98.182267293127225, 26.014851301987697 ], [ -98.182267293127225, 26.014581807402461 ], [ -98.183884260638649, 26.014581807402461 ], [ -98.183884260638649, 26.014851301987697 ], [ -98.184423249809115, 26.014851301987697 ], [ -98.184423249809115, 26.01539029115817 ], [ -98.184153755223889, 26.01539029115817 ], [ -98.184153755223889, 26.015659785743406 ], [ -98.184423249809115, 26.015659785743406 ], [ -98.184423249809115, 26.015929280328642 ] ] ] ] } },
{ "type": "Feature", "properties": { "ZONA_MET": "Reynosa", "INTENSIDAD": "Intensa", "T_PROM_POL": 3.0, "T_MIN_CIUD": 2.0, "DIF_TERMIC": 1.0 }, "geometry": { "type": "MultiPolygon", "coordinates": [ [ [ [ -98.224577943009265, 26.016468269499114 ], [ -98.224038953838786, 26.016468269499114 ], [ -98.224038953838786, 26.015929280328642 ], [ -98.22376945925356, 26.015929280328642 ], [ -98.22376945925356, 26.015659785743406 ], [ -98.224038953838786, 26.015659785743406 ], [ -98.224038953838786, 26.01539029115817 ], [ -98.22376945925356, 26.01539029115817 ], [ -98.22376945925356, 26.015120796572933 ], [ -98.223499964668321, 26.015120796572933 ], [ -98.223499964668321, 26.014581807402461 ], [ -98.223230470083081, 26.014581807402461 ], [ -98.223230470083081, 26.014312312817225 ], [ -98.222960975497841, 26.014312312817225 ], [ -98.222960975497841, 26.014042818231992 ], [ -98.22376945925356, 26.014042818231992 ], [ -98.22376945925356, 26.014312312817225 ], [ -98.224038953838786, 26.014312312817225 ], [ -98.224038953838786, 26.014851301987697 ], [ -98.224577943009265, 26.014851301987697 ], [ -98.224577943009265, 26.015120796572933 ], [ -98.224847437594491, 26.015120796572933 ], [ -98.224847437594491, 26.01539029115817 ], [ -98.224577943009265, 26.01539029115817 ], [ -98.224577943009265, 26.015659785743406 ], [ -98.224847437594491, 26.015659785743406 ], [ -98.224847437594491, 26.015929280328642 ], [ -98.224577943009265, 26.015929280328642 ], [ -98.224577943009265, 26.016468269499114 ] ] ] ] } },
{ "type": "Feature", "properties": { "ZONA_MET": "Reynosa", "INTENSIDAD": "Intensa", "T_PROM_POL": 3.0, "T_MIN_CIUD": 2.0, "DIF_TERMIC": 1.0 }, "geometry": { "type": "MultiPolygon", "coordinates": [ [ [ [ -98.219188051304542, 26.014851301987697 ], [ -98.218379567548837, 26.014851301987697 ], [ -98.218379567548837, 26.014581807402461 ], [ -98.218649062134077, 26.014581807402461 ], [ -98.218649062134077, 26.013773323646756 ], [ -98.218918556719302, 26.013773323646756 ], [ -98.218918556719302, 26.01350382906152 ], [ -98.219457545889782, 26.01350382906152 ], [ -98.219457545889782, 26.014581807402461 ], [ -98.219188051304542, 26.014581807402461 ], [ -98.219188051304542, 26.014851301987697 ] ] ] ] } },
{ "type": "Feature", "properties": { "ZONA_MET": "Reynosa", "INTENSIDAD": "Intensa", "T_PROM_POL": 3.0, "T_MIN_CIUD": 2.0, "DIF_TERMIC": 1.0 }, "geometry": { "type": "MultiPolygon", "coordinates": [ [ [ [ -98.188465668587654, 26.015659785743406 ], [ -98.188196174002414, 26.015659785743406 ], [ -98.188196174002414, 26.014851301987697 ], [ -98.188735163172893, 26.014851301987697 ], [ -98.188735163172893, 26.014581807402461 ], [ -98.188465668587654, 26.014581807402461 ], [ -98.188465668587654, 26.01350382906152 ], [ -98.189004657758133, 26.01350382906152 ], [ -98.189004657758133, 26.012964839891048 ], [ -98.189274152343359, 26.012964839891048 ], [ -98.189274152343359, 26.01350382906152 ], [ -98.189813141513838, 26.01350382906152 ], [ -98.189813141513838, 26.014042818231992 ], [ -98.190082636099078, 26.014042818231992 ], [ -98.190082636099078, 26.014312312817225 ], [ -98.189274152343359, 26.014312312817225 ], [ -98.189274152343359, 26.014042818231992 ], [ -98.189004657758133, 26.014042818231992 ], [ -98.189004657758133, 26.015120796572933 ], [ -98.188735163172893, 26.015120796572933 ], [ -98.188735163172893, 26.01539029115817 ], [ -98.188465668587654, 26.01539029115817 ], [ -98.188465668587654, 26.015659785743406 ] ], [ [ -98.189004657758133, 26.014042818231992 ], [ -98.189004657758133, 26.013773323646756 ], [ -98.188735163172893, 26.013773323646756 ], [ -98.188735163172893, 26.014042818231992 ], [ -98.189004657758133, 26.014042818231992 ] ] ] ] } },
{ "type": "Feature", "properties": { "ZONA_MET": "Reynosa", "INTENSIDAD": "Extrema", "T_PROM_POL": 3.0, "T_MIN_CIUD": 2.0, "DIF_TERMIC": 1.0 }, "geometry": { "type": "MultiPolygon", "coordinates": [ [ [ [ -98.214876137940777, 26.014042818231992 ], [ -98.214067654185058, 26.014042818231992 ], [ -98.214067654185058, 26.01350382906152 ], [ -98.213798159599833, 26.01350382906152 ], [ -98.213798159599833, 26.012695345305811 ], [ -98.212989675844113, 26.012695345305811 ], [ -98.212989675844113, 26.012425850720575 ], [ -98.214337148770298, 26.012425850720575 ], [ -98.214337148770298, 26.012156356135339 ], [ -98.214067654185058, 26.012156356135339 ], [ -98.214067654185058, 26.011886861550103 ], [ -98.214337148770298, 26.011886861550103 ], [ -98.214337148770298, 26.011617366964867 ], [ -98.214067654185058, 26.011617366964867 ], [ -98.214067654185058, 26.011347872379631 ], [ -98.215684621696482, 26.011347872379631 ], [ -98.215684621696482, 26.012425850720575 ], [ -98.215415127111243, 26.012425850720575 ], [ -98.215415127111243, 26.012156356135339 ], [ -98.215145632526003, 26.012156356135339 ], [ -98.215145632526003, 26.012425850720575 ], [ -98.214876137940777, 26.012425850720575 ], [ -98.214876137940777, 26.012695345305811 ], [ -98.215145632526003, 26.012695345305811 ], [ -98.215145632526003, 26.013234334476284 ], [ -98.214606643355538, 26.013234334476284 ], [ -98.214606643355538, 26.01350382906152 ], [ -98.215145632526003, 26.01350382906152 ], [ -98.215145632526003, 26.013773323646756 ], [ -98.214876137940777, 26.013773323646756 ], [ -98.214876137940777, 26.014042818231992 ] ], [ [ -98.214876137940777, 26.011886861550103 ], [ -98.214876137940777, 26.011617366964867 ], [ -98.214606643355538, 26.011617366964867 ], [ -98.214606643355538, 26.011886861550103 ], [ -98.214876137940777, 26.011886861550103 ] ] ] ] } },
{ "type": "Feature", "properties": { "ZONA_MET": "Reynosa", "INTENSIDAD": "Intensa", "T_PROM_POL": 3.0, "T_MIN_CIUD": 2.0, "DIF_TERMIC": 1.0 }, "geometry": { "type": "MultiPolygon", "coordinates": [ [ [ [ -98.215684621696482, 26.014042818231992 ], [ -98.214876137940777, 26.014042818231992 ], [ -98.214876137940777, 26.013773323646756 ], [ -98.215145632526003, 26.013773323646756 ], [ -98.215145632526003, 26.01350382906152 ], [ -98.215954116281708, 26.01350382906152 ], [ -98.215954116281708, 26.013234334476284 ], [ -98.216493105452187, 26.013234334476284 ], [ -98.216493105452187, 26.012156356135339 ], [ -98.216223610866948, 26.012156356135339 ], [ -98.216223610866948, 26.011886861550103 ], [ -98.216493105452187, 26.011886861550103 ], [ -98.216493105452187, 26.011617366964867 ], [ -98.217032094622652, 26.011617366964867 ], [ -98.217032094622652, 26.011347872379631 ], [ -98.218110072963597, 26.011347872379631 ], [ -98.218110072963597, 26.011617366964867 ], [ -98.218379567548837, 26.011617366964867 ], [ -98.218379567548837, 26.011886861550103 ], [ -98.218110072963597, 26.011886861550103 ], [ -98.218110072963597, 26.012425850720575 ], [ -98.217571083793132, 26.012425850720575 ], [ -98.217571083793132, 26.012964839891048 ], [ -98.217301589207892, 26.012964839891048 ], [ -98.217301589207892, 26.012695345305811 ], [ -98.216762600037427, 26.012695345305811 ], [ -98.216762600037427, 26.013773323646756 ], [ -98.215684621696482, 26.013773323646756 ], [ -98.215684621696482, 26.014042818231992 ] ], [ [ -98.217032094622652, 26.012156356135339 ], [ -98.217032094622652, 26.011886861550103 ], [ -98.216762600037427, 26.011886861550103 ], [ -98.216762600037427, 26.012156356135339 ], [ -98.217032094622652, 26.012156356135339 ] ], [ [ -98.217301589207892, 26.011886861550103 ], [ -98.217301589207892, 26.011617366964867 ], [ -98.217032094622652, 26.011617366964867 ], [ -98.217032094622652, 26.011886861550103 ], [ -98.217301589207892, 26.011886861550103 ] ] ] ] } },
{ "type": "Feature", "properties": { "ZONA_MET": "Reynosa", "INTENSIDAD": "Extrema", "T_PROM_POL": 3.0, "T_MIN_CIUD": 2.0, "DIF_TERMIC": 1.0 }, "geometry": { "type": "MultiPolygon", "coordinates": [ [ [ [ -98.217840578378372, 26.011347872379631 ], [ -98.217301589207892, 26.011347872379631 ], [ -98.217301589207892, 26.011078377794398 ], [ -98.216762600037427, 26.011078377794398 ], [ -98.216762600037427, 26.010539388623926 ], [ -98.217032094622652, 26.010539388623926 ], [ -98.217032094622652, 26.010000399453453 ], [ -98.217840578378372, 26.010000399453453 ], [ -98.217840578378372, 26.010539388623926 ], [ -98.218110072963597, 26.010539388623926 ], [ -98.218110072963597, 26.011078377794398 ], [ -98.217840578378372, 26.011078377794398 ], [ -98.217840578378372, 26.011347872379631 ] ] ] ] } },
{ "type": "Feature", "properties": { "ZONA_MET": "Reynosa", "INTENSIDAD": "Intensa", "T_PROM_POL": 3.0, "T_MIN_CIUD": 2.0, "DIF_TERMIC": 1.0 }, "geometry": { "type": "MultiPolygon", "coordinates": [ [ [ [ -98.214337148770298, 26.011347872379631 ], [ -98.212989675844113, 26.011347872379631 ], [ -98.212989675844113, 26.009191915697745 ], [ -98.213259170429353, 26.009191915697745 ], [ -98.213259170429353, 26.008922421112509 ], [ -98.213528665014593, 26.008922421112509 ], [ -98.213528665014593, 26.009730904868217 ], [ -98.214067654185058, 26.009730904868217 ], [ -98.214067654185058, 26.009461410282981 ], [ -98.214606643355538, 26.009461410282981 ], [ -98.214606643355538, 26.009730904868217 ], [ -98.214876137940777, 26.009730904868217 ], [ -98.214876137940777, 26.010000399453453 ], [ -98.214606643355538, 26.010000399453453 ], [ -98.214606643355538, 26.010269894038689 ], [ -98.214337148770298, 26.010269894038689 ], [ -98.214337148770298, 26.010000399453453 ], [ -98.214067654185058, 26.010000399453453 ], [ -98.214067654185058, 26.010808883209162 ], [ -98.214337148770298, 26.010808883209162 ], [ -98.214337148770298, 26.011347872379631 ] ], [ [ -98.213798159599833, 26.010269894038689 ], [ -98.213798159599833, 26.010000399453453 ], [ -98.213528665014593, 26.010000399453453 ], [ -98.213528665014593, 26.010269894038689 ], [ -98.213798159599833, 26.010269894038689 ] ] ] ] } },
{ "type": "Feature", "properties": { "ZONA_MET": "Reynosa", "INTENSIDAD": "Intensa", "T_PROM_POL": 3.0, "T_MIN_CIUD": 2.0, "DIF_TERMIC": 1.0 }, "geometry": { "type": "MultiPolygon", "coordinates": [ [ [ [ -98.215684621696482, 26.009461410282981 ], [ -98.214606643355538, 26.009461410282981 ], [ -98.214606643355538, 26.008383431942036 ], [ -98.214876137940777, 26.008383431942036 ], [ -98.214876137940777, 26.008922421112509 ], [ -98.215415127111243, 26.008922421112509 ], [ -98.215415127111243, 26.008652926527272 ], [ -98.215684621696482, 26.008652926527272 ], [ -98.215684621696482, 26.008383431942036 ], [ -98.216493105452187, 26.008383431942036 ], [ -98.216493105452187, 26.008652926527272 ], [ -98.216223610866948, 26.008652926527272 ], [ -98.216223610866948, 26.008922421112509 ], [ -98.215684621696482, 26.008922421112509 ], [ -98.215684621696482, 26.009461410282981 ] ] ] ] } },
{ "type": "Feature", "properties": { "ZONA_MET": "Reynosa", "INTENSIDAD": "Extrema", "T_PROM_POL": 3.0, "T_MIN_CIUD": 2.0, "DIF_TERMIC": 1.0 }, "geometry": { "type": "MultiPolygon", "coordinates": [ [ [ [ -98.210833719162238, 26.009461410282981 ], [ -98.210025235406519, 26.009461410282981 ], [ -98.210025235406519, 26.008652926527272 ], [ -98.209755740821294, 26.008652926527272 ], [ -98.209755740821294, 26.0081139373568 ], [ -98.210294729991759, 26.0081139373568 ], [ -98.210294729991759, 26.008383431942036 ], [ -98.210833719162238, 26.008383431942036 ], [ -98.210833719162238, 26.009461410282981 ] ] ] ] } },
{ "type": "Feature", "properties": { "ZONA_MET": "Reynosa", "INTENSIDAD": "Intensa", "T_PROM_POL": 3.0, "T_MIN_CIUD": 2.0, "DIF_TERMIC": 1.0 }, "geometry": { "type": "MultiPolygon", "coordinates": [ [ [ [ -98.276590397959779, 26.009191915697745 ], [ -98.275512419618835, 26.009191915697745 ], [ -98.275512419618835, 26.0081139373568 ], [ -98.276051408789314, 26.0081139373568 ], [ -98.276051408789314, 26.008383431942036 ], [ -98.27632090337454, 26.008383431942036 ], [ -98.27632090337454, 26.008652926527272 ], [ -98.276590397959779, 26.008652926527272 ], [ -98.276590397959779, 26.009191915697745 ] ] ] ] } },
{ "type": "Feature", "properties": { "ZONA_MET": "Reynosa", "INTENSIDAD": "Intensa", "T_PROM_POL": 3.0, "T_MIN_CIUD": 2.0, "DIF_TERMIC": 1.0 }, "geometry": { "type": "MultiPolygon", "coordinates": [ [ [ [ -98.27254797918124, 26.006496969845387 ], [ -98.27093101166983, 26.006496969845387 ], [ -98.27093101166983, 26.00622747526015 ], [ -98.270661517084591, 26.00622747526015 ], [ -98.270661517084591, 26.005688486089678 ], [ -98.27093101166983, 26.005688486089678 ], [ -98.27093101166983, 26.005149496919206 ], [ -98.272278484596015, 26.005149496919206 ], [ -98.272278484596015, 26.005418991504442 ], [ -98.27254797918124, 26.005418991504442 ], [ -98.27254797918124, 26.006496969845387 ] ], [ [ -98.272278484596015, 26.005957980674914 ], [ -98.272278484596015, 26.005688486089678 ], [ -98.27120050625507, 26.005688486089678 ], [ -98.27120050625507, 26.005957980674914 ], [ -98.272278484596015, 26.005957980674914 ] ] ] ] } },
{ "type": "Feature", "properties": { "ZONA_MET": "Reynosa", "INTENSIDAD": "Extrema", "T_PROM_POL": 3.0, "T_MIN_CIUD": 2.0, "DIF_TERMIC": 1.0 }, "geometry": { "type": "MultiPolygon", "coordinates": [ [ [ [ -98.280093827567853, 26.003263034822556 ], [ -98.278476860056429, 26.003263034822556 ], [ -98.278476860056429, 26.002454551066847 ], [ -98.279015849226909, 26.002454551066847 ], [ -98.279015849226909, 26.002724045652084 ], [ -98.280093827567853, 26.002724045652084 ], [ -98.280093827567853, 26.003263034822556 ] ] ] ] } },
{ "type": "Feature", "properties": { "ZONA_MET": "Reynosa", "INTENSIDAD": "Intensa", "T_PROM_POL": 3.0, "T_MIN_CIUD": 2.0, "DIF_TERMIC": 1.0 }, "geometry": { "type": "MultiPolygon", "coordinates": [ [ [ [ -98.267966571232236, 25.998951121458784 ], [ -98.267697076646996, 25.998951121458784 ], [ -98.267697076646996, 25.998681626873548 ], [ -98.267158087476531, 25.998681626873548 ], [ -98.267158087476531, 25.998951121458784 ], [ -98.266349603720812, 25.998951121458784 ], [ -98.266349603720812, 25.998681626873548 ], [ -98.266888592891291, 25.998681626873548 ], [ -98.266888592891291, 25.998412132288312 ], [ -98.267158087476531, 25.998412132288312 ], [ -98.267158087476531, 25.998142637703076 ], [ -98.267427582061757, 25.998142637703076 ], [ -98.267427582061757, 25.99787314311784 ], [ -98.267697076646996, 25.99787314311784 ], [ -98.267697076646996, 25.997603648532603 ], [ -98.267427582061757, 25.997603648532603 ], [ -98.267427582061757, 25.997334153947367 ], [ -98.267966571232236, 25.997334153947367 ], [ -98.267966571232236, 25.998951121458784 ] ] ] ] } },
{ "type": "Feature", "properties": { "ZONA_MET": "Reynosa", "INTENSIDAD": "Intensa", "T_PROM_POL": 3.0, "T_MIN_CIUD": 2.0, "DIF_TERMIC": 1.0 }, "geometry": { "type": "MultiPolygon", "coordinates": [ [ [ [ -98.194394549462842, 25.998681626873548 ], [ -98.194125054877617, 25.998681626873548 ], [ -98.194125054877617, 25.997603648532603 ], [ -98.194394549462842, 25.997603648532603 ], [ -98.194394549462842, 25.998142637703076 ], [ -98.194933538633322, 25.998142637703076 ], [ -98.194933538633322, 25.99787314311784 ], [ -98.194664044048082, 25.99787314311784 ], [ -98.194664044048082, 25.997603648532603 ], [ -98.194933538633322, 25.997603648532603 ], [ -98.194933538633322, 25.997334153947367 ], [ -98.195203033218547, 25.997334153947367 ], [ -98.195203033218547, 25.997603648532603 ], [ -98.195742022389027, 25.997603648532603 ], [ -98.195742022389027, 25.99787314311784 ], [ -98.195472527803787, 25.99787314311784 ], [ -98.195472527803787, 25.998142637703076 ], [ -98.195203033218547, 25.998142637703076 ], [ -98.195203033218547, 25.998412132288312 ], [ -98.194394549462842, 25.998412132288312 ], [ -98.194394549462842, 25.998681626873548 ] ] ] ] } },
{ "type": "Feature", "properties": { "ZONA_MET": "Reynosa", "INTENSIDAD": "Extrema", "T_PROM_POL": 3.0, "T_MIN_CIUD": 2.0, "DIF_TERMIC": 1.0 }, "geometry": { "type": "MultiPolygon", "coordinates": [ [ [ [ -98.194125054877617, 25.998681626873548 ], [ -98.193586065707137, 25.998681626873548 ], [ -98.193586065707137, 25.998142637703076 ], [ -98.193316571121898, 25.998142637703076 ], [ -98.193316571121898, 25.998412132288312 ], [ -98.191699603610488, 25.998412132288312 ], [ -98.191699603610488, 25.998142637703076 ], [ -98.191969098195727, 25.998142637703076 ], [ -98.191969098195727, 25.99787314311784 ], [ -98.192508087366193, 25.99787314311784 ], [ -98.192508087366193, 25.997334153947367 ], [ -98.192777581951432, 25.997334153947367 ], [ -98.192777581951432, 25.997064659362131 ], [ -98.193047076536672, 25.997064659362131 ], [ -98.193047076536672, 25.996795164776895 ], [ -98.193316571121898, 25.996795164776895 ], [ -98.193316571121898, 25.997064659362131 ], [ -98.193586065707137, 25.997064659362131 ], [ -98.193586065707137, 25.997334153947367 ], [ -98.194125054877617, 25.997334153947367 ], [ -98.194125054877617, 25.998681626873548 ] ] ] ] } },
{ "type": "Feature", "properties": { "ZONA_MET": "Reynosa", "INTENSIDAD": "Intensa", "T_PROM_POL": 3.0, "T_MIN_CIUD": 2.0, "DIF_TERMIC": 1.0 }, "geometry": { "type": "MultiPolygon", "coordinates": [ [ [ [ -98.205174332872275, 25.998142637703076 ], [ -98.20409635453133, 25.998142637703076 ], [ -98.20409635453133, 25.997603648532603 ], [ -98.203557365360865, 25.997603648532603 ], [ -98.203557365360865, 25.997064659362131 ], [ -98.203287870775625, 25.997064659362131 ], [ -98.203287870775625, 25.996525670191659 ], [ -98.20463534370181, 25.996525670191659 ], [ -98.20463534370181, 25.996795164776895 ], [ -98.20490483828705, 25.996795164776895 ], [ -98.20490483828705, 25.997603648532603 ], [ -98.205174332872275, 25.997603648532603 ], [ -98.205174332872275, 25.998142637703076 ] ], [ [ -98.20490483828705, 25.99787314311784 ], [ -98.20490483828705, 25.997603648532603 ], [ -98.20463534370181, 25.997603648532603 ], [ -98.20463534370181, 25.99787314311784 ], [ -98.20490483828705, 25.99787314311784 ] ] ] ] } },
{ "type": "Feature", "properties": { "ZONA_MET": "Reynosa", "INTENSIDAD": "Intensa", "T_PROM_POL": 3.0, "T_MIN_CIUD": 2.0, "DIF_TERMIC": 1.0 }, "geometry": { "type": "MultiPolygon", "coordinates": [ [ [ [ -98.200323430338031, 25.998142637703076 ], [ -98.198975957411861, 25.998142637703076 ], [ -98.198975957411861, 25.996795164776895 ], [ -98.199245451997086, 25.996795164776895 ], [ -98.199245451997086, 25.996525670191659 ], [ -98.199784441167566, 25.996525670191659 ], [ -98.199784441167566, 25.996795164776895 ], [ -98.200053935752806, 25.996795164776895 ], [ -98.200053935752806, 25.997064659362131 ], [ -98.200323430338031, 25.997064659362131 ], [ -98.200323430338031, 25.998142637703076 ] ], [ [ -98.200053935752806, 25.997334153947367 ], [ -98.200053935752806, 25.997064659362131 ], [ -98.199784441167566, 25.997064659362131 ], [ -98.199784441167566, 25.997334153947367 ], [ -98.200053935752806, 25.997334153947367 ] ] ] ] } },
{ "type": "Feature", "properties": { "ZONA_MET": "Reynosa", "INTENSIDAD": "Extrema", "T_PROM_POL": 3.0, "T_MIN_CIUD": 2.0, "DIF_TERMIC": 1.0 }, "geometry": { "type": "MultiPolygon", "coordinates": [ [ [ [ -98.195742022389027, 25.997603648532603 ], [ -98.195203033218547, 25.997603648532603 ], [ -98.195203033218547, 25.997334153947367 ], [ -98.194933538633322, 25.997334153947367 ], [ -98.194933538633322, 25.996525670191659 ], [ -98.196281011559492, 25.996525670191659 ], [ -98.196281011559492, 25.997064659362131 ], [ -98.196011516974266, 25.997064659362131 ], [ -98.196011516974266, 25.997334153947367 ], [ -98.195742022389027, 25.997334153947367 ], [ -98.195742022389027, 25.997603648532603 ] ] ] ] } },
{ "type": "Feature", "properties": { "ZONA_MET": "Reynosa", "INTENSIDAD": "Intensa", "T_PROM_POL": 3.0, "T_MIN_CIUD": 2.0, "DIF_TERMIC": 1.0 }, "geometry": { "type": "MultiPolygon", "coordinates": [ [ [ [ -98.197089495315211, 25.996525670191659 ], [ -98.196820000729971, 25.996525670191659 ], [ -98.196820000729971, 25.99598668102119 ], [ -98.195742022389027, 25.99598668102119 ], [ -98.195742022389027, 25.996256175606423 ], [ -98.195472527803787, 25.996256175606423 ], [ -98.195472527803787, 25.99598668102119 ], [ -98.194933538633322, 25.99598668102119 ], [ -98.194933538633322, 25.995447691850718 ], [ -98.195203033218547, 25.995447691850718 ], [ -98.195203033218547, 25.995178197265481 ], [ -98.196550506144732, 25.995178197265481 ], [ -98.196550506144732, 25.995447691850718 ], [ -98.196011516974266, 25.995447691850718 ], [ -98.196011516974266, 25.995717186435954 ], [ -98.196820000729971, 25.995717186435954 ], [ -98.196820000729971, 25.995178197265481 ], [ -98.197089495315211, 25.995178197265481 ], [ -98.197089495315211, 25.994908702680245 ], [ -98.197628484485676, 25.994908702680245 ], [ -98.197628484485676, 25.995178197265481 ], [ -98.197358989900437, 25.995178197265481 ], [ -98.197358989900437, 25.996256175606423 ], [ -98.197089495315211, 25.996256175606423 ], [ -98.197089495315211, 25.996525670191659 ] ] ] ] } },
{ "type": "Feature", "properties": { "ZONA_MET": "Reynosa", "INTENSIDAD": "Extrema", "T_PROM_POL": 3.0, "T_MIN_CIUD": 2.0, "DIF_TERMIC": 1.0 }, "geometry": { "type": "MultiPolygon", "coordinates": [ [ [ [ -98.2030183761904, 25.997064659362131 ], [ -98.202209892434681, 25.997064659362131 ], [ -98.202209892434681, 25.996256175606423 ], [ -98.201401408678976, 25.996256175606423 ], [ -98.201401408678976, 25.995717186435954 ], [ -98.20086241950851, 25.995717186435954 ], [ -98.20086241950851, 25.995447691850718 ], [ -98.200592924923271, 25.995447691850718 ], [ -98.200592924923271, 25.99598668102119 ], [ -98.198436968241381, 25.99598668102119 ], [ -98.198436968241381, 25.996256175606423 ], [ -98.197358989900437, 25.996256175606423 ], [ -98.197358989900437, 25.995178197265481 ], [ -98.197628484485676, 25.995178197265481 ], [ -98.197628484485676, 25.994908702680245 ], [ -98.198436968241381, 25.994908702680245 ], [ -98.198436968241381, 25.995178197265481 ], [ -98.198706462826621, 25.995178197265481 ], [ -98.198706462826621, 25.994908702680245 ], [ -98.200592924923271, 25.994908702680245 ], [ -98.200592924923271, 25.995178197265481 ], [ -98.20086241950851, 25.995178197265481 ], [ -98.20086241950851, 25.994908702680245 ], [ -98.202209892434681, 25.994908702680245 ], [ -98.202209892434681, 25.994369713509773 ], [ -98.20274888160516, 25.994369713509773 ], [ -98.20274888160516, 25.994908702680245 ], [ -98.2030183761904, 25.994908702680245 ], [ -98.2030183761904, 25.995717186435954 ], [ -98.203287870775625, 25.995717186435954 ], [ -98.203287870775625, 25.995178197265481 ], [ -98.203557365360865, 25.995178197265481 ], [ -98.203557365360865, 25.995717186435954 ], [ -98.203826859946105, 25.995717186435954 ], [ -98.203826859946105, 25.99598668102119 ], [ -98.203287870775625, 25.99598668102119 ], [ -98.203287870775625, 25.996256175606423 ], [ -98.203557365360865, 25.996256175606423 ], [ -98.203557365360865, 25.996525670191659 ], [ -98.203287870775625, 25.996525670191659 ], [ -98.203287870775625, 25.996795164776895 ], [ -98.2030183761904, 25.996795164776895 ], [ -98.2030183761904, 25.997064659362131 ] ] ] ] } },
{ "type": "Feature", "properties": { "ZONA_MET": "Reynosa", "INTENSIDAD": "Extrema", "T_PROM_POL": 3.0, "T_MIN_CIUD": 2.0, "DIF_TERMIC": 1.0 }, "geometry": { "type": "MultiPolygon", "coordinates": [ [ [ [ -98.200323430338031, 25.994639208095009 ], [ -98.200053935752806, 25.994639208095009 ], [ -98.200053935752806, 25.994369713509773 ], [ -98.199245451997086, 25.994369713509773 ], [ -98.199245451997086, 25.994639208095009 ], [ -98.198975957411861, 25.994639208095009 ], [ -98.198975957411861, 25.994369713509773 ], [ -98.198706462826621, 25.994369713509773 ], [ -98.198706462826621, 25.993291735168828 ], [ -98.199245451997086, 25.993291735168828 ], [ -98.199245451997086, 25.992752745998359 ], [ -98.200592924923271, 25.992752745998359 ], [ -98.200592924923271, 25.993561229754064 ], [ -98.20086241950851, 25.993561229754064 ], [ -98.20086241950851, 25.993830724339301 ], [ -98.200592924923271, 25.993830724339301 ], [ -98.200592924923271, 25.994100218924537 ], [ -98.200323430338031, 25.994100218924537 ], [ -98.200323430338031, 25.994639208095009 ] ] ] ] } },
{ "type": "Feature", "properties": { "ZONA_MET": "Reynosa", "INTENSIDAD": "Intensa", "T_PROM_POL": 3.0, "T_MIN_CIUD": 2.0, "DIF_TERMIC": 1.0 }, "geometry": { "type": "MultiPolygon", "coordinates": [ [ [ [ -98.20409635453133, 25.994639208095009 ], [ -98.20274888160516, 25.994639208095009 ], [ -98.20274888160516, 25.994369713509773 ], [ -98.203557365360865, 25.994369713509773 ], [ -98.203557365360865, 25.994100218924537 ], [ -98.203826859946105, 25.994100218924537 ], [ -98.203826859946105, 25.991674767657415 ], [ -98.20409635453133, 25.991674767657415 ], [ -98.20409635453133, 25.991944262242651 ], [ -98.20436584911657, 25.991944262242651 ], [ -98.20436584911657, 25.993022240583596 ], [ -98.20409635453133, 25.993022240583596 ], [ -98.20409635453133, 25.994639208095009 ] ] ] ] } },
{ "type": "Feature", "properties": { "ZONA_MET": "Reynosa", "INTENSIDAD": "Intensa", "T_PROM_POL": 3.0, "T_MIN_CIUD": 2.0, "DIF_TERMIC": 1.0 }, "geometry": { "type": "MultiPolygon", "coordinates": [ [ [ [ -98.268775054987941, 25.986823865123171 ], [ -98.268236065817476, 25.986823865123171 ], [ -98.268236065817476, 25.985745886782226 ], [ -98.267966571232236, 25.985745886782226 ], [ -98.267966571232236, 25.98547639219699 ], [ -98.268775054987941, 25.98547639219699 ], [ -98.268775054987941, 25.985206897611754 ], [ -98.268236065817476, 25.985206897611754 ], [ -98.268236065817476, 25.984937403026517 ], [ -98.268775054987941, 25.984937403026517 ], [ -98.268775054987941, 25.984667908441281 ], [ -98.269044549573181, 25.984667908441281 ], [ -98.269044549573181, 25.985745886782226 ], [ -98.268775054987941, 25.985745886782226 ], [ -98.268775054987941, 25.986284875952698 ], [ -98.269044549573181, 25.986284875952698 ], [ -98.269044549573181, 25.986554370537934 ], [ -98.268775054987941, 25.986554370537934 ], [ -98.268775054987941, 25.986823865123171 ] ] ] ] } },
{ "type": "Feature", "properties": { "ZONA_MET": "Reynosa", "INTENSIDAD": "Intensa", "T_PROM_POL": 3.0, "T_MIN_CIUD": 2.0, "DIF_TERMIC": 1.0 }, "geometry": { "type": "MultiPolygon", "coordinates": [ [ [ [ -98.278207365471204, 25.979547511321801 ], [ -98.276590397959779, 25.979547511321801 ], [ -98.276590397959779, 25.979278016736565 ], [ -98.276859892545019, 25.979278016736565 ], [ -98.276859892545019, 25.979008522151329 ], [ -98.277129387130259, 25.979008522151329 ], [ -98.277129387130259, 25.978739027566093 ], [ -98.277937870885964, 25.978739027566093 ], [ -98.277937870885964, 25.977930543810388 ], [ -98.278476860056429, 25.977930543810388 ], [ -98.278476860056429, 25.97820003839562 ], [ -98.278746354641669, 25.97820003839562 ], [ -98.278746354641669, 25.978739027566093 ], [ -98.278476860056429, 25.978739027566093 ], [ -98.278476860056429, 25.979008522151329 ], [ -98.278207365471204, 25.979008522151329 ], [ -98.278207365471204, 25.979547511321801 ] ], [ [ -98.277398881715484, 25.979278016736565 ], [ -98.277398881715484, 25.979008522151329 ], [ -98.277129387130259, 25.979008522151329 ], [ -98.277129387130259, 25.979278016736565 ], [ -98.277398881715484, 25.979278016736565 ] ] ] ] } },
{ "type": "Feature", "properties": { "ZONA_MET": "Reynosa", "INTENSIDAD": "Intensa", "T_PROM_POL": 3.0, "T_MIN_CIUD": 2.0, "DIF_TERMIC": 1.0 }, "geometry": { "type": "MultiPolygon", "coordinates": [ [ [ [ -98.271739495425535, 25.972001662935199 ], [ -98.271470000840296, 25.972001662935199 ], [ -98.271470000840296, 25.971732168349963 ], [ -98.269314044158421, 25.971732168349963 ], [ -98.269314044158421, 25.971462673764727 ], [ -98.269583538743646, 25.971462673764727 ], [ -98.269583538743646, 25.97119317917949 ], [ -98.270661517084591, 25.97119317917949 ], [ -98.270661517084591, 25.970384695423782 ], [ -98.271470000840296, 25.970384695423782 ], [ -98.271470000840296, 25.969845706253309 ], [ -98.271739495425535, 25.969845706253309 ], [ -98.271739495425535, 25.970923684594254 ], [ -98.271470000840296, 25.970923684594254 ], [ -98.271470000840296, 25.971462673764727 ], [ -98.271739495425535, 25.971462673764727 ], [ -98.271739495425535, 25.972001662935199 ] ] ] ] } },
{ "type": "Feature", "properties": { "ZONA_MET": "Reynosa", "INTENSIDAD": "Intensa", "T_PROM_POL": 3.0, "T_MIN_CIUD": 2.0, "DIF_TERMIC": 1.0 }, "geometry": { "type": "MultiPolygon", "coordinates": [ [ [ [ -98.261229206601342, 25.967420254986187 ], [ -98.260959712016103, 25.967420254986187 ], [ -98.260959712016103, 25.967150760400951 ], [ -98.260420722845623, 25.967150760400951 ], [ -98.260420722845623, 25.967420254986187 ], [ -98.260151228260398, 25.967420254986187 ], [ -98.260151228260398, 25.967150760400951 ], [ -98.259881733675158, 25.967150760400951 ], [ -98.259881733675158, 25.966881265815715 ], [ -98.259612239089918, 25.966881265815715 ], [ -98.259612239089918, 25.966611771230479 ], [ -98.260420722845623, 25.966611771230479 ], [ -98.260420722845623, 25.966881265815715 ], [ -98.262307184942287, 25.966881265815715 ], [ -98.262307184942287, 25.967150760400951 ], [ -98.261229206601342, 25.967150760400951 ], [ -98.261229206601342, 25.967420254986187 ] ] ] ] } }
]
}
