{
"type": "FeatureCollection",
"name": "UHI_Canc_n",
"crs": { "type": "name", "properties": { "name": "urn:ogc:def:crs:OGC:1.3:CRS84" } },
"features": [
{ "type": "Feature", "properties": { "ZONA_MET": "Canc_n", "INTENSIDAD": "Intensa", "T_PROM_POL": 3.0, "T_MIN_CIUD": 2.0, "DIF_TERMIC": 1.0 }, "geometry": { "type": "MultiPolygon", "coordinates": [ [ [ [ -86.844091103084281, 21.193054182947755 ], [ -86.843282619328576, 21.193054182947755 ], [ -86.843282619328576, 21.192784688362519 ], [ -86.843013124743337, 21.192784688362519 ], [ -86.843013124743337, 21.19197620460681 ], [ -86.843282619328576, 21.19197620460681 ], [ -86.843282619328576, 21.192245699192046 ], [ -86.844091103084281, 21.192245699192046 ], [ -86.844091103084281, 21.193054182947755 ] ] ] ] } },
{ "type": "Feature", "properties": { "ZONA_MET": "Canc_n", "INTENSIDAD": "Intensa", "T_PROM_POL": 3.0, "T_MIN_CIUD": 2.0, "DIF_TERMIC": 1.0 }, "geometry": { "type": "MultiPolygon", "coordinates": [ [ [ [ -86.836006265527203, 21.194132161288696 ], [ -86.834928287186258, 21.194132161288696 ], [ -86.834928287186258, 21.193593172118227 ], [ -86.834658792601033, 21.193593172118227 ], [ -86.834658792601033, 21.193323677532991 ], [ -86.834928287186258, 21.193323677532991 ], [ -86.834928287186258, 21.193054182947755 ], [ -86.835197781771498, 21.193054182947755 ], [ -86.835197781771498, 21.192784688362519 ], [ -86.834928287186258, 21.192784688362519 ], [ -86.834928287186258, 21.19197620460681 ], [ -86.835197781771498, 21.19197620460681 ], [ -86.835197781771498, 21.192245699192046 ], [ -86.835467276356738, 21.192245699192046 ], [ -86.835467276356738, 21.19197620460681 ], [ -86.836006265527203, 21.19197620460681 ], [ -86.836006265527203, 21.192784688362519 ], [ -86.835467276356738, 21.192784688362519 ], [ -86.835467276356738, 21.193323677532991 ], [ -86.836006265527203, 21.193323677532991 ], [ -86.836006265527203, 21.194132161288696 ] ] ] ] } },
{ "type": "Feature", "properties": { "ZONA_MET": "Canc_n", "INTENSIDAD": "Intensa", "T_PROM_POL": 3.0, "T_MIN_CIUD": 2.0, "DIF_TERMIC": 1.0 }, "geometry": { "type": "MultiPolygon", "coordinates": [ [ [ [ -86.828460417140604, 21.190628731680633 ], [ -86.827921427970125, 21.190628731680633 ], [ -86.827921427970125, 21.190359237095397 ], [ -86.82738243879966, 21.190359237095397 ], [ -86.82738243879966, 21.190628731680633 ], [ -86.826034965873475, 21.190628731680633 ], [ -86.826034965873475, 21.19008974251016 ], [ -86.826573955043955, 21.19008974251016 ], [ -86.826573955043955, 21.190359237095397 ], [ -86.82684344962918, 21.190359237095397 ], [ -86.82684344962918, 21.189820247924924 ], [ -86.82711294421442, 21.189820247924924 ], [ -86.82711294421442, 21.189550753339688 ], [ -86.82738243879966, 21.189550753339688 ], [ -86.82738243879966, 21.189281258754452 ], [ -86.82711294421442, 21.189281258754452 ], [ -86.82711294421442, 21.189011764169216 ], [ -86.82738243879966, 21.189011764169216 ], [ -86.82738243879966, 21.18874226958398 ], [ -86.827921427970125, 21.18874226958398 ], [ -86.827921427970125, 21.189281258754452 ], [ -86.828190922555365, 21.189281258754452 ], [ -86.828190922555365, 21.189550753339688 ], [ -86.828460417140604, 21.189550753339688 ], [ -86.828460417140604, 21.190628731680633 ] ], [ [ -86.828190922555365, 21.19008974251016 ], [ -86.828190922555365, 21.189820247924924 ], [ -86.82738243879966, 21.189820247924924 ], [ -86.82738243879966, 21.19008974251016 ], [ -86.828190922555365, 21.19008974251016 ] ] ] ] } },
{ "type": "Feature", "properties": { "ZONA_MET": "Canc_n", "INTENSIDAD": "Intensa", "T_PROM_POL": 3.0, "T_MIN_CIUD": 2.0, "DIF_TERMIC": 1.0 }, "geometry": { "type": "MultiPolygon", "coordinates": [ [ [ [ -86.82549597670301, 21.190898226265869 ], [ -86.824956987532531, 21.190898226265869 ], [ -86.824956987532531, 21.19008974251016 ], [ -86.824417998362065, 21.19008974251016 ], [ -86.824417998362065, 21.189820247924924 ], [ -86.82360951460636, 21.189820247924924 ], [ -86.82360951460636, 21.190628731680633 ], [ -86.823070525435881, 21.190628731680633 ], [ -86.823070525435881, 21.190359237095397 ], [ -86.822801030850655, 21.190359237095397 ], [ -86.822801030850655, 21.189820247924924 ], [ -86.823340020021121, 21.189820247924924 ], [ -86.823340020021121, 21.189281258754452 ], [ -86.82360951460636, 21.189281258754452 ], [ -86.82360951460636, 21.189011764169216 ], [ -86.824148503776826, 21.189011764169216 ], [ -86.824148503776826, 21.18874226958398 ], [ -86.824417998362065, 21.18874226958398 ], [ -86.824417998362065, 21.189281258754452 ], [ -86.824956987532531, 21.189281258754452 ], [ -86.824956987532531, 21.189550753339688 ], [ -86.824687492947305, 21.189550753339688 ], [ -86.824687492947305, 21.189820247924924 ], [ -86.82576547128825, 21.189820247924924 ], [ -86.82576547128825, 21.189011764169216 ], [ -86.826034965873475, 21.189011764169216 ], [ -86.826034965873475, 21.189281258754452 ], [ -86.826573955043955, 21.189281258754452 ], [ -86.826573955043955, 21.189550753339688 ], [ -86.82684344962918, 21.189550753339688 ], [ -86.82684344962918, 21.189820247924924 ], [ -86.826304460458715, 21.189820247924924 ], [ -86.826304460458715, 21.189550753339688 ], [ -86.826034965873475, 21.189550753339688 ], [ -86.826034965873475, 21.19008974251016 ], [ -86.82549597670301, 21.19008974251016 ], [ -86.82549597670301, 21.190898226265869 ] ] ] ] } },
{ "type": "Feature", "properties": { "ZONA_MET": "Canc_n", "INTENSIDAD": "Intensa", "T_PROM_POL": 3.0, "T_MIN_CIUD": 2.0, "DIF_TERMIC": 1.0 }, "geometry": { "type": "MultiPolygon", "coordinates": [ [ [ [ -86.831963846748664, 21.194940645044404 ], [ -86.830885868407719, 21.194940645044404 ], [ -86.830885868407719, 21.193862666703463 ], [ -86.82899940631107, 21.193862666703463 ], [ -86.82899940631107, 21.193323677532991 ], [ -86.829268900896309, 21.193323677532991 ], [ -86.829268900896309, 21.193593172118227 ], [ -86.830077384652014, 21.193593172118227 ], [ -86.830077384652014, 21.193323677532991 ], [ -86.830616373822494, 21.193323677532991 ], [ -86.830616373822494, 21.193054182947755 ], [ -86.830885868407719, 21.193054182947755 ], [ -86.830885868407719, 21.193593172118227 ], [ -86.832502835919144, 21.193593172118227 ], [ -86.832502835919144, 21.193054182947755 ], [ -86.831963846748664, 21.193054182947755 ], [ -86.831963846748664, 21.192784688362519 ], [ -86.832233341333904, 21.192784688362519 ], [ -86.832233341333904, 21.192245699192046 ], [ -86.831155362992959, 21.192245699192046 ], [ -86.831155362992959, 21.19197620460681 ], [ -86.830077384652014, 21.19197620460681 ], [ -86.830077384652014, 21.191706710021574 ], [ -86.830346879237254, 21.191706710021574 ], [ -86.830346879237254, 21.191437215436338 ], [ -86.830616373822494, 21.191437215436338 ], [ -86.830616373822494, 21.191167720851102 ], [ -86.830885868407719, 21.191167720851102 ], [ -86.830885868407719, 21.190898226265869 ], [ -86.831963846748664, 21.190898226265869 ], [ -86.831963846748664, 21.191167720851102 ], [ -86.831424857578199, 21.191167720851102 ], [ -86.831424857578199, 21.191437215436338 ], [ -86.832233341333904, 21.191437215436338 ], [ -86.832233341333904, 21.19197620460681 ], [ -86.832772330504369, 21.19197620460681 ], [ -86.832772330504369, 21.191437215436338 ], [ -86.833311319674849, 21.191437215436338 ], [ -86.833311319674849, 21.191167720851102 ], [ -86.833041825089609, 21.191167720851102 ], [ -86.833041825089609, 21.190359237095397 ], [ -86.833311319674849, 21.190359237095397 ], [ -86.833311319674849, 21.189550753339688 ], [ -86.833041825089609, 21.189550753339688 ], [ -86.833041825089609, 21.189011764169216 ], [ -86.832772330504369, 21.189011764169216 ], [ -86.832772330504369, 21.188472774998743 ], [ -86.833041825089609, 21.188472774998743 ], [ -86.833041825089609, 21.18874226958398 ], [ -86.833311319674849, 21.18874226958398 ], [ -86.833311319674849, 21.189281258754452 ], [ -86.833850308845314, 21.189281258754452 ], [ -86.833850308845314, 21.189550753339688 ], [ -86.833580814260088, 21.189550753339688 ], [ -86.833580814260088, 21.189820247924924 ], [ -86.833850308845314, 21.189820247924924 ], [ -86.833850308845314, 21.19008974251016 ], [ -86.834658792601033, 21.19008974251016 ], [ -86.834658792601033, 21.189820247924924 ], [ -86.835467276356738, 21.189820247924924 ], [ -86.835467276356738, 21.189550753339688 ], [ -86.836275760112443, 21.189550753339688 ], [ -86.836275760112443, 21.19008974251016 ], [ -86.834928287186258, 21.19008974251016 ], [ -86.834928287186258, 21.190359237095397 ], [ -86.834119803430553, 21.190359237095397 ], [ -86.834119803430553, 21.191167720851102 ], [ -86.834389298015793, 21.191167720851102 ], [ -86.834389298015793, 21.191706710021574 ], [ -86.834658792601033, 21.191706710021574 ], [ -86.834658792601033, 21.192245699192046 ], [ -86.834389298015793, 21.192245699192046 ], [ -86.834389298015793, 21.192515193777282 ], [ -86.834119803430553, 21.192515193777282 ], [ -86.834119803430553, 21.192245699192046 ], [ -86.833850308845314, 21.192245699192046 ], [ -86.833850308845314, 21.192515193777282 ], [ -86.833580814260088, 21.192515193777282 ], [ -86.833580814260088, 21.193054182947755 ], [ -86.834119803430553, 21.193054182947755 ], [ -86.834119803430553, 21.193593172118227 ], [ -86.833850308845314, 21.193593172118227 ], [ -86.833850308845314, 21.193323677532991 ], [ -86.833580814260088, 21.193323677532991 ], [ -86.833580814260088, 21.193862666703463 ], [ -86.833850308845314, 21.193862666703463 ], [ -86.833850308845314, 21.194401655873932 ], [ -86.832502835919144, 21.194401655873932 ], [ -86.832502835919144, 21.194671150459168 ], [ -86.831963846748664, 21.194671150459168 ], [ -86.831963846748664, 21.194940645044404 ] ], [ [ -86.833041825089609, 21.194132161288696 ], [ -86.833041825089609, 21.193862666703463 ], [ -86.832772330504369, 21.193862666703463 ], [ -86.832772330504369, 21.194132161288696 ], [ -86.833041825089609, 21.194132161288696 ] ], [ [ -86.833311319674849, 21.193323677532991 ], [ -86.833311319674849, 21.192784688362519 ], [ -86.833041825089609, 21.192784688362519 ], [ -86.833041825089609, 21.193323677532991 ], [ -86.833311319674849, 21.193323677532991 ] ], [ [ -86.833041825089609, 21.192245699192046 ], [ -86.833041825089609, 21.19197620460681 ], [ -86.832772330504369, 21.19197620460681 ], [ -86.832772330504369, 21.192245699192046 ], [ -86.833041825089609, 21.192245699192046 ] ], [ [ -86.834119803430553, 21.19197620460681 ], [ -86.834119803430553, 21.191437215436338 ], [ -86.833580814260088, 21.191437215436338 ], [ -86.833580814260088, 21.191706710021574 ], [ -86.833850308845314, 21.191706710021574 ], [ -86.833850308845314, 21.19197620460681 ], [ -86.834119803430553, 21.19197620460681 ] ], [ [ -86.831424857578199, 21.191706710021574 ], [ -86.831424857578199, 21.191437215436338 ], [ -86.831155362992959, 21.191437215436338 ], [ -86.831155362992959, 21.191706710021574 ], [ -86.831424857578199, 21.191706710021574 ] ], [ [ -86.830885868407719, 21.191706710021574 ], [ -86.830885868407719, 21.191437215436338 ], [ -86.830616373822494, 21.191437215436338 ], [ -86.830616373822494, 21.191706710021574 ], [ -86.830885868407719, 21.191706710021574 ] ] ] ] } },
{ "type": "Feature", "properties": { "ZONA_MET": "Canc_n", "INTENSIDAD": "Intensa", "T_PROM_POL": 3.0, "T_MIN_CIUD": 2.0, "DIF_TERMIC": 1.0 }, "geometry": { "type": "MultiPolygon", "coordinates": [ [ [ [ -86.837892727623853, 21.19008974251016 ], [ -86.837623233038613, 21.19008974251016 ], [ -86.837623233038613, 21.189820247924924 ], [ -86.837084243868148, 21.189820247924924 ], [ -86.837084243868148, 21.189550753339688 ], [ -86.836814749282908, 21.189550753339688 ], [ -86.836814749282908, 21.188472774998743 ], [ -86.837353738453388, 21.188472774998743 ], [ -86.837353738453388, 21.187933785828275 ], [ -86.837892727623853, 21.187933785828275 ], [ -86.837892727623853, 21.188203280413507 ], [ -86.838431716794332, 21.188203280413507 ], [ -86.838431716794332, 21.18874226958398 ], [ -86.837353738453388, 21.18874226958398 ], [ -86.837353738453388, 21.189011764169216 ], [ -86.837084243868148, 21.189011764169216 ], [ -86.837084243868148, 21.189281258754452 ], [ -86.837623233038613, 21.189281258754452 ], [ -86.837623233038613, 21.189550753339688 ], [ -86.837892727623853, 21.189550753339688 ], [ -86.837892727623853, 21.19008974251016 ] ] ] ] } },
{ "type": "Feature", "properties": { "ZONA_MET": "Canc_n", "INTENSIDAD": "Intensa", "T_PROM_POL": 3.0, "T_MIN_CIUD": 2.0, "DIF_TERMIC": 1.0 }, "geometry": { "type": "MultiPolygon", "coordinates": [ [ [ [ -86.837623233038613, 21.187125302072566 ], [ -86.836545254697683, 21.187125302072566 ], [ -86.836545254697683, 21.186047323731621 ], [ -86.836275760112443, 21.186047323731621 ], [ -86.836275760112443, 21.185777829146385 ], [ -86.836545254697683, 21.185777829146385 ], [ -86.836545254697683, 21.185508334561149 ], [ -86.837084243868148, 21.185508334561149 ], [ -86.837084243868148, 21.185238839975913 ], [ -86.837623233038613, 21.185238839975913 ], [ -86.837623233038613, 21.185508334561149 ], [ -86.837892727623853, 21.185508334561149 ], [ -86.837892727623853, 21.186047323731621 ], [ -86.837623233038613, 21.186047323731621 ], [ -86.837623233038613, 21.186316818316858 ], [ -86.837084243868148, 21.186316818316858 ], [ -86.837084243868148, 21.18685580748733 ], [ -86.837623233038613, 21.18685580748733 ], [ -86.837623233038613, 21.187125302072566 ] ] ] ] } },
{ "type": "Feature", "properties": { "ZONA_MET": "Canc_n", "INTENSIDAD": "Intensa", "T_PROM_POL": 3.0, "T_MIN_CIUD": 2.0, "DIF_TERMIC": 1.0 }, "geometry": { "type": "MultiPolygon", "coordinates": [ [ [ [ -86.835197781771498, 21.186047323731621 ], [ -86.834928287186258, 21.186047323731621 ], [ -86.834928287186258, 21.185777829146385 ], [ -86.834389298015793, 21.185777829146385 ], [ -86.834389298015793, 21.185508334561149 ], [ -86.834119803430553, 21.185508334561149 ], [ -86.834119803430553, 21.185777829146385 ], [ -86.833850308845314, 21.185777829146385 ], [ -86.833850308845314, 21.185238839975913 ], [ -86.833311319674849, 21.185238839975913 ], [ -86.833311319674849, 21.184969345390677 ], [ -86.834928287186258, 21.184969345390677 ], [ -86.834928287186258, 21.185508334561149 ], [ -86.835197781771498, 21.185508334561149 ], [ -86.835197781771498, 21.186047323731621 ] ] ] ] } },
{ "type": "Feature", "properties": { "ZONA_MET": "Canc_n", "INTENSIDAD": "Intensa", "T_PROM_POL": 3.0, "T_MIN_CIUD": 2.0, "DIF_TERMIC": 1.0 }, "geometry": { "type": "MultiPolygon", "coordinates": [ [ [ [ -86.831155362992959, 21.187664291243038 ], [ -86.830346879237254, 21.187664291243038 ], [ -86.830346879237254, 21.187394796657802 ], [ -86.830077384652014, 21.187394796657802 ], [ -86.830077384652014, 21.187664291243038 ], [ -86.829807890066775, 21.187664291243038 ], [ -86.829807890066775, 21.18685580748733 ], [ -86.830077384652014, 21.18685580748733 ], [ -86.830077384652014, 21.187125302072566 ], [ -86.830346879237254, 21.187125302072566 ], [ -86.830346879237254, 21.18685580748733 ], [ -86.830616373822494, 21.18685580748733 ], [ -86.830616373822494, 21.186316818316858 ], [ -86.830885868407719, 21.186316818316858 ], [ -86.830885868407719, 21.185777829146385 ], [ -86.830616373822494, 21.185777829146385 ], [ -86.830616373822494, 21.184699850805444 ], [ -86.830885868407719, 21.184699850805444 ], [ -86.830885868407719, 21.184969345390677 ], [ -86.833041825089609, 21.184969345390677 ], [ -86.833041825089609, 21.185238839975913 ], [ -86.833311319674849, 21.185238839975913 ], [ -86.833311319674849, 21.185508334561149 ], [ -86.832772330504369, 21.185508334561149 ], [ -86.832772330504369, 21.186316818316858 ], [ -86.832502835919144, 21.186316818316858 ], [ -86.832502835919144, 21.186586312902094 ], [ -86.832233341333904, 21.186586312902094 ], [ -86.832233341333904, 21.187125302072566 ], [ -86.830885868407719, 21.187125302072566 ], [ -86.830885868407719, 21.187394796657802 ], [ -86.831155362992959, 21.187394796657802 ], [ -86.831155362992959, 21.187664291243038 ] ], [ [ -86.832233341333904, 21.186316818316858 ], [ -86.832233341333904, 21.186047323731621 ], [ -86.831963846748664, 21.186047323731621 ], [ -86.831963846748664, 21.186316818316858 ], [ -86.832233341333904, 21.186316818316858 ] ], [ [ -86.831963846748664, 21.186047323731621 ], [ -86.831963846748664, 21.185777829146385 ], [ -86.831424857578199, 21.185777829146385 ], [ -86.831424857578199, 21.186047323731621 ], [ -86.831963846748664, 21.186047323731621 ] ] ] ] } },
{ "type": "Feature", "properties": { "ZONA_MET": "Canc_n", "INTENSIDAD": "Intensa", "T_PROM_POL": 3.0, "T_MIN_CIUD": 2.0, "DIF_TERMIC": 1.0 }, "geometry": { "type": "MultiPolygon", "coordinates": [ [ [ [ -86.838970705964798, 21.188203280413507 ], [ -86.838431716794332, 21.188203280413507 ], [ -86.838431716794332, 21.187394796657802 ], [ -86.838701211379558, 21.187394796657802 ], [ -86.838701211379558, 21.187125302072566 ], [ -86.838431716794332, 21.187125302072566 ], [ -86.838431716794332, 21.18685580748733 ], [ -86.838701211379558, 21.18685580748733 ], [ -86.838701211379558, 21.186586312902094 ], [ -86.838970705964798, 21.186586312902094 ], [ -86.838970705964798, 21.186047323731621 ], [ -86.838701211379558, 21.186047323731621 ], [ -86.838701211379558, 21.185508334561149 ], [ -86.838431716794332, 21.185508334561149 ], [ -86.838431716794332, 21.185777829146385 ], [ -86.838162222209093, 21.185777829146385 ], [ -86.838162222209093, 21.185508334561149 ], [ -86.837892727623853, 21.185508334561149 ], [ -86.837892727623853, 21.185238839975913 ], [ -86.838162222209093, 21.185238839975913 ], [ -86.838162222209093, 21.184699850805444 ], [ -86.839509695135277, 21.184699850805444 ], [ -86.839509695135277, 21.185238839975913 ], [ -86.839240200550037, 21.185238839975913 ], [ -86.839240200550037, 21.185508334561149 ], [ -86.840048684305742, 21.185508334561149 ], [ -86.840048684305742, 21.184969345390677 ], [ -86.840587673476222, 21.184969345390677 ], [ -86.840587673476222, 21.184699850805444 ], [ -86.840318178890982, 21.184699850805444 ], [ -86.840318178890982, 21.184430356220208 ], [ -86.841396157231927, 21.184430356220208 ], [ -86.841396157231927, 21.184699850805444 ], [ -86.841126662646687, 21.184699850805444 ], [ -86.841126662646687, 21.184969345390677 ], [ -86.841396157231927, 21.184969345390677 ], [ -86.841396157231927, 21.185238839975913 ], [ -86.841126662646687, 21.185238839975913 ], [ -86.841126662646687, 21.185508334561149 ], [ -86.840318178890982, 21.185508334561149 ], [ -86.840318178890982, 21.186047323731621 ], [ -86.840048684305742, 21.186047323731621 ], [ -86.840048684305742, 21.187933785828275 ], [ -86.838970705964798, 21.187933785828275 ], [ -86.838970705964798, 21.188203280413507 ] ], [ [ -86.840048684305742, 21.186047323731621 ], [ -86.840048684305742, 21.185777829146385 ], [ -86.839509695135277, 21.185777829146385 ], [ -86.839509695135277, 21.186047323731621 ], [ -86.840048684305742, 21.186047323731621 ] ] ] ] } },
{ "type": "Feature", "properties": { "ZONA_MET": "Canc_n", "INTENSIDAD": "Extrema", "T_PROM_POL": 4.0, "T_MIN_CIUD": 2.0, "DIF_TERMIC": 1.0 }, "geometry": { "type": "MultiPolygon", "coordinates": [ [ [ [ -86.832233341333904, 21.184969345390677 ], [ -86.830885868407719, 21.184969345390677 ], [ -86.830885868407719, 21.184160861634972 ], [ -86.831424857578199, 21.184160861634972 ], [ -86.831424857578199, 21.184430356220208 ], [ -86.832233341333904, 21.184430356220208 ], [ -86.832233341333904, 21.184969345390677 ] ] ] ] } },
{ "type": "Feature", "properties": { "ZONA_MET": "Canc_n", "INTENSIDAD": "Intensa", "T_PROM_POL": 3.0, "T_MIN_CIUD": 2.0, "DIF_TERMIC": 1.0 }, "geometry": { "type": "MultiPolygon", "coordinates": [ [ [ [ -86.849480994788991, 21.183082883294027 ], [ -86.849211500203765, 21.183082883294027 ], [ -86.849211500203765, 21.182274399538318 ], [ -86.849480994788991, 21.182274399538318 ], [ -86.849480994788991, 21.181196421197377 ], [ -86.84975048937423, 21.181196421197377 ], [ -86.84975048937423, 21.181465915782614 ], [ -86.85001998395947, 21.181465915782614 ], [ -86.85001998395947, 21.18173541036785 ], [ -86.850558973129935, 21.18173541036785 ], [ -86.850558973129935, 21.182004904953082 ], [ -86.85028947854471, 21.182004904953082 ], [ -86.85028947854471, 21.182274399538318 ], [ -86.85001998395947, 21.182274399538318 ], [ -86.85001998395947, 21.182813388708791 ], [ -86.84975048937423, 21.182813388708791 ], [ -86.84975048937423, 21.182543894123555 ], [ -86.849480994788991, 21.182543894123555 ], [ -86.849480994788991, 21.183082883294027 ] ] ] ] } },
{ "type": "Feature", "properties": { "ZONA_MET": "Canc_n", "INTENSIDAD": "Intensa", "T_PROM_POL": 3.0, "T_MIN_CIUD": 2.0, "DIF_TERMIC": 1.0 }, "geometry": { "type": "MultiPolygon", "coordinates": [ [ [ [ -86.820106084998287, 21.183352377879263 ], [ -86.819297601242582, 21.183352377879263 ], [ -86.819297601242582, 21.182813388708791 ], [ -86.819028106657342, 21.182813388708791 ], [ -86.819028106657342, 21.182543894123555 ], [ -86.818758612072116, 21.182543894123555 ], [ -86.818758612072116, 21.182004904953082 ], [ -86.819028106657342, 21.182004904953082 ], [ -86.819028106657342, 21.18173541036785 ], [ -86.819297601242582, 21.18173541036785 ], [ -86.819297601242582, 21.181196421197377 ], [ -86.819836590413061, 21.181196421197377 ], [ -86.819836590413061, 21.181465915782614 ], [ -86.820106084998287, 21.181465915782614 ], [ -86.820106084998287, 21.182004904953082 ], [ -86.819836590413061, 21.182004904953082 ], [ -86.819836590413061, 21.182274399538318 ], [ -86.820106084998287, 21.182274399538318 ], [ -86.820106084998287, 21.183352377879263 ] ] ] ] } },
{ "type": "Feature", "properties": { "ZONA_MET": "Canc_n", "INTENSIDAD": "Intensa", "T_PROM_POL": 3.0, "T_MIN_CIUD": 2.0, "DIF_TERMIC": 1.0 }, "geometry": { "type": "MultiPolygon", "coordinates": [ [ [ [ -86.82899940631107, 21.189820247924924 ], [ -86.828729911725844, 21.189820247924924 ], [ -86.828729911725844, 21.189011764169216 ], [ -86.828460417140604, 21.189011764169216 ], [ -86.828460417140604, 21.18874226958398 ], [ -86.828190922555365, 21.18874226958398 ], [ -86.828190922555365, 21.188203280413507 ], [ -86.82711294421442, 21.188203280413507 ], [ -86.82711294421442, 21.187933785828275 ], [ -86.827921427970125, 21.187933785828275 ], [ -86.827921427970125, 21.187664291243038 ], [ -86.828190922555365, 21.187664291243038 ], [ -86.828190922555365, 21.187933785828275 ], [ -86.828729911725844, 21.187933785828275 ], [ -86.828729911725844, 21.187125302072566 ], [ -86.828460417140604, 21.187125302072566 ], [ -86.828460417140604, 21.18685580748733 ], [ -86.828190922555365, 21.18685580748733 ], [ -86.828190922555365, 21.186586312902094 ], [ -86.82684344962918, 21.186586312902094 ], [ -86.82684344962918, 21.18685580748733 ], [ -86.826034965873475, 21.18685580748733 ], [ -86.826034965873475, 21.186586312902094 ], [ -86.826304460458715, 21.186586312902094 ], [ -86.826304460458715, 21.186047323731621 ], [ -86.826034965873475, 21.186047323731621 ], [ -86.826034965873475, 21.184160861634972 ], [ -86.824956987532531, 21.184160861634972 ], [ -86.824956987532531, 21.183621872464499 ], [ -86.824687492947305, 21.183621872464499 ], [ -86.824687492947305, 21.183352377879263 ], [ -86.824417998362065, 21.183352377879263 ], [ -86.824417998362065, 21.184160861634972 ], [ -86.824148503776826, 21.184160861634972 ], [ -86.824148503776826, 21.182813388708791 ], [ -86.822801030850655, 21.182813388708791 ], [ -86.822801030850655, 21.182543894123555 ], [ -86.823340020021121, 21.182543894123555 ], [ -86.823340020021121, 21.182004904953082 ], [ -86.824687492947305, 21.182004904953082 ], [ -86.824687492947305, 21.182543894123555 ], [ -86.824417998362065, 21.182543894123555 ], [ -86.824417998362065, 21.183082883294027 ], [ -86.82576547128825, 21.183082883294027 ], [ -86.82576547128825, 21.183621872464499 ], [ -86.826034965873475, 21.183621872464499 ], [ -86.826034965873475, 21.183352377879263 ], [ -86.826573955043955, 21.183352377879263 ], [ -86.826573955043955, 21.183621872464499 ], [ -86.82684344962918, 21.183621872464499 ], [ -86.82684344962918, 21.183082883294027 ], [ -86.826304460458715, 21.183082883294027 ], [ -86.826304460458715, 21.182813388708791 ], [ -86.826573955043955, 21.182813388708791 ], [ -86.826573955043955, 21.182543894123555 ], [ -86.82711294421442, 21.182543894123555 ], [ -86.82711294421442, 21.18173541036785 ], [ -86.82684344962918, 21.18173541036785 ], [ -86.82684344962918, 21.182004904953082 ], [ -86.826573955043955, 21.182004904953082 ], [ -86.826573955043955, 21.182274399538318 ], [ -86.82576547128825, 21.182274399538318 ], [ -86.82576547128825, 21.182004904953082 ], [ -86.826034965873475, 21.182004904953082 ], [ -86.826034965873475, 21.18173541036785 ], [ -86.82576547128825, 21.18173541036785 ], [ -86.82576547128825, 21.181465915782614 ], [ -86.82549597670301, 21.181465915782614 ], [ -86.82549597670301, 21.180657432026905 ], [ -86.82684344962918, 21.180657432026905 ], [ -86.82684344962918, 21.180387937441669 ], [ -86.82711294421442, 21.180387937441669 ], [ -86.82711294421442, 21.180926926612141 ], [ -86.82738243879966, 21.180926926612141 ], [ -86.82738243879966, 21.181196421197377 ], [ -86.827921427970125, 21.181196421197377 ], [ -86.827921427970125, 21.18173541036785 ], [ -86.828190922555365, 21.18173541036785 ], [ -86.828190922555365, 21.181465915782614 ], [ -86.828460417140604, 21.181465915782614 ], [ -86.828460417140604, 21.181196421197377 ], [ -86.828190922555365, 21.181196421197377 ], [ -86.828190922555365, 21.180926926612141 ], [ -86.82899940631107, 21.180926926612141 ], [ -86.82899940631107, 21.181196421197377 ], [ -86.829268900896309, 21.181196421197377 ], [ -86.829268900896309, 21.181465915782614 ], [ -86.82899940631107, 21.181465915782614 ], [ -86.82899940631107, 21.18173541036785 ], [ -86.828460417140604, 21.18173541036785 ], [ -86.828460417140604, 21.182004904953082 ], [ -86.828729911725844, 21.182004904953082 ], [ -86.828729911725844, 21.182543894123555 ], [ -86.828190922555365, 21.182543894123555 ], [ -86.828190922555365, 21.183082883294027 ], [ -86.828460417140604, 21.183082883294027 ], [ -86.828460417140604, 21.183352377879263 ], [ -86.828729911725844, 21.183352377879263 ], [ -86.828729911725844, 21.183621872464499 ], [ -86.829268900896309, 21.183621872464499 ], [ -86.829268900896309, 21.183352377879263 ], [ -86.829807890066775, 21.183352377879263 ], [ -86.829807890066775, 21.183621872464499 ], [ -86.829538395481549, 21.183621872464499 ], [ -86.829538395481549, 21.183891367049736 ], [ -86.829268900896309, 21.183891367049736 ], [ -86.829268900896309, 21.184160861634972 ], [ -86.828729911725844, 21.184160861634972 ], [ -86.828729911725844, 21.183891367049736 ], [ -86.828460417140604, 21.183891367049736 ], [ -86.828460417140604, 21.184160861634972 ], [ -86.828190922555365, 21.184160861634972 ], [ -86.828190922555365, 21.184969345390677 ], [ -86.827921427970125, 21.184969345390677 ], [ -86.827921427970125, 21.184699850805444 ], [ -86.82738243879966, 21.184699850805444 ], [ -86.82738243879966, 21.184160861634972 ], [ -86.82684344962918, 21.184160861634972 ], [ -86.82684344962918, 21.184430356220208 ], [ -86.826304460458715, 21.184430356220208 ], [ -86.826304460458715, 21.184969345390677 ], [ -86.826573955043955, 21.184969345390677 ], [ -86.826573955043955, 21.184699850805444 ], [ -86.82684344962918, 21.184699850805444 ], [ -86.82684344962918, 21.184969345390677 ], [ -86.82738243879966, 21.184969345390677 ], [ -86.82738243879966, 21.185238839975913 ], [ -86.82711294421442, 21.185238839975913 ], [ -86.82711294421442, 21.185508334561149 ], [ -86.82738243879966, 21.185508334561149 ], [ -86.82738243879966, 21.185777829146385 ], [ -86.82684344962918, 21.185777829146385 ], [ -86.82684344962918, 21.186316818316858 ], [ -86.82738243879966, 21.186316818316858 ], [ -86.82738243879966, 21.186047323731621 ], [ -86.828729911725844, 21.186047323731621 ], [ -86.828729911725844, 21.186316818316858 ], [ -86.829268900896309, 21.186316818316858 ], [ -86.829268900896309, 21.188203280413507 ], [ -86.829538395481549, 21.188203280413507 ], [ -86.829538395481549, 21.188472774998743 ], [ -86.829807890066775, 21.188472774998743 ], [ -86.829807890066775, 21.188203280413507 ], [ -86.830077384652014, 21.188203280413507 ], [ -86.830077384652014, 21.188472774998743 ], [ -86.830346879237254, 21.188472774998743 ], [ -86.830346879237254, 21.188203280413507 ], [ -86.831155362992959, 21.188203280413507 ], [ -86.831155362992959, 21.188472774998743 ], [ -86.830885868407719, 21.188472774998743 ], [ -86.830885868407719, 21.189011764169216 ], [ -86.831155362992959, 21.189011764169216 ], [ -86.831155362992959, 21.189281258754452 ], [ -86.830346879237254, 21.189281258754452 ], [ -86.830346879237254, 21.189011764169216 ], [ -86.82899940631107, 21.189011764169216 ], [ -86.82899940631107, 21.189820247924924 ] ], [ [ -86.829268900896309, 21.18874226958398 ], [ -86.829268900896309, 21.188203280413507 ], [ -86.828460417140604, 21.188203280413507 ], [ -86.828460417140604, 21.188472774998743 ], [ -86.828729911725844, 21.188472774998743 ], [ -86.828729911725844, 21.18874226958398 ], [ -86.829268900896309, 21.18874226958398 ] ], [ [ -86.826573955043955, 21.185777829146385 ], [ -86.826573955043955, 21.185508334561149 ], [ -86.826304460458715, 21.185508334561149 ], [ -86.826304460458715, 21.185777829146385 ], [ -86.826573955043955, 21.185777829146385 ] ], [ [ -86.82522648211777, 21.183621872464499 ], [ -86.82522648211777, 21.183352377879263 ], [ -86.824956987532531, 21.183352377879263 ], [ -86.824956987532531, 21.183621872464499 ], [ -86.82522648211777, 21.183621872464499 ] ], [ [ -86.827921427970125, 21.182813388708791 ], [ -86.827921427970125, 21.182274399538318 ], [ -86.82738243879966, 21.182274399538318 ], [ -86.82738243879966, 21.182543894123555 ], [ -86.82711294421442, 21.182543894123555 ], [ -86.82711294421442, 21.182813388708791 ], [ -86.827921427970125, 21.182813388708791 ] ], [ [ -86.82738243879966, 21.181465915782614 ], [ -86.82738243879966, 21.181196421197377 ], [ -86.82711294421442, 21.181196421197377 ], [ -86.82711294421442, 21.181465915782614 ], [ -86.82738243879966, 21.181465915782614 ] ], [ [ -86.82684344962918, 21.181465915782614 ], [ -86.82684344962918, 21.180926926612141 ], [ -86.826304460458715, 21.180926926612141 ], [ -86.826304460458715, 21.181465915782614 ], [ -86.82684344962918, 21.181465915782614 ] ] ] ] } },
{ "type": "Feature", "properties": { "ZONA_MET": "Canc_n", "INTENSIDAD": "Intensa", "T_PROM_POL": 3.0, "T_MIN_CIUD": 2.0, "DIF_TERMIC": 1.0 }, "geometry": { "type": "MultiPolygon", "coordinates": [ [ [ [ -86.818219622901637, 21.179309959100724 ], [ -86.817950128316397, 21.179309959100724 ], [ -86.817950128316397, 21.178770969930255 ], [ -86.817411139145932, 21.178770969930255 ], [ -86.817411139145932, 21.178501475345019 ], [ -86.817680633731172, 21.178501475345019 ], [ -86.817680633731172, 21.178231980759783 ], [ -86.817950128316397, 21.178231980759783 ], [ -86.817950128316397, 21.178501475345019 ], [ -86.818219622901637, 21.178501475345019 ], [ -86.818219622901637, 21.178231980759783 ], [ -86.818489117486877, 21.178231980759783 ], [ -86.818489117486877, 21.177962486174547 ], [ -86.819836590413061, 21.177962486174547 ], [ -86.819836590413061, 21.177692991589311 ], [ -86.820106084998287, 21.177692991589311 ], [ -86.820106084998287, 21.177423497004074 ], [ -86.820375579583526, 21.177423497004074 ], [ -86.820375579583526, 21.177154002418838 ], [ -86.821184063339231, 21.177154002418838 ], [ -86.821184063339231, 21.177692991589311 ], [ -86.820914568753992, 21.177692991589311 ], [ -86.820914568753992, 21.177423497004074 ], [ -86.820645074168766, 21.177423497004074 ], [ -86.820645074168766, 21.177692991589311 ], [ -86.820375579583526, 21.177692991589311 ], [ -86.820375579583526, 21.178231980759783 ], [ -86.820106084998287, 21.178231980759783 ], [ -86.820106084998287, 21.178770969930255 ], [ -86.819297601242582, 21.178770969930255 ], [ -86.819297601242582, 21.178501475345019 ], [ -86.819836590413061, 21.178501475345019 ], [ -86.819836590413061, 21.178231980759783 ], [ -86.819028106657342, 21.178231980759783 ], [ -86.819028106657342, 21.178501475345019 ], [ -86.818489117486877, 21.178501475345019 ], [ -86.818489117486877, 21.179040464515488 ], [ -86.818219622901637, 21.179040464515488 ], [ -86.818219622901637, 21.179309959100724 ] ] ] ] } },
{ "type": "Feature", "properties": { "ZONA_MET": "Canc_n", "INTENSIDAD": "Intensa", "T_PROM_POL": 3.0, "T_MIN_CIUD": 2.0, "DIF_TERMIC": 1.0 }, "geometry": { "type": "MultiPolygon", "coordinates": [ [ [ [ -86.830077384652014, 21.184969345390677 ], [ -86.829268900896309, 21.184969345390677 ], [ -86.829268900896309, 21.184430356220208 ], [ -86.829538395481549, 21.184430356220208 ], [ -86.829538395481549, 21.184160861634972 ], [ -86.829807890066775, 21.184160861634972 ], [ -86.829807890066775, 21.183891367049736 ], [ -86.830077384652014, 21.183891367049736 ], [ -86.830077384652014, 21.183621872464499 ], [ -86.830346879237254, 21.183621872464499 ], [ -86.830346879237254, 21.183082883294027 ], [ -86.830077384652014, 21.183082883294027 ], [ -86.830077384652014, 21.182813388708791 ], [ -86.830616373822494, 21.182813388708791 ], [ -86.830616373822494, 21.183082883294027 ], [ -86.830885868407719, 21.183082883294027 ], [ -86.830885868407719, 21.182813388708791 ], [ -86.831155362992959, 21.182813388708791 ], [ -86.831155362992959, 21.18173541036785 ], [ -86.831424857578199, 21.18173541036785 ], [ -86.831424857578199, 21.181196421197377 ], [ -86.831963846748664, 21.181196421197377 ], [ -86.831963846748664, 21.180657432026905 ], [ -86.831424857578199, 21.180657432026905 ], [ -86.831424857578199, 21.180926926612141 ], [ -86.830885868407719, 21.180926926612141 ], [ -86.830885868407719, 21.180387937441669 ], [ -86.830346879237254, 21.180387937441669 ], [ -86.830346879237254, 21.180926926612141 ], [ -86.830616373822494, 21.180926926612141 ], [ -86.830616373822494, 21.181196421197377 ], [ -86.830346879237254, 21.181196421197377 ], [ -86.830346879237254, 21.181465915782614 ], [ -86.829807890066775, 21.181465915782614 ], [ -86.829807890066775, 21.181196421197377 ], [ -86.829268900896309, 21.181196421197377 ], [ -86.829268900896309, 21.180926926612141 ], [ -86.830077384652014, 21.180926926612141 ], [ -86.830077384652014, 21.180387937441669 ], [ -86.829807890066775, 21.180387937441669 ], [ -86.829807890066775, 21.180118442856433 ], [ -86.829538395481549, 21.180118442856433 ], [ -86.829538395481549, 21.179040464515488 ], [ -86.829268900896309, 21.179040464515488 ], [ -86.829268900896309, 21.179309959100724 ], [ -86.82899940631107, 21.179309959100724 ], [ -86.82899940631107, 21.178770969930255 ], [ -86.829268900896309, 21.178770969930255 ], [ -86.829268900896309, 21.178231980759783 ], [ -86.830077384652014, 21.178231980759783 ], [ -86.830077384652014, 21.179040464515488 ], [ -86.830346879237254, 21.179040464515488 ], [ -86.830346879237254, 21.179309959100724 ], [ -86.830616373822494, 21.179309959100724 ], [ -86.830616373822494, 21.179040464515488 ], [ -86.831155362992959, 21.179040464515488 ], [ -86.831155362992959, 21.178231980759783 ], [ -86.831424857578199, 21.178231980759783 ], [ -86.831424857578199, 21.178770969930255 ], [ -86.831963846748664, 21.178770969930255 ], [ -86.831963846748664, 21.177962486174547 ], [ -86.832502835919144, 21.177962486174547 ], [ -86.832502835919144, 21.178231980759783 ], [ -86.832233341333904, 21.178231980759783 ], [ -86.832233341333904, 21.178770969930255 ], [ -86.832502835919144, 21.178770969930255 ], [ -86.832502835919144, 21.178501475345019 ], [ -86.832772330504369, 21.178501475345019 ], [ -86.832772330504369, 21.179040464515488 ], [ -86.833311319674849, 21.179040464515488 ], [ -86.833311319674849, 21.178770969930255 ], [ -86.833580814260088, 21.178770969930255 ], [ -86.833580814260088, 21.179040464515488 ], [ -86.833850308845314, 21.179040464515488 ], [ -86.833850308845314, 21.179309959100724 ], [ -86.834119803430553, 21.179309959100724 ], [ -86.834119803430553, 21.178770969930255 ], [ -86.834658792601033, 21.178770969930255 ], [ -86.834658792601033, 21.178231980759783 ], [ -86.834928287186258, 21.178231980759783 ], [ -86.834928287186258, 21.177962486174547 ], [ -86.834658792601033, 21.177962486174547 ], [ -86.834658792601033, 21.177692991589311 ], [ -86.835197781771498, 21.177692991589311 ], [ -86.835197781771498, 21.177154002418838 ], [ -86.834928287186258, 21.177154002418838 ], [ -86.834928287186258, 21.176884507833602 ], [ -86.835197781771498, 21.176884507833602 ], [ -86.835197781771498, 21.176615013248366 ], [ -86.836006265527203, 21.176615013248366 ], [ -86.836006265527203, 21.177154002418838 ], [ -86.836545254697683, 21.177154002418838 ], [ -86.836545254697683, 21.177423497004074 ], [ -86.836275760112443, 21.177423497004074 ], [ -86.836275760112443, 21.178770969930255 ], [ -86.836006265527203, 21.178770969930255 ], [ -86.836006265527203, 21.179848948271196 ], [ -86.836275760112443, 21.179848948271196 ], [ -86.836275760112443, 21.180118442856433 ], [ -86.836545254697683, 21.180118442856433 ], [ -86.836545254697683, 21.180657432026905 ], [ -86.836814749282908, 21.180657432026905 ], [ -86.836814749282908, 21.180926926612141 ], [ -86.833580814260088, 21.180926926612141 ], [ -86.833580814260088, 21.180657432026905 ], [ -86.833311319674849, 21.180657432026905 ], [ -86.833311319674849, 21.180926926612141 ], [ -86.833041825089609, 21.180926926612141 ], [ -86.833041825089609, 21.181196421197377 ], [ -86.832772330504369, 21.181196421197377 ], [ -86.832772330504369, 21.18173541036785 ], [ -86.833041825089609, 21.18173541036785 ], [ -86.833041825089609, 21.182004904953082 ], [ -86.832233341333904, 21.182004904953082 ], [ -86.832233341333904, 21.182274399538318 ], [ -86.831963846748664, 21.182274399538318 ], [ -86.831963846748664, 21.182813388708791 ], [ -86.832233341333904, 21.182813388708791 ], [ -86.832233341333904, 21.183621872464499 ], [ -86.831963846748664, 21.183621872464499 ], [ -86.831963846748664, 21.183352377879263 ], [ -86.831424857578199, 21.183352377879263 ], [ -86.831424857578199, 21.184160861634972 ], [ -86.830885868407719, 21.184160861634972 ], [ -86.830885868407719, 21.184430356220208 ], [ -86.830616373822494, 21.184430356220208 ], [ -86.830616373822494, 21.184699850805444 ], [ -86.830346879237254, 21.184699850805444 ], [ -86.830346879237254, 21.184160861634972 ], [ -86.830077384652014, 21.184160861634972 ], [ -86.830077384652014, 21.184969345390677 ] ], [ [ -86.832233341333904, 21.182004904953082 ], [ -86.832233341333904, 21.18173541036785 ], [ -86.831963846748664, 21.18173541036785 ], [ -86.831963846748664, 21.182004904953082 ], [ -86.832233341333904, 21.182004904953082 ] ], [ [ -86.832502835919144, 21.180926926612141 ], [ -86.832502835919144, 21.180657432026905 ], [ -86.832233341333904, 21.180657432026905 ], [ -86.832233341333904, 21.180926926612141 ], [ -86.832502835919144, 21.180926926612141 ] ], [ [ -86.833850308845314, 21.180657432026905 ], [ -86.833850308845314, 21.180387937441669 ], [ -86.833580814260088, 21.180387937441669 ], [ -86.833580814260088, 21.180657432026905 ], [ -86.833850308845314, 21.180657432026905 ] ], [ [ -86.832233341333904, 21.180657432026905 ], [ -86.832233341333904, 21.180118442856433 ], [ -86.831963846748664, 21.180118442856433 ], [ -86.831963846748664, 21.180657432026905 ], [ -86.832233341333904, 21.180657432026905 ] ], [ [ -86.831155362992959, 21.180387937441669 ], [ -86.831155362992959, 21.180118442856433 ], [ -86.831424857578199, 21.180118442856433 ], [ -86.831424857578199, 21.179848948271196 ], [ -86.830885868407719, 21.179848948271196 ], [ -86.830885868407719, 21.180387937441669 ], [ -86.831155362992959, 21.180387937441669 ] ], [ [ -86.833311319674849, 21.180118442856433 ], [ -86.833311319674849, 21.17957945368596 ], [ -86.833041825089609, 21.17957945368596 ], [ -86.833041825089609, 21.179309959100724 ], [ -86.832502835919144, 21.179309959100724 ], [ -86.832502835919144, 21.17957945368596 ], [ -86.832772330504369, 21.17957945368596 ], [ -86.832772330504369, 21.180118442856433 ], [ -86.833311319674849, 21.180118442856433 ] ], [ [ -86.830346879237254, 21.180118442856433 ], [ -86.830346879237254, 21.17957945368596 ], [ -86.829807890066775, 21.17957945368596 ], [ -86.829807890066775, 21.179848948271196 ], [ -86.830077384652014, 21.179848948271196 ], [ -86.830077384652014, 21.180118442856433 ], [ -86.830346879237254, 21.180118442856433 ] ], [ [ -86.835736770941963, 21.179848948271196 ], [ -86.835736770941963, 21.179040464515488 ], [ -86.835197781771498, 21.179040464515488 ], [ -86.835197781771498, 21.179309959100724 ], [ -86.834928287186258, 21.179309959100724 ], [ -86.834928287186258, 21.179848948271196 ], [ -86.835736770941963, 21.179848948271196 ] ], [ [ -86.832233341333904, 21.179848948271196 ], [ -86.832233341333904, 21.17957945368596 ], [ -86.831963846748664, 21.17957945368596 ], [ -86.831963846748664, 21.179848948271196 ], [ -86.832233341333904, 21.179848948271196 ] ], [ [ -86.834928287186258, 21.179040464515488 ], [ -86.834928287186258, 21.178770969930255 ], [ -86.834658792601033, 21.178770969930255 ], [ -86.834658792601033, 21.179040464515488 ], [ -86.834928287186258, 21.179040464515488 ] ], [ [ -86.829807890066775, 21.179040464515488 ], [ -86.829807890066775, 21.178501475345019 ], [ -86.829538395481549, 21.178501475345019 ], [ -86.829538395481549, 21.179040464515488 ], [ -86.829807890066775, 21.179040464515488 ] ], [ [ -86.835736770941963, 21.178231980759783 ], [ -86.835736770941963, 21.177962486174547 ], [ -86.836006265527203, 21.177962486174547 ], [ -86.836006265527203, 21.177692991589311 ], [ -86.835736770941963, 21.177692991589311 ], [ -86.835736770941963, 21.177423497004074 ], [ -86.835467276356738, 21.177423497004074 ], [ -86.835467276356738, 21.177962486174547 ], [ -86.835197781771498, 21.177962486174547 ], [ -86.835197781771498, 21.178231980759783 ], [ -86.835736770941963, 21.178231980759783 ] ] ] ] } },
{ "type": "Feature", "properties": { "ZONA_MET": "Canc_n", "INTENSIDAD": "Intensa", "T_PROM_POL": 3.0, "T_MIN_CIUD": 2.0, "DIF_TERMIC": 1.0 }, "geometry": { "type": "MultiPolygon", "coordinates": [ [ [ [ -86.822531536265416, 21.177154002418838 ], [ -86.821992547094936, 21.177154002418838 ], [ -86.821992547094936, 21.176884507833602 ], [ -86.821723052509711, 21.176884507833602 ], [ -86.821723052509711, 21.176615013248366 ], [ -86.821992547094936, 21.176615013248366 ], [ -86.821992547094936, 21.17634551866313 ], [ -86.822262041680176, 21.17634551866313 ], [ -86.822262041680176, 21.176076024077894 ], [ -86.822531536265416, 21.176076024077894 ], [ -86.822531536265416, 21.175267540322189 ], [ -86.822801030850655, 21.175267540322189 ], [ -86.822801030850655, 21.175806529492661 ], [ -86.823070525435881, 21.175806529492661 ], [ -86.823070525435881, 21.176076024077894 ], [ -86.822801030850655, 21.176076024077894 ], [ -86.822801030850655, 21.17634551866313 ], [ -86.822531536265416, 21.17634551866313 ], [ -86.822531536265416, 21.177154002418838 ] ] ] ] } },
{ "type": "Feature", "properties": { "ZONA_MET": "Canc_n", "INTENSIDAD": "Intensa", "T_PROM_POL": 3.0, "T_MIN_CIUD": 2.0, "DIF_TERMIC": 1.0 }, "geometry": { "type": "MultiPolygon", "coordinates": [ [ [ [ -86.838701211379558, 21.176076024077894 ], [ -86.838431716794332, 21.176076024077894 ], [ -86.838431716794332, 21.175806529492661 ], [ -86.837892727623853, 21.175806529492661 ], [ -86.837892727623853, 21.175537034907425 ], [ -86.838162222209093, 21.175537034907425 ], [ -86.838162222209093, 21.175267540322189 ], [ -86.839240200550037, 21.175267540322189 ], [ -86.839240200550037, 21.174998045736952 ], [ -86.839509695135277, 21.174998045736952 ], [ -86.839509695135277, 21.174728551151716 ], [ -86.840318178890982, 21.174728551151716 ], [ -86.840318178890982, 21.174998045736952 ], [ -86.840048684305742, 21.174998045736952 ], [ -86.840048684305742, 21.175537034907425 ], [ -86.839779189720502, 21.175537034907425 ], [ -86.839779189720502, 21.175806529492661 ], [ -86.838701211379558, 21.175806529492661 ], [ -86.838701211379558, 21.176076024077894 ] ] ] ] } },
{ "type": "Feature", "properties": { "ZONA_MET": "Canc_n", "INTENSIDAD": "Intensa", "T_PROM_POL": 3.0, "T_MIN_CIUD": 2.0, "DIF_TERMIC": 1.0 }, "geometry": { "type": "MultiPolygon", "coordinates": [ [ [ [ -86.82549597670301, 21.180657432026905 ], [ -86.824956987532531, 21.180657432026905 ], [ -86.824956987532531, 21.180118442856433 ], [ -86.824687492947305, 21.180118442856433 ], [ -86.824687492947305, 21.179848948271196 ], [ -86.824417998362065, 21.179848948271196 ], [ -86.824417998362065, 21.17957945368596 ], [ -86.824148503776826, 21.17957945368596 ], [ -86.824148503776826, 21.179309959100724 ], [ -86.823879009191586, 21.179309959100724 ], [ -86.823879009191586, 21.178770969930255 ], [ -86.823070525435881, 21.178770969930255 ], [ -86.823070525435881, 21.178501475345019 ], [ -86.823340020021121, 21.178501475345019 ], [ -86.823340020021121, 21.178231980759783 ], [ -86.824148503776826, 21.178231980759783 ], [ -86.824148503776826, 21.177962486174547 ], [ -86.824687492947305, 21.177962486174547 ], [ -86.824687492947305, 21.177423497004074 ], [ -86.824956987532531, 21.177423497004074 ], [ -86.824956987532531, 21.177692991589311 ], [ -86.82522648211777, 21.177692991589311 ], [ -86.82522648211777, 21.177423497004074 ], [ -86.82549597670301, 21.177423497004074 ], [ -86.82549597670301, 21.177154002418838 ], [ -86.824956987532531, 21.177154002418838 ], [ -86.824956987532531, 21.176884507833602 ], [ -86.824687492947305, 21.176884507833602 ], [ -86.824687492947305, 21.17634551866313 ], [ -86.82522648211777, 21.17634551866313 ], [ -86.82522648211777, 21.176615013248366 ], [ -86.82549597670301, 21.176615013248366 ], [ -86.82549597670301, 21.176884507833602 ], [ -86.82576547128825, 21.176884507833602 ], [ -86.82576547128825, 21.177692991589311 ], [ -86.826034965873475, 21.177692991589311 ], [ -86.826034965873475, 21.177423497004074 ], [ -86.826304460458715, 21.177423497004074 ], [ -86.826304460458715, 21.177154002418838 ], [ -86.82684344962918, 21.177154002418838 ], [ -86.82684344962918, 21.17634551866313 ], [ -86.826304460458715, 21.17634551866313 ], [ -86.826304460458715, 21.175806529492661 ], [ -86.82684344962918, 21.175806529492661 ], [ -86.82684344962918, 21.175537034907425 ], [ -86.826573955043955, 21.175537034907425 ], [ -86.826573955043955, 21.175267540322189 ], [ -86.826304460458715, 21.175267540322189 ], [ -86.826304460458715, 21.175537034907425 ], [ -86.826034965873475, 21.175537034907425 ], [ -86.826034965873475, 21.175267540322189 ], [ -86.824417998362065, 21.175267540322189 ], [ -86.824417998362065, 21.174998045736952 ], [ -86.82522648211777, 21.174998045736952 ], [ -86.82522648211777, 21.174189561981244 ], [ -86.824956987532531, 21.174189561981244 ], [ -86.824956987532531, 21.173381078225535 ], [ -86.824687492947305, 21.173381078225535 ], [ -86.824687492947305, 21.17257259446983 ], [ -86.82522648211777, 21.17257259446983 ], [ -86.82522648211777, 21.172303099884594 ], [ -86.82549597670301, 21.172303099884594 ], [ -86.82549597670301, 21.17257259446983 ], [ -86.82576547128825, 21.17257259446983 ], [ -86.82576547128825, 21.172303099884594 ], [ -86.826034965873475, 21.172303099884594 ], [ -86.826034965873475, 21.173111583640299 ], [ -86.82576547128825, 21.173111583640299 ], [ -86.82576547128825, 21.173381078225535 ], [ -86.826304460458715, 21.173381078225535 ], [ -86.826304460458715, 21.173920067396008 ], [ -86.826573955043955, 21.173920067396008 ], [ -86.826573955043955, 21.174189561981244 ], [ -86.82711294421442, 21.174189561981244 ], [ -86.82711294421442, 21.173920067396008 ], [ -86.8276519333849, 21.173920067396008 ], [ -86.8276519333849, 21.173111583640299 ], [ -86.828460417140604, 21.173111583640299 ], [ -86.828460417140604, 21.172842089055067 ], [ -86.828729911725844, 21.172842089055067 ], [ -86.828729911725844, 21.173650572810772 ], [ -86.82899940631107, 21.173650572810772 ], [ -86.82899940631107, 21.173920067396008 ], [ -86.828729911725844, 21.173920067396008 ], [ -86.828729911725844, 21.174189561981244 ], [ -86.829807890066775, 21.174189561981244 ], [ -86.829807890066775, 21.17445905656648 ], [ -86.829538395481549, 21.17445905656648 ], [ -86.829538395481549, 21.175267540322189 ], [ -86.829807890066775, 21.175267540322189 ], [ -86.829807890066775, 21.174998045736952 ], [ -86.830077384652014, 21.174998045736952 ], [ -86.830077384652014, 21.17634551866313 ], [ -86.829807890066775, 21.17634551866313 ], [ -86.829807890066775, 21.176615013248366 ], [ -86.830077384652014, 21.176615013248366 ], [ -86.830077384652014, 21.176884507833602 ], [ -86.830346879237254, 21.176884507833602 ], [ -86.830346879237254, 21.176615013248366 ], [ -86.830885868407719, 21.176615013248366 ], [ -86.830885868407719, 21.176884507833602 ], [ -86.831155362992959, 21.176884507833602 ], [ -86.831155362992959, 21.177423497004074 ], [ -86.830885868407719, 21.177423497004074 ], [ -86.830885868407719, 21.177692991589311 ], [ -86.830616373822494, 21.177692991589311 ], [ -86.830616373822494, 21.177962486174547 ], [ -86.830077384652014, 21.177962486174547 ], [ -86.830077384652014, 21.177692991589311 ], [ -86.829268900896309, 21.177692991589311 ], [ -86.829268900896309, 21.177423497004074 ], [ -86.82899940631107, 21.177423497004074 ], [ -86.82899940631107, 21.177692991589311 ], [ -86.828729911725844, 21.177692991589311 ], [ -86.828729911725844, 21.177423497004074 ], [ -86.827921427970125, 21.177423497004074 ], [ -86.827921427970125, 21.177692991589311 ], [ -86.82738243879966, 21.177692991589311 ], [ -86.82738243879966, 21.177962486174547 ], [ -86.82711294421442, 21.177962486174547 ], [ -86.82711294421442, 21.178231980759783 ], [ -86.82684344962918, 21.178231980759783 ], [ -86.82684344962918, 21.178770969930255 ], [ -86.828460417140604, 21.178770969930255 ], [ -86.828460417140604, 21.179040464515488 ], [ -86.828190922555365, 21.179040464515488 ], [ -86.828190922555365, 21.179848948271196 ], [ -86.827921427970125, 21.179848948271196 ], [ -86.827921427970125, 21.180118442856433 ], [ -86.82711294421442, 21.180118442856433 ], [ -86.82711294421442, 21.17957945368596 ], [ -86.82684344962918, 21.17957945368596 ], [ -86.82684344962918, 21.179309959100724 ], [ -86.826573955043955, 21.179309959100724 ], [ -86.826573955043955, 21.179040464515488 ], [ -86.826304460458715, 21.179040464515488 ], [ -86.826304460458715, 21.178501475345019 ], [ -86.82576547128825, 21.178501475345019 ], [ -86.82576547128825, 21.17957945368596 ], [ -86.82549597670301, 21.17957945368596 ], [ -86.82549597670301, 21.179848948271196 ], [ -86.82522648211777, 21.179848948271196 ], [ -86.82522648211777, 21.180118442856433 ], [ -86.82549597670301, 21.180118442856433 ], [ -86.82549597670301, 21.180657432026905 ] ], [ [ -86.824956987532531, 21.179848948271196 ], [ -86.824956987532531, 21.17957945368596 ], [ -86.824687492947305, 21.17957945368596 ], [ -86.824687492947305, 21.179848948271196 ], [ -86.824956987532531, 21.179848948271196 ] ], [ [ -86.82549597670301, 21.17957945368596 ], [ -86.82549597670301, 21.179309959100724 ], [ -86.82522648211777, 21.179309959100724 ], [ -86.82522648211777, 21.17957945368596 ], [ -86.82549597670301, 21.17957945368596 ] ], [ [ -86.827921427970125, 21.179309959100724 ], [ -86.827921427970125, 21.179040464515488 ], [ -86.82738243879966, 21.179040464515488 ], [ -86.82738243879966, 21.179309959100724 ], [ -86.827921427970125, 21.179309959100724 ] ], [ [ -86.824956987532531, 21.178501475345019 ], [ -86.824956987532531, 21.178231980759783 ], [ -86.824687492947305, 21.178231980759783 ], [ -86.824687492947305, 21.178501475345019 ], [ -86.824956987532531, 21.178501475345019 ] ], [ [ -86.826034965873475, 21.178231980759783 ], [ -86.826034965873475, 21.177962486174547 ], [ -86.82549597670301, 21.177962486174547 ], [ -86.82549597670301, 21.178231980759783 ], [ -86.826034965873475, 21.178231980759783 ] ], [ [ -86.830346879237254, 21.177692991589311 ], [ -86.830346879237254, 21.177423497004074 ], [ -86.830077384652014, 21.177423497004074 ], [ -86.830077384652014, 21.177692991589311 ], [ -86.830346879237254, 21.177692991589311 ] ], [ [ -86.82738243879966, 21.177154002418838 ], [ -86.82738243879966, 21.176615013248366 ], [ -86.82711294421442, 21.176615013248366 ], [ -86.82711294421442, 21.177154002418838 ], [ -86.82738243879966, 21.177154002418838 ] ], [ [ -86.828729911725844, 21.176884507833602 ], [ -86.828729911725844, 21.176615013248366 ], [ -86.828460417140604, 21.176615013248366 ], [ -86.828460417140604, 21.176884507833602 ], [ -86.828729911725844, 21.176884507833602 ] ], [ [ -86.827921427970125, 21.176615013248366 ], [ -86.827921427970125, 21.17634551866313 ], [ -86.82738243879966, 21.17634551866313 ], [ -86.82738243879966, 21.176615013248366 ], [ -86.827921427970125, 21.176615013248366 ] ], [ [ -86.829538395481549, 21.17634551866313 ], [ -86.829538395481549, 21.175806529492661 ], [ -86.82899940631107, 21.175806529492661 ], [ -86.82899940631107, 21.175267540322189 ], [ -86.828729911725844, 21.175267540322189 ], [ -86.828729911725844, 21.175537034907425 ], [ -86.828460417140604, 21.175537034907425 ], [ -86.828460417140604, 21.17634551866313 ], [ -86.828729911725844, 21.17634551866313 ], [ -86.828729911725844, 21.176076024077894 ], [ -86.82899940631107, 21.176076024077894 ], [ -86.82899940631107, 21.17634551866313 ], [ -86.829538395481549, 21.17634551866313 ] ], [ [ -86.828190922555365, 21.176076024077894 ], [ -86.828190922555365, 21.175806529492661 ], [ -86.827921427970125, 21.175806529492661 ], [ -86.827921427970125, 21.176076024077894 ], [ -86.828190922555365, 21.176076024077894 ] ], [ [ -86.828460417140604, 21.175537034907425 ], [ -86.828460417140604, 21.174998045736952 ], [ -86.828729911725844, 21.174998045736952 ], [ -86.828729911725844, 21.174728551151716 ], [ -86.828460417140604, 21.174728551151716 ], [ -86.828460417140604, 21.174189561981244 ], [ -86.8276519333849, 21.174189561981244 ], [ -86.8276519333849, 21.17445905656648 ], [ -86.826573955043955, 21.17445905656648 ], [ -86.826573955043955, 21.174189561981244 ], [ -86.826304460458715, 21.174189561981244 ], [ -86.826304460458715, 21.174998045736952 ], [ -86.82711294421442, 21.174998045736952 ], [ -86.82711294421442, 21.175267540322189 ], [ -86.82738243879966, 21.175267540322189 ], [ -86.82738243879966, 21.174998045736952 ], [ -86.828190922555365, 21.174998045736952 ], [ -86.828190922555365, 21.175267540322189 ], [ -86.827921427970125, 21.175267540322189 ], [ -86.827921427970125, 21.175537034907425 ], [ -86.828460417140604, 21.175537034907425 ] ], [ [ -86.82576547128825, 21.17445905656648 ], [ -86.82576547128825, 21.173650572810772 ], [ -86.82549597670301, 21.173650572810772 ], [ -86.82549597670301, 21.17445905656648 ], [ -86.82576547128825, 21.17445905656648 ] ] ] ] } },
{ "type": "Feature", "properties": { "ZONA_MET": "Canc_n", "INTENSIDAD": "Intensa", "T_PROM_POL": 3.0, "T_MIN_CIUD": 2.0, "DIF_TERMIC": 1.0 }, "geometry": { "type": "MultiPolygon", "coordinates": [ [ [ [ -86.828190922555365, 21.169608154032236 ], [ -86.8276519333849, 21.169608154032236 ], [ -86.8276519333849, 21.169338659447 ], [ -86.82711294421442, 21.169338659447 ], [ -86.82711294421442, 21.168260681106055 ], [ -86.8276519333849, 21.168260681106055 ], [ -86.8276519333849, 21.167991186520819 ], [ -86.82899940631107, 21.167991186520819 ], [ -86.82899940631107, 21.168260681106055 ], [ -86.829268900896309, 21.168260681106055 ], [ -86.829268900896309, 21.168799670276528 ], [ -86.82899940631107, 21.168799670276528 ], [ -86.82899940631107, 21.168530175691291 ], [ -86.828190922555365, 21.168530175691291 ], [ -86.828190922555365, 21.169608154032236 ] ], [ [ -86.827921427970125, 21.169069164861764 ], [ -86.827921427970125, 21.168530175691291 ], [ -86.8276519333849, 21.168530175691291 ], [ -86.8276519333849, 21.169069164861764 ], [ -86.827921427970125, 21.169069164861764 ] ] ] ] } },
{ "type": "Feature", "properties": { "ZONA_MET": "Canc_n", "INTENSIDAD": "Intensa", "T_PROM_POL": 3.0, "T_MIN_CIUD": 2.0, "DIF_TERMIC": 1.0 }, "geometry": { "type": "MultiPolygon", "coordinates": [ [ [ [ -86.82684344962918, 21.168530175691291 ], [ -86.826573955043955, 21.168530175691291 ], [ -86.826573955043955, 21.167721691935583 ], [ -86.826304460458715, 21.167721691935583 ], [ -86.826304460458715, 21.16718270276511 ], [ -86.826034965873475, 21.16718270276511 ], [ -86.826034965873475, 21.168260681106055 ], [ -86.82549597670301, 21.168260681106055 ], [ -86.82549597670301, 21.16718270276511 ], [ -86.82576547128825, 21.16718270276511 ], [ -86.82576547128825, 21.166913208179878 ], [ -86.826034965873475, 21.166913208179878 ], [ -86.826034965873475, 21.166643713594642 ], [ -86.826573955043955, 21.166643713594642 ], [ -86.826573955043955, 21.166913208179878 ], [ -86.82684344962918, 21.166913208179878 ], [ -86.82684344962918, 21.16718270276511 ], [ -86.82711294421442, 21.16718270276511 ], [ -86.82711294421442, 21.167721691935583 ], [ -86.8276519333849, 21.167721691935583 ], [ -86.8276519333849, 21.167991186520819 ], [ -86.82711294421442, 21.167991186520819 ], [ -86.82711294421442, 21.168260681106055 ], [ -86.82684344962918, 21.168260681106055 ], [ -86.82684344962918, 21.168530175691291 ] ] ] ] } },
{ "type": "Feature", "properties": { "ZONA_MET": "Canc_n", "INTENSIDAD": "Intensa", "T_PROM_POL": 3.0, "T_MIN_CIUD": 2.0, "DIF_TERMIC": 1.0 }, "geometry": { "type": "MultiPolygon", "coordinates": [ [ [ [ -86.837892727623853, 21.169608154032236 ], [ -86.837353738453388, 21.169608154032236 ], [ -86.837353738453388, 21.169338659447 ], [ -86.837084243868148, 21.169338659447 ], [ -86.837084243868148, 21.169608154032236 ], [ -86.836814749282908, 21.169608154032236 ], [ -86.836814749282908, 21.168799670276528 ], [ -86.837623233038613, 21.168799670276528 ], [ -86.837623233038613, 21.168530175691291 ], [ -86.837892727623853, 21.168530175691291 ], [ -86.837892727623853, 21.168260681106055 ], [ -86.838431716794332, 21.168260681106055 ], [ -86.838431716794332, 21.167991186520819 ], [ -86.838701211379558, 21.167991186520819 ], [ -86.838701211379558, 21.167721691935583 ], [ -86.838970705964798, 21.167721691935583 ], [ -86.838970705964798, 21.16718270276511 ], [ -86.838431716794332, 21.16718270276511 ], [ -86.838431716794332, 21.166374219009406 ], [ -86.838701211379558, 21.166374219009406 ], [ -86.838701211379558, 21.166913208179878 ], [ -86.838970705964798, 21.166913208179878 ], [ -86.838970705964798, 21.166374219009406 ], [ -86.839509695135277, 21.166374219009406 ], [ -86.839509695135277, 21.166104724424169 ], [ -86.839779189720502, 21.166104724424169 ], [ -86.839779189720502, 21.166913208179878 ], [ -86.840048684305742, 21.166913208179878 ], [ -86.840048684305742, 21.16718270276511 ], [ -86.840857168061447, 21.16718270276511 ], [ -86.840857168061447, 21.167721691935583 ], [ -86.840048684305742, 21.167721691935583 ], [ -86.840048684305742, 21.167991186520819 ], [ -86.840318178890982, 21.167991186520819 ], [ -86.840318178890982, 21.168260681106055 ], [ -86.840587673476222, 21.168260681106055 ], [ -86.840587673476222, 21.167991186520819 ], [ -86.841126662646687, 21.167991186520819 ], [ -86.841126662646687, 21.168799670276528 ], [ -86.840857168061447, 21.168799670276528 ], [ -86.840857168061447, 21.168530175691291 ], [ -86.840048684305742, 21.168530175691291 ], [ -86.840048684305742, 21.168260681106055 ], [ -86.839779189720502, 21.168260681106055 ], [ -86.839779189720502, 21.167991186520819 ], [ -86.839240200550037, 21.167991186520819 ], [ -86.839240200550037, 21.168799670276528 ], [ -86.838701211379558, 21.168799670276528 ], [ -86.838701211379558, 21.169338659447 ], [ -86.837892727623853, 21.169338659447 ], [ -86.837892727623853, 21.169608154032236 ] ] ] ] } },
{ "type": "Feature", "properties": { "ZONA_MET": "Canc_n", "INTENSIDAD": "Intensa", "T_PROM_POL": 3.0, "T_MIN_CIUD": 2.0, "DIF_TERMIC": 1.0 }, "geometry": { "type": "MultiPolygon", "coordinates": [ [ [ [ -86.833041825089609, 21.177962486174547 ], [ -86.832772330504369, 21.177962486174547 ], [ -86.832772330504369, 21.177692991589311 ], [ -86.832233341333904, 21.177692991589311 ], [ -86.832233341333904, 21.177423497004074 ], [ -86.831963846748664, 21.177423497004074 ], [ -86.831963846748664, 21.177154002418838 ], [ -86.831694352163439, 21.177154002418838 ], [ -86.831694352163439, 21.176884507833602 ], [ -86.832502835919144, 21.176884507833602 ], [ -86.832502835919144, 21.176615013248366 ], [ -86.832772330504369, 21.176615013248366 ], [ -86.832772330504369, 21.17634551866313 ], [ -86.833311319674849, 21.17634551866313 ], [ -86.833311319674849, 21.176076024077894 ], [ -86.833041825089609, 21.176076024077894 ], [ -86.833041825089609, 21.175267540322189 ], [ -86.832772330504369, 21.175267540322189 ], [ -86.832772330504369, 21.174189561981244 ], [ -86.832233341333904, 21.174189561981244 ], [ -86.832233341333904, 21.173920067396008 ], [ -86.831963846748664, 21.173920067396008 ], [ -86.831963846748664, 21.173381078225535 ], [ -86.831694352163439, 21.173381078225535 ], [ -86.831694352163439, 21.173650572810772 ], [ -86.831155362992959, 21.173650572810772 ], [ -86.831155362992959, 21.173111583640299 ], [ -86.830885868407719, 21.173111583640299 ], [ -86.830885868407719, 21.17257259446983 ], [ -86.830346879237254, 21.17257259446983 ], [ -86.830346879237254, 21.173111583640299 ], [ -86.830616373822494, 21.173111583640299 ], [ -86.830616373822494, 21.173381078225535 ], [ -86.830885868407719, 21.173381078225535 ], [ -86.830885868407719, 21.173650572810772 ], [ -86.830346879237254, 21.173650572810772 ], [ -86.830346879237254, 21.173381078225535 ], [ -86.830077384652014, 21.173381078225535 ], [ -86.830077384652014, 21.172842089055067 ], [ -86.829807890066775, 21.172842089055067 ], [ -86.829807890066775, 21.17257259446983 ], [ -86.829538395481549, 21.17257259446983 ], [ -86.829538395481549, 21.172303099884594 ], [ -86.829807890066775, 21.172303099884594 ], [ -86.829807890066775, 21.171764110714122 ], [ -86.830077384652014, 21.171764110714122 ], [ -86.830077384652014, 21.172033605299358 ], [ -86.831694352163439, 21.172033605299358 ], [ -86.831694352163439, 21.171494616128886 ], [ -86.832502835919144, 21.171494616128886 ], [ -86.832502835919144, 21.17122512154365 ], [ -86.832772330504369, 21.17122512154365 ], [ -86.832772330504369, 21.170955626958413 ], [ -86.833041825089609, 21.170955626958413 ], [ -86.833041825089609, 21.170416637787941 ], [ -86.833311319674849, 21.170416637787941 ], [ -86.833311319674849, 21.170147143202705 ], [ -86.832772330504369, 21.170147143202705 ], [ -86.832772330504369, 21.170686132373177 ], [ -86.832502835919144, 21.170686132373177 ], [ -86.832502835919144, 21.170955626958413 ], [ -86.831694352163439, 21.170955626958413 ], [ -86.831694352163439, 21.170416637787941 ], [ -86.830885868407719, 21.170416637787941 ], [ -86.830885868407719, 21.170686132373177 ], [ -86.830616373822494, 21.170686132373177 ], [ -86.830616373822494, 21.170955626958413 ], [ -86.830346879237254, 21.170955626958413 ], [ -86.830346879237254, 21.17122512154365 ], [ -86.829268900896309, 21.17122512154365 ], [ -86.829268900896309, 21.171494616128886 ], [ -86.82899940631107, 21.171494616128886 ], [ -86.82899940631107, 21.17122512154365 ], [ -86.828729911725844, 21.17122512154365 ], [ -86.828729911725844, 21.170955626958413 ], [ -86.828460417140604, 21.170955626958413 ], [ -86.828460417140604, 21.17122512154365 ], [ -86.827921427970125, 21.17122512154365 ], [ -86.827921427970125, 21.170955626958413 ], [ -86.82711294421442, 21.170955626958413 ], [ -86.82711294421442, 21.171764110714122 ], [ -86.82684344962918, 21.171764110714122 ], [ -86.82684344962918, 21.170147143202705 ], [ -86.82711294421442, 21.170147143202705 ], [ -86.82711294421442, 21.169877648617472 ], [ -86.8276519333849, 21.169877648617472 ], [ -86.8276519333849, 21.170416637787941 ], [ -86.827921427970125, 21.170416637787941 ], [ -86.827921427970125, 21.170147143202705 ], [ -86.828190922555365, 21.170147143202705 ], [ -86.828190922555365, 21.169877648617472 ], [ -86.828460417140604, 21.169877648617472 ], [ -86.828460417140604, 21.169069164861764 ], [ -86.828729911725844, 21.169069164861764 ], [ -86.828729911725844, 21.169338659447 ], [ -86.82899940631107, 21.169338659447 ], [ -86.82899940631107, 21.169877648617472 ], [ -86.829538395481549, 21.169877648617472 ], [ -86.829538395481549, 21.169608154032236 ], [ -86.830077384652014, 21.169608154032236 ], [ -86.830077384652014, 21.169338659447 ], [ -86.829807890066775, 21.169338659447 ], [ -86.829807890066775, 21.168799670276528 ], [ -86.830077384652014, 21.168799670276528 ], [ -86.830077384652014, 21.169069164861764 ], [ -86.830616373822494, 21.169069164861764 ], [ -86.830616373822494, 21.168530175691291 ], [ -86.831694352163439, 21.168530175691291 ], [ -86.831694352163439, 21.168799670276528 ], [ -86.831963846748664, 21.168799670276528 ], [ -86.831963846748664, 21.168530175691291 ], [ -86.832233341333904, 21.168530175691291 ], [ -86.832233341333904, 21.168260681106055 ], [ -86.832502835919144, 21.168260681106055 ], [ -86.832502835919144, 21.168530175691291 ], [ -86.833041825089609, 21.168530175691291 ], [ -86.833041825089609, 21.167721691935583 ], [ -86.833311319674849, 21.167721691935583 ], [ -86.833311319674849, 21.167452197350347 ], [ -86.833580814260088, 21.167452197350347 ], [ -86.833580814260088, 21.16718270276511 ], [ -86.833850308845314, 21.16718270276511 ], [ -86.833850308845314, 21.166913208179878 ], [ -86.834119803430553, 21.166913208179878 ], [ -86.834119803430553, 21.167452197350347 ], [ -86.833850308845314, 21.167452197350347 ], [ -86.833850308845314, 21.167721691935583 ], [ -86.835197781771498, 21.167721691935583 ], [ -86.835197781771498, 21.167991186520819 ], [ -86.836006265527203, 21.167991186520819 ], [ -86.836006265527203, 21.168260681106055 ], [ -86.836545254697683, 21.168260681106055 ], [ -86.836545254697683, 21.167721691935583 ], [ -86.836006265527203, 21.167721691935583 ], [ -86.836006265527203, 21.167452197350347 ], [ -86.836275760112443, 21.167452197350347 ], [ -86.836275760112443, 21.166913208179878 ], [ -86.836545254697683, 21.166913208179878 ], [ -86.836545254697683, 21.166374219009406 ], [ -86.836814749282908, 21.166374219009406 ], [ -86.836814749282908, 21.166104724424169 ], [ -86.837084243868148, 21.166104724424169 ], [ -86.837084243868148, 21.166643713594642 ], [ -86.837353738453388, 21.166643713594642 ], [ -86.837353738453388, 21.16718270276511 ], [ -86.837623233038613, 21.16718270276511 ], [ -86.837623233038613, 21.167991186520819 ], [ -86.837353738453388, 21.167991186520819 ], [ -86.837353738453388, 21.167452197350347 ], [ -86.836814749282908, 21.167452197350347 ], [ -86.836814749282908, 21.167991186520819 ], [ -86.837084243868148, 21.167991186520819 ], [ -86.837084243868148, 21.168260681106055 ], [ -86.836814749282908, 21.168260681106055 ], [ -86.836814749282908, 21.168530175691291 ], [ -86.836545254697683, 21.168530175691291 ], [ -86.836545254697683, 21.169069164861764 ], [ -86.836006265527203, 21.169069164861764 ], [ -86.836006265527203, 21.169877648617472 ], [ -86.835736770941963, 21.169877648617472 ], [ -86.835736770941963, 21.170686132373177 ], [ -86.836275760112443, 21.170686132373177 ], [ -86.836275760112443, 21.169877648617472 ], [ -86.836545254697683, 21.169877648617472 ], [ -86.836545254697683, 21.170147143202705 ], [ -86.836814749282908, 21.170147143202705 ], [ -86.836814749282908, 21.170416637787941 ], [ -86.837353738453388, 21.170416637787941 ], [ -86.837353738453388, 21.170686132373177 ], [ -86.837084243868148, 21.170686132373177 ], [ -86.837084243868148, 21.170955626958413 ], [ -86.837353738453388, 21.170955626958413 ], [ -86.837353738453388, 21.17122512154365 ], [ -86.838701211379558, 21.17122512154365 ], [ -86.838701211379558, 21.171494616128886 ], [ -86.838970705964798, 21.171494616128886 ], [ -86.838970705964798, 21.172842089055067 ], [ -86.838701211379558, 21.172842089055067 ], [ -86.838701211379558, 21.17257259446983 ], [ -86.838431716794332, 21.17257259446983 ], [ -86.838431716794332, 21.172033605299358 ], [ -86.837892727623853, 21.172033605299358 ], [ -86.837892727623853, 21.172303099884594 ], [ -86.837623233038613, 21.172303099884594 ], [ -86.837623233038613, 21.17257259446983 ], [ -86.837084243868148, 21.17257259446983 ], [ -86.837084243868148, 21.172842089055067 ], [ -86.836814749282908, 21.172842089055067 ], [ -86.836814749282908, 21.173111583640299 ], [ -86.836006265527203, 21.173111583640299 ], [ -86.836006265527203, 21.174189561981244 ], [ -86.835736770941963, 21.174189561981244 ], [ -86.835736770941963, 21.173920067396008 ], [ -86.835197781771498, 21.173920067396008 ], [ -86.835197781771498, 21.174189561981244 ], [ -86.834658792601033, 21.174189561981244 ], [ -86.834658792601033, 21.173920067396008 ], [ -86.834389298015793, 21.173920067396008 ], [ -86.834389298015793, 21.174189561981244 ], [ -86.834119803430553, 21.174189561981244 ], [ -86.834119803430553, 21.17445905656648 ], [ -86.833850308845314, 21.17445905656648 ], [ -86.833850308845314, 21.174189561981244 ], [ -86.833311319674849, 21.174189561981244 ], [ -86.833311319674849, 21.174998045736952 ], [ -86.833580814260088, 21.174998045736952 ], [ -86.833580814260088, 21.175537034907425 ], [ -86.834119803430553, 21.175537034907425 ], [ -86.834119803430553, 21.175806529492661 ], [ -86.833850308845314, 21.175806529492661 ], [ -86.833850308845314, 21.17634551866313 ], [ -86.834119803430553, 21.17634551866313 ], [ -86.834119803430553, 21.176615013248366 ], [ -86.833850308845314, 21.176615013248366 ], [ -86.833850308845314, 21.176884507833602 ], [ -86.833580814260088, 21.176884507833602 ], [ -86.833580814260088, 21.177423497004074 ], [ -86.833041825089609, 21.177423497004074 ], [ -86.833041825089609, 21.177962486174547 ] ], [ [ -86.834389298015793, 21.173920067396008 ], [ -86.834389298015793, 21.173111583640299 ], [ -86.834928287186258, 21.173111583640299 ], [ -86.834928287186258, 21.172842089055067 ], [ -86.835197781771498, 21.172842089055067 ], [ -86.835197781771498, 21.17257259446983 ], [ -86.834928287186258, 21.17257259446983 ], [ -86.834928287186258, 21.17122512154365 ], [ -86.834658792601033, 21.17122512154365 ], [ -86.834658792601033, 21.170955626958413 ], [ -86.834928287186258, 21.170955626958413 ], [ -86.834928287186258, 21.170686132373177 ], [ -86.834119803430553, 21.170686132373177 ], [ -86.834119803430553, 21.170955626958413 ], [ -86.833850308845314, 21.170955626958413 ], [ -86.833850308845314, 21.17122512154365 ], [ -86.834119803430553, 21.17122512154365 ], [ -86.834119803430553, 21.171494616128886 ], [ -86.833850308845314, 21.171494616128886 ], [ -86.833850308845314, 21.171764110714122 ], [ -86.833580814260088, 21.171764110714122 ], [ -86.833580814260088, 21.173111583640299 ], [ -86.833850308845314, 21.173111583640299 ], [ -86.833850308845314, 21.173920067396008 ], [ -86.834389298015793, 21.173920067396008 ] ], [ [ -86.832502835919144, 21.173920067396008 ], [ -86.832502835919144, 21.173381078225535 ], [ -86.832233341333904, 21.173381078225535 ], [ -86.832233341333904, 21.173920067396008 ], [ -86.832502835919144, 21.173920067396008 ] ], [ [ -86.833041825089609, 21.173111583640299 ], [ -86.833041825089609, 21.172303099884594 ], [ -86.831694352163439, 21.172303099884594 ], [ -86.831694352163439, 21.17257259446983 ], [ -86.832233341333904, 21.17257259446983 ], [ -86.832233341333904, 21.172842089055067 ], [ -86.831694352163439, 21.172842089055067 ], [ -86.831694352163439, 21.173111583640299 ], [ -86.833041825089609, 21.173111583640299 ] ], [ [ -86.836006265527203, 21.17257259446983 ], [ -86.836006265527203, 21.172303099884594 ], [ -86.835736770941963, 21.172303099884594 ], [ -86.835736770941963, 21.172033605299358 ], [ -86.836006265527203, 21.172033605299358 ], [ -86.836006265527203, 21.171764110714122 ], [ -86.836275760112443, 21.171764110714122 ], [ -86.836275760112443, 21.171494616128886 ], [ -86.836814749282908, 21.171494616128886 ], [ -86.836814749282908, 21.170955626958413 ], [ -86.836275760112443, 21.170955626958413 ], [ -86.836275760112443, 21.17122512154365 ], [ -86.835736770941963, 21.17122512154365 ], [ -86.835736770941963, 21.171494616128886 ], [ -86.835197781771498, 21.171494616128886 ], [ -86.835197781771498, 21.17257259446983 ], [ -86.836006265527203, 21.17257259446983 ] ], [ [ -86.837084243868148, 21.172303099884594 ], [ -86.837084243868148, 21.171764110714122 ], [ -86.836545254697683, 21.171764110714122 ], [ -86.836545254697683, 21.172303099884594 ], [ -86.837084243868148, 21.172303099884594 ] ], [ [ -86.838431716794332, 21.171764110714122 ], [ -86.838431716794332, 21.171494616128886 ], [ -86.838162222209093, 21.171494616128886 ], [ -86.838162222209093, 21.171764110714122 ], [ -86.838431716794332, 21.171764110714122 ] ], [ [ -86.828729911725844, 21.170686132373177 ], [ -86.828729911725844, 21.170416637787941 ], [ -86.828460417140604, 21.170416637787941 ], [ -86.828460417140604, 21.170686132373177 ], [ -86.828729911725844, 21.170686132373177 ] ], [ [ -86.832233341333904, 21.170147143202705 ], [ -86.832233341333904, 21.169877648617472 ], [ -86.833311319674849, 21.169877648617472 ], [ -86.833311319674849, 21.169069164861764 ], [ -86.833580814260088, 21.169069164861764 ], [ -86.833580814260088, 21.168799670276528 ], [ -86.833041825089609, 21.168799670276528 ], [ -86.833041825089609, 21.169069164861764 ], [ -86.832772330504369, 21.169069164861764 ], [ -86.832772330504369, 21.169608154032236 ], [ -86.832502835919144, 21.169608154032236 ], [ -86.832502835919144, 21.169338659447 ], [ -86.831963846748664, 21.169338659447 ], [ -86.831963846748664, 21.170147143202705 ], [ -86.832233341333904, 21.170147143202705 ] ], [ [ -86.830346879237254, 21.170147143202705 ], [ -86.830346879237254, 21.169877648617472 ], [ -86.830077384652014, 21.169877648617472 ], [ -86.830077384652014, 21.170147143202705 ], [ -86.830346879237254, 21.170147143202705 ] ], [ [ -86.835197781771498, 21.169877648617472 ], [ -86.835197781771498, 21.169608154032236 ], [ -86.834928287186258, 21.169608154032236 ], [ -86.834928287186258, 21.169877648617472 ], [ -86.835197781771498, 21.169877648617472 ] ], [ [ -86.835736770941963, 21.169608154032236 ], [ -86.835736770941963, 21.169338659447 ], [ -86.835197781771498, 21.169338659447 ], [ -86.835197781771498, 21.169608154032236 ], [ -86.835736770941963, 21.169608154032236 ] ], [ [ -86.834119803430553, 21.169338659447 ], [ -86.834119803430553, 21.168799670276528 ], [ -86.833850308845314, 21.168799670276528 ], [ -86.833850308845314, 21.169338659447 ], [ -86.834119803430553, 21.169338659447 ] ], [ [ -86.831963846748664, 21.169338659447 ], [ -86.831963846748664, 21.169069164861764 ], [ -86.831694352163439, 21.169069164861764 ], [ -86.831694352163439, 21.168799670276528 ], [ -86.831155362992959, 21.168799670276528 ], [ -86.831155362992959, 21.169338659447 ], [ -86.831963846748664, 21.169338659447 ] ], [ [ -86.834928287186258, 21.169069164861764 ], [ -86.834928287186258, 21.167991186520819 ], [ -86.834119803430553, 21.167991186520819 ], [ -86.834119803430553, 21.168260681106055 ], [ -86.834389298015793, 21.168260681106055 ], [ -86.834389298015793, 21.169069164861764 ], [ -86.834928287186258, 21.169069164861764 ] ] ] ] } },
{ "type": "Feature", "properties": { "ZONA_MET": "Canc_n", "INTENSIDAD": "Intensa", "T_PROM_POL": 3.0, "T_MIN_CIUD": 2.0, "DIF_TERMIC": 1.0 }, "geometry": { "type": "MultiPolygon", "coordinates": [ [ [ [ -86.82549597670301, 21.166913208179878 ], [ -86.82522648211777, 21.166913208179878 ], [ -86.82522648211777, 21.166374219009406 ], [ -86.82549597670301, 21.166374219009406 ], [ -86.82549597670301, 21.165835229838933 ], [ -86.82522648211777, 21.165835229838933 ], [ -86.82522648211777, 21.165296240668461 ], [ -86.82576547128825, 21.165296240668461 ], [ -86.82576547128825, 21.165565735253697 ], [ -86.826034965873475, 21.165565735253697 ], [ -86.826034965873475, 21.165835229838933 ], [ -86.826573955043955, 21.165835229838933 ], [ -86.826573955043955, 21.166104724424169 ], [ -86.82576547128825, 21.166104724424169 ], [ -86.82576547128825, 21.166643713594642 ], [ -86.82549597670301, 21.166643713594642 ], [ -86.82549597670301, 21.166913208179878 ] ] ] ] } },
{ "type": "Feature", "properties": { "ZONA_MET": "Canc_n", "INTENSIDAD": "Intensa", "T_PROM_POL": 3.0, "T_MIN_CIUD": 2.0, "DIF_TERMIC": 1.0 }, "geometry": { "type": "MultiPolygon", "coordinates": [ [ [ [ -86.809326301588854, 21.160714832719453 ], [ -86.808248323247909, 21.160714832719453 ], [ -86.808248323247909, 21.160175843548981 ], [ -86.808517817833149, 21.160175843548981 ], [ -86.808517817833149, 21.159906348963744 ], [ -86.809326301588854, 21.159906348963744 ], [ -86.809326301588854, 21.160175843548981 ], [ -86.809595796174094, 21.160175843548981 ], [ -86.809595796174094, 21.160445338134217 ], [ -86.809326301588854, 21.160445338134217 ], [ -86.809326301588854, 21.160714832719453 ] ] ] ] } },
{ "type": "Feature", "properties": { "ZONA_MET": "Canc_n", "INTENSIDAD": "Intensa", "T_PROM_POL": 3.0, "T_MIN_CIUD": 2.0, "DIF_TERMIC": 1.0 }, "geometry": { "type": "MultiPolygon", "coordinates": [ [ [ [ -86.82522648211777, 21.159906348963744 ], [ -86.824956987532531, 21.159906348963744 ], [ -86.824956987532531, 21.159636854378508 ], [ -86.824417998362065, 21.159636854378508 ], [ -86.824417998362065, 21.159367359793272 ], [ -86.824148503776826, 21.159367359793272 ], [ -86.824148503776826, 21.158558876037564 ], [ -86.824417998362065, 21.158558876037564 ], [ -86.824417998362065, 21.1588283706228 ], [ -86.82522648211777, 21.1588283706228 ], [ -86.82522648211777, 21.159097865208036 ], [ -86.824956987532531, 21.159097865208036 ], [ -86.824956987532531, 21.159367359793272 ], [ -86.82522648211777, 21.159367359793272 ], [ -86.82522648211777, 21.159906348963744 ] ] ] ] } },
{ "type": "Feature", "properties": { "ZONA_MET": "Canc_n", "INTENSIDAD": "Intensa", "T_PROM_POL": 3.0, "T_MIN_CIUD": 2.0, "DIF_TERMIC": 1.0 }, "geometry": { "type": "MultiPolygon", "coordinates": [ [ [ [ -86.828729911725844, 21.157750392281859 ], [ -86.828460417140604, 21.157750392281859 ], [ -86.828460417140604, 21.15694190852615 ], [ -86.827921427970125, 21.15694190852615 ], [ -86.827921427970125, 21.156672413940914 ], [ -86.8276519333849, 21.156672413940914 ], [ -86.8276519333849, 21.156402919355678 ], [ -86.828460417140604, 21.156402919355678 ], [ -86.828460417140604, 21.156672413940914 ], [ -86.82899940631107, 21.156672413940914 ], [ -86.82899940631107, 21.156402919355678 ], [ -86.829538395481549, 21.156402919355678 ], [ -86.829538395481549, 21.156672413940914 ], [ -86.829268900896309, 21.156672413940914 ], [ -86.829268900896309, 21.157211403111386 ], [ -86.828729911725844, 21.157211403111386 ], [ -86.828729911725844, 21.157750392281859 ] ] ] ] } },
{ "type": "Feature", "properties": { "ZONA_MET": "Canc_n", "INTENSIDAD": "Intensa", "T_PROM_POL": 3.0, "T_MIN_CIUD": 2.0, "DIF_TERMIC": 1.0 }, "geometry": { "type": "MultiPolygon", "coordinates": [ [ [ [ -86.831424857578199, 21.157211403111386 ], [ -86.830346879237254, 21.157211403111386 ], [ -86.830346879237254, 21.15694190852615 ], [ -86.830077384652014, 21.15694190852615 ], [ -86.830077384652014, 21.156672413940914 ], [ -86.829807890066775, 21.156672413940914 ], [ -86.829807890066775, 21.156133424770442 ], [ -86.830346879237254, 21.156133424770442 ], [ -86.830346879237254, 21.156672413940914 ], [ -86.830885868407719, 21.156672413940914 ], [ -86.830885868407719, 21.155863930185205 ], [ -86.831694352163439, 21.155863930185205 ], [ -86.831694352163439, 21.156133424770442 ], [ -86.831963846748664, 21.156133424770442 ], [ -86.831963846748664, 21.15694190852615 ], [ -86.831424857578199, 21.15694190852615 ], [ -86.831424857578199, 21.157211403111386 ] ] ] ] } },
{ "type": "Feature", "properties": { "ZONA_MET": "Canc_n", "INTENSIDAD": "Extrema", "T_PROM_POL": 4.0, "T_MIN_CIUD": 2.0, "DIF_TERMIC": 1.0 }, "geometry": { "type": "MultiPolygon", "coordinates": [ [ [ [ -86.832233341333904, 21.156133424770442 ], [ -86.831694352163439, 21.156133424770442 ], [ -86.831694352163439, 21.155863930185205 ], [ -86.831424857578199, 21.155863930185205 ], [ -86.831424857578199, 21.155055446429497 ], [ -86.831963846748664, 21.155055446429497 ], [ -86.831963846748664, 21.154785951844264 ], [ -86.832233341333904, 21.154785951844264 ], [ -86.832233341333904, 21.155055446429497 ], [ -86.832502835919144, 21.155055446429497 ], [ -86.832502835919144, 21.154785951844264 ], [ -86.833041825089609, 21.154785951844264 ], [ -86.833041825089609, 21.155055446429497 ], [ -86.833311319674849, 21.155055446429497 ], [ -86.833311319674849, 21.155594435599969 ], [ -86.833041825089609, 21.155594435599969 ], [ -86.833041825089609, 21.155863930185205 ], [ -86.832233341333904, 21.155863930185205 ], [ -86.832233341333904, 21.156133424770442 ] ], [ [ -86.831963846748664, 21.155863930185205 ], [ -86.831963846748664, 21.155594435599969 ], [ -86.831694352163439, 21.155594435599969 ], [ -86.831694352163439, 21.155863930185205 ], [ -86.831963846748664, 21.155863930185205 ] ], [ [ -86.832233341333904, 21.155594435599969 ], [ -86.832233341333904, 21.155324941014733 ], [ -86.831963846748664, 21.155324941014733 ], [ -86.831963846748664, 21.155594435599969 ], [ -86.832233341333904, 21.155594435599969 ] ], [ [ -86.833041825089609, 21.155324941014733 ], [ -86.833041825089609, 21.155055446429497 ], [ -86.832772330504369, 21.155055446429497 ], [ -86.832772330504369, 21.155324941014733 ], [ -86.833041825089609, 21.155324941014733 ] ] ] ] } },
{ "type": "Feature", "properties": { "ZONA_MET": "Canc_n", "INTENSIDAD": "Intensa", "T_PROM_POL": 3.0, "T_MIN_CIUD": 2.0, "DIF_TERMIC": 1.0 }, "geometry": { "type": "MultiPolygon", "coordinates": [ [ [ [ -86.840048684305742, 21.151552016821434 ], [ -86.839509695135277, 21.151552016821434 ], [ -86.839509695135277, 21.151282522236198 ], [ -86.838970705964798, 21.151282522236198 ], [ -86.838970705964798, 21.150204543895253 ], [ -86.838162222209093, 21.150204543895253 ], [ -86.838162222209093, 21.149396060139544 ], [ -86.838701211379558, 21.149396060139544 ], [ -86.838701211379558, 21.14966555472478 ], [ -86.838970705964798, 21.14966555472478 ], [ -86.838970705964798, 21.149935049310017 ], [ -86.839509695135277, 21.149935049310017 ], [ -86.839509695135277, 21.150474038480489 ], [ -86.839779189720502, 21.150474038480489 ], [ -86.839779189720502, 21.151013027650961 ], [ -86.840318178890982, 21.151013027650961 ], [ -86.840318178890982, 21.151282522236198 ], [ -86.840048684305742, 21.151282522236198 ], [ -86.840048684305742, 21.151552016821434 ] ] ] ] } },
{ "type": "Feature", "properties": { "ZONA_MET": "Canc_n", "INTENSIDAD": "Extrema", "T_PROM_POL": 4.0, "T_MIN_CIUD": 2.0, "DIF_TERMIC": 1.0 }, "geometry": { "type": "MultiPolygon", "coordinates": [ [ [ [ -86.835736770941963, 21.149126565554308 ], [ -86.834928287186258, 21.149126565554308 ], [ -86.834928287186258, 21.148857070969076 ], [ -86.835467276356738, 21.148857070969076 ], [ -86.835467276356738, 21.148048587213367 ], [ -86.835736770941963, 21.148048587213367 ], [ -86.835736770941963, 21.147779092628131 ], [ -86.836006265527203, 21.147779092628131 ], [ -86.836006265527203, 21.148048587213367 ], [ -86.836275760112443, 21.148048587213367 ], [ -86.836275760112443, 21.148587576383839 ], [ -86.836006265527203, 21.148587576383839 ], [ -86.836006265527203, 21.148857070969076 ], [ -86.835736770941963, 21.148857070969076 ], [ -86.835736770941963, 21.149126565554308 ] ] ] ] } },
{ "type": "Feature", "properties": { "ZONA_MET": "Canc_n", "INTENSIDAD": "Intensa", "T_PROM_POL": 3.0, "T_MIN_CIUD": 2.0, "DIF_TERMIC": 1.0 }, "geometry": { "type": "MultiPolygon", "coordinates": [ [ [ [ -86.835467276356738, 21.148857070969076 ], [ -86.834658792601033, 21.148857070969076 ], [ -86.834658792601033, 21.148587576383839 ], [ -86.834389298015793, 21.148587576383839 ], [ -86.834389298015793, 21.148318081798603 ], [ -86.834658792601033, 21.148318081798603 ], [ -86.834658792601033, 21.148048587213367 ], [ -86.834928287186258, 21.148048587213367 ], [ -86.834928287186258, 21.147779092628131 ], [ -86.835467276356738, 21.147779092628131 ], [ -86.835467276356738, 21.147509598042895 ], [ -86.836006265527203, 21.147509598042895 ], [ -86.836006265527203, 21.147779092628131 ], [ -86.835736770941963, 21.147779092628131 ], [ -86.835736770941963, 21.148048587213367 ], [ -86.835467276356738, 21.148048587213367 ], [ -86.835467276356738, 21.148857070969076 ] ] ] ] } },
{ "type": "Feature", "properties": { "ZONA_MET": "Canc_n", "INTENSIDAD": "Extrema", "T_PROM_POL": 4.0, "T_MIN_CIUD": 2.0, "DIF_TERMIC": 1.0 }, "geometry": { "type": "MultiPolygon", "coordinates": [ [ [ [ -86.824148503776826, 21.146701114287186 ], [ -86.823879009191586, 21.146701114287186 ], [ -86.823879009191586, 21.146162125116714 ], [ -86.823340020021121, 21.146162125116714 ], [ -86.823340020021121, 21.145892630531478 ], [ -86.82360951460636, 21.145892630531478 ], [ -86.82360951460636, 21.145353641361009 ], [ -86.823340020021121, 21.145353641361009 ], [ -86.823340020021121, 21.1445451576053 ], [ -86.823879009191586, 21.1445451576053 ], [ -86.823879009191586, 21.144814652190536 ], [ -86.824148503776826, 21.144814652190536 ], [ -86.824148503776826, 21.145353641361009 ], [ -86.823879009191586, 21.145353641361009 ], [ -86.823879009191586, 21.145623135946245 ], [ -86.824148503776826, 21.145623135946245 ], [ -86.824148503776826, 21.146701114287186 ] ] ] ] } },
{ "type": "Feature", "properties": { "ZONA_MET": "Canc_n", "INTENSIDAD": "Intensa", "T_PROM_POL": 3.0, "T_MIN_CIUD": 2.0, "DIF_TERMIC": 1.0 }, "geometry": { "type": "MultiPolygon", "coordinates": [ [ [ [ -86.832772330504369, 21.135112847122045 ], [ -86.832502835919144, 21.135112847122045 ], [ -86.832502835919144, 21.134843352536809 ], [ -86.832233341333904, 21.134843352536809 ], [ -86.832233341333904, 21.134573857951573 ], [ -86.831963846748664, 21.134573857951573 ], [ -86.831963846748664, 21.134304363366336 ], [ -86.831424857578199, 21.134304363366336 ], [ -86.831424857578199, 21.133226385025395 ], [ -86.831963846748664, 21.133226385025395 ], [ -86.831963846748664, 21.1340348687811 ], [ -86.832233341333904, 21.1340348687811 ], [ -86.832233341333904, 21.134304363366336 ], [ -86.832772330504369, 21.134304363366336 ], [ -86.832772330504369, 21.135112847122045 ] ] ] ] } },
{ "type": "Feature", "properties": { "ZONA_MET": "Canc_n", "INTENSIDAD": "Intensa", "T_PROM_POL": 3.0, "T_MIN_CIUD": 2.0, "DIF_TERMIC": 1.0 }, "geometry": { "type": "MultiPolygon", "coordinates": [ [ [ [ -86.841396157231927, 21.112475301962235 ], [ -86.840857168061447, 21.112475301962235 ], [ -86.840857168061447, 21.112205807376998 ], [ -86.841126662646687, 21.112205807376998 ], [ -86.841126662646687, 21.111666818206526 ], [ -86.840587673476222, 21.111666818206526 ], [ -86.840587673476222, 21.11139732362129 ], [ -86.840318178890982, 21.11139732362129 ], [ -86.840318178890982, 21.111127829036054 ], [ -86.841396157231927, 21.111127829036054 ], [ -86.841396157231927, 21.11139732362129 ], [ -86.841665651817152, 21.11139732362129 ], [ -86.841665651817152, 21.111936312791762 ], [ -86.841396157231927, 21.111936312791762 ], [ -86.841396157231927, 21.112475301962235 ] ] ] ] } },
{ "type": "Feature", "properties": { "ZONA_MET": "Canc_n", "INTENSIDAD": "Intensa", "T_PROM_POL": 3.0, "T_MIN_CIUD": 2.0, "DIF_TERMIC": 1.0 }, "geometry": { "type": "MultiPolygon", "coordinates": [ [ [ [ -86.836275760112443, 21.105198948160865 ], [ -86.834928287186258, 21.105198948160865 ], [ -86.834928287186258, 21.104929453575629 ], [ -86.834658792601033, 21.104929453575629 ], [ -86.834658792601033, 21.105198948160865 ], [ -86.833580814260088, 21.105198948160865 ], [ -86.833580814260088, 21.104659958990393 ], [ -86.833850308845314, 21.104659958990393 ], [ -86.833850308845314, 21.104390464405157 ], [ -86.835197781771498, 21.104390464405157 ], [ -86.835197781771498, 21.104929453575629 ], [ -86.835467276356738, 21.104929453575629 ], [ -86.835467276356738, 21.104659958990393 ], [ -86.835736770941963, 21.104659958990393 ], [ -86.835736770941963, 21.104929453575629 ], [ -86.836275760112443, 21.104929453575629 ], [ -86.836275760112443, 21.105198948160865 ] ] ] ] } },
{ "type": "Feature", "properties": { "ZONA_MET": "Canc_n", "INTENSIDAD": "Intensa", "T_PROM_POL": 3.0, "T_MIN_CIUD": 2.0, "DIF_TERMIC": 1.0 }, "geometry": { "type": "MultiPolygon", "coordinates": [ [ [ [ -86.838162222209093, 21.097383605189027 ], [ -86.837892727623853, 21.097383605189027 ], [ -86.837892727623853, 21.09711411060379 ], [ -86.837353738453388, 21.09711411060379 ], [ -86.837353738453388, 21.096844616018554 ], [ -86.836814749282908, 21.096844616018554 ], [ -86.836814749282908, 21.09711411060379 ], [ -86.836275760112443, 21.09711411060379 ], [ -86.836275760112443, 21.096575121433318 ], [ -86.836814749282908, 21.096575121433318 ], [ -86.836814749282908, 21.096305626848082 ], [ -86.837084243868148, 21.096305626848082 ], [ -86.837084243868148, 21.096575121433318 ], [ -86.837623233038613, 21.096575121433318 ], [ -86.837623233038613, 21.096844616018554 ], [ -86.838162222209093, 21.096844616018554 ], [ -86.838162222209093, 21.097383605189027 ] ] ] ] } }
]
}
