{
"type": "FeatureCollection",
"name": "UHI_Poza_Rica",
"crs": { "type": "name", "properties": { "name": "urn:ogc:def:crs:OGC:1.3:CRS84" } },
"features": [
{ "type": "Feature", "properties": { "ZONA_MET": "Poza_Rica", "INTENSIDAD": "Intensa", "T_PROM_POL": 3.0, "T_MIN_CIUD": 3.0, "DIF_TERMIC": 7.0 }, "geometry": { "type": "MultiPolygon", "coordinates": [ [ [ [ -97.462986245132726, 20.547075662137406 ], [ -97.462447255962246, 20.547075662137406 ], [ -97.462447255962246, 20.545997683796461 ], [ -97.462716750547486, 20.545997683796461 ], [ -97.462716750547486, 20.545458694625992 ], [ -97.462447255962246, 20.545458694625992 ], [ -97.462447255962246, 20.545728189211225 ], [ -97.462177761377021, 20.545728189211225 ], [ -97.462177761377021, 20.545458694625992 ], [ -97.461908266791781, 20.545458694625992 ], [ -97.461908266791781, 20.54491970545552 ], [ -97.462177761377021, 20.54491970545552 ], [ -97.462177761377021, 20.545189200040756 ], [ -97.462447255962246, 20.545189200040756 ], [ -97.462447255962246, 20.54491970545552 ], [ -97.462986245132726, 20.54491970545552 ], [ -97.462986245132726, 20.545189200040756 ], [ -97.463255739717965, 20.545189200040756 ], [ -97.463255739717965, 20.545728189211225 ], [ -97.462986245132726, 20.545728189211225 ], [ -97.462986245132726, 20.545997683796461 ], [ -97.463255739717965, 20.545997683796461 ], [ -97.463255739717965, 20.546267178381697 ], [ -97.463525234303191, 20.546267178381697 ], [ -97.463525234303191, 20.546536672966933 ], [ -97.463255739717965, 20.546536672966933 ], [ -97.463255739717965, 20.54680616755217 ], [ -97.462986245132726, 20.54680616755217 ], [ -97.462986245132726, 20.547075662137406 ] ], [ [ -97.462986245132726, 20.546536672966933 ], [ -97.462986245132726, 20.546267178381697 ], [ -97.462716750547486, 20.546267178381697 ], [ -97.462716750547486, 20.546536672966933 ], [ -97.462986245132726, 20.546536672966933 ] ] ] ] } },
{ "type": "Feature", "properties": { "ZONA_MET": "Poza_Rica", "INTENSIDAD": "Intensa", "T_PROM_POL": 3.0, "T_MIN_CIUD": 3.0, "DIF_TERMIC": 8.0 }, "geometry": { "type": "MultiPolygon", "coordinates": [ [ [ [ -97.472688050201214, 20.540877286676981 ], [ -97.472418555615974, 20.540877286676981 ], [ -97.472418555615974, 20.540607792091745 ], [ -97.471071082689804, 20.540607792091745 ], [ -97.471071082689804, 20.540338297506509 ], [ -97.470801588104564, 20.540338297506509 ], [ -97.470801588104564, 20.540068802921272 ], [ -97.470532093519324, 20.540068802921272 ], [ -97.470532093519324, 20.5395298137508 ], [ -97.470801588104564, 20.5395298137508 ], [ -97.470801588104564, 20.539260319165567 ], [ -97.471340577275029, 20.539260319165567 ], [ -97.471340577275029, 20.540338297506509 ], [ -97.472688050201214, 20.540338297506509 ], [ -97.472688050201214, 20.540877286676981 ] ] ] ] } },
{ "type": "Feature", "properties": { "ZONA_MET": "Poza_Rica", "INTENSIDAD": "Extrema", "T_PROM_POL": 3.0, "T_MIN_CIUD": 3.0, "DIF_TERMIC": 9.0 }, "geometry": { "type": "MultiPolygon", "coordinates": [ [ [ [ -97.473496533956919, 20.536026384142737 ], [ -97.472418555615974, 20.536026384142737 ], [ -97.472418555615974, 20.535756889557501 ], [ -97.471610071860269, 20.535756889557501 ], [ -97.471610071860269, 20.534948405801792 ], [ -97.471879566445509, 20.534948405801792 ], [ -97.471879566445509, 20.535487394972264 ], [ -97.472418555615974, 20.535487394972264 ], [ -97.472418555615974, 20.535217900387028 ], [ -97.472688050201214, 20.535217900387028 ], [ -97.472688050201214, 20.535487394972264 ], [ -97.473227039371679, 20.535487394972264 ], [ -97.473227039371679, 20.535217900387028 ], [ -97.473496533956919, 20.535217900387028 ], [ -97.473496533956919, 20.536026384142737 ] ] ] ] } },
{ "type": "Feature", "properties": { "ZONA_MET": "Poza_Rica", "INTENSIDAD": "Intensa", "T_PROM_POL": 3.0, "T_MIN_CIUD": 3.0, "DIF_TERMIC": 7.0 }, "geometry": { "type": "MultiPolygon", "coordinates": [ [ [ [ -97.469993104348859, 20.536026384142737 ], [ -97.469723609763619, 20.536026384142737 ], [ -97.469723609763619, 20.535756889557501 ], [ -97.46945411517838, 20.535756889557501 ], [ -97.46945411517838, 20.536026384142737 ], [ -97.469184620593154, 20.536026384142737 ], [ -97.469184620593154, 20.535487394972264 ], [ -97.468915126007914, 20.535487394972264 ], [ -97.468915126007914, 20.53440941663132 ], [ -97.468645631422675, 20.53440941663132 ], [ -97.468645631422675, 20.534678911216556 ], [ -97.468376136837435, 20.534678911216556 ], [ -97.468376136837435, 20.53440941663132 ], [ -97.468106642252209, 20.53440941663132 ], [ -97.468106642252209, 20.534139922046084 ], [ -97.46783714766697, 20.534139922046084 ], [ -97.46783714766697, 20.533870427460847 ], [ -97.46756765308173, 20.533870427460847 ], [ -97.46756765308173, 20.533061943705142 ], [ -97.46783714766697, 20.533061943705142 ], [ -97.46783714766697, 20.533331438290379 ], [ -97.468376136837435, 20.533331438290379 ], [ -97.468376136837435, 20.533600932875611 ], [ -97.468915126007914, 20.533600932875611 ], [ -97.468915126007914, 20.533870427460847 ], [ -97.469184620593154, 20.533870427460847 ], [ -97.469184620593154, 20.534948405801792 ], [ -97.46945411517838, 20.534948405801792 ], [ -97.46945411517838, 20.534678911216556 ], [ -97.469723609763619, 20.534678911216556 ], [ -97.469723609763619, 20.534948405801792 ], [ -97.469993104348859, 20.534948405801792 ], [ -97.469993104348859, 20.534678911216556 ], [ -97.470532093519324, 20.534678911216556 ], [ -97.470532093519324, 20.535217900387028 ], [ -97.469723609763619, 20.535217900387028 ], [ -97.469723609763619, 20.535487394972264 ], [ -97.470532093519324, 20.535487394972264 ], [ -97.470532093519324, 20.535756889557501 ], [ -97.469993104348859, 20.535756889557501 ], [ -97.469993104348859, 20.536026384142737 ] ] ] ] } },
{ "type": "Feature", "properties": { "ZONA_MET": "Poza_Rica", "INTENSIDAD": "Intensa", "T_PROM_POL": 3.0, "T_MIN_CIUD": 3.0, "DIF_TERMIC": 7.0 }, "geometry": { "type": "MultiPolygon", "coordinates": [ [ [ [ -97.460830288450836, 20.526863568244718 ], [ -97.460560793865596, 20.526863568244718 ], [ -97.460560793865596, 20.526324579074245 ], [ -97.460291299280371, 20.526324579074245 ], [ -97.460291299280371, 20.526594073659481 ], [ -97.460021804695131, 20.526594073659481 ], [ -97.460021804695131, 20.525785589903773 ], [ -97.460830288450836, 20.525785589903773 ], [ -97.460830288450836, 20.525516095318537 ], [ -97.461369277621301, 20.525516095318537 ], [ -97.461369277621301, 20.526055084489009 ], [ -97.460830288450836, 20.526055084489009 ], [ -97.460830288450836, 20.526863568244718 ] ] ] ] } },
{ "type": "Feature", "properties": { "ZONA_MET": "Poza_Rica", "INTENSIDAD": "Intensa", "T_PROM_POL": 3.0, "T_MIN_CIUD": 3.0, "DIF_TERMIC": 7.0 }, "geometry": { "type": "MultiPolygon", "coordinates": [ [ [ [ -97.462447255962246, 20.528211041170895 ], [ -97.462177761377021, 20.528211041170895 ], [ -97.462177761377021, 20.526594073659481 ], [ -97.461638772206541, 20.526594073659481 ], [ -97.461638772206541, 20.526324579074245 ], [ -97.461369277621301, 20.526324579074245 ], [ -97.461369277621301, 20.526055084489009 ], [ -97.461908266791781, 20.526055084489009 ], [ -97.461908266791781, 20.525785589903773 ], [ -97.462177761377021, 20.525785589903773 ], [ -97.462177761377021, 20.525516095318537 ], [ -97.462986245132726, 20.525516095318537 ], [ -97.462986245132726, 20.525246600733301 ], [ -97.463525234303191, 20.525246600733301 ], [ -97.463525234303191, 20.525785589903773 ], [ -97.463255739717965, 20.525785589903773 ], [ -97.463255739717965, 20.526055084489009 ], [ -97.463525234303191, 20.526055084489009 ], [ -97.463525234303191, 20.526324579074245 ], [ -97.463794728888431, 20.526324579074245 ], [ -97.463794728888431, 20.526863568244718 ], [ -97.463525234303191, 20.526863568244718 ], [ -97.463525234303191, 20.527402557415186 ], [ -97.462986245132726, 20.527402557415186 ], [ -97.462986245132726, 20.527672052000423 ], [ -97.462716750547486, 20.527672052000423 ], [ -97.462716750547486, 20.527941546585659 ], [ -97.462447255962246, 20.527941546585659 ], [ -97.462447255962246, 20.528211041170895 ] ] ] ] } },
{ "type": "Feature", "properties": { "ZONA_MET": "Poza_Rica", "INTENSIDAD": "Intensa", "T_PROM_POL": 3.0, "T_MIN_CIUD": 3.0, "DIF_TERMIC": 7.0 }, "geometry": { "type": "MultiPolygon", "coordinates": [ [ [ [ -97.450050505041403, 20.521204181954765 ], [ -97.449511515870924, 20.521204181954765 ], [ -97.449511515870924, 20.520395698199057 ], [ -97.449781010456164, 20.520395698199057 ], [ -97.449781010456164, 20.520665192784293 ], [ -97.450319999626643, 20.520665192784293 ], [ -97.450319999626643, 20.520395698199057 ], [ -97.451128483382348, 20.520395698199057 ], [ -97.451128483382348, 20.520934687369529 ], [ -97.450050505041403, 20.520934687369529 ], [ -97.450050505041403, 20.521204181954765 ] ] ] ] } },
{ "type": "Feature", "properties": { "ZONA_MET": "Poza_Rica", "INTENSIDAD": "Intensa", "T_PROM_POL": 3.0, "T_MIN_CIUD": 3.0, "DIF_TERMIC": 8.0 }, "geometry": { "type": "MultiPolygon", "coordinates": [ [ [ [ -97.464603212644136, 20.51500580649434 ], [ -97.464333718058896, 20.51500580649434 ], [ -97.464333718058896, 20.514736311909104 ], [ -97.46406422347367, 20.514736311909104 ], [ -97.46406422347367, 20.514197322738632 ], [ -97.464333718058896, 20.514197322738632 ], [ -97.464333718058896, 20.513658333568159 ], [ -97.464603212644136, 20.513658333568159 ], [ -97.464603212644136, 20.513388838982923 ], [ -97.465142201814615, 20.513388838982923 ], [ -97.465142201814615, 20.513927828153395 ], [ -97.464872707229375, 20.513927828153395 ], [ -97.464872707229375, 20.514197322738632 ], [ -97.464603212644136, 20.514197322738632 ], [ -97.464603212644136, 20.51500580649434 ] ] ] ] } },
{ "type": "Feature", "properties": { "ZONA_MET": "Poza_Rica", "INTENSIDAD": "Intensa", "T_PROM_POL": 3.0, "T_MIN_CIUD": 3.0, "DIF_TERMIC": 7.0 }, "geometry": { "type": "MultiPolygon", "coordinates": [ [ [ [ -97.478886425661642, 20.509076925619151 ], [ -97.478347436491163, 20.509076925619151 ], [ -97.478347436491163, 20.508807431033915 ], [ -97.477269458150218, 20.508807431033915 ], [ -97.477269458150218, 20.509076925619151 ], [ -97.476730468979753, 20.509076925619151 ], [ -97.476730468979753, 20.508807431033915 ], [ -97.476999963564992, 20.508807431033915 ], [ -97.476999963564992, 20.508268441863443 ], [ -97.476730468979753, 20.508268441863443 ], [ -97.476730468979753, 20.507998947278207 ], [ -97.477269458150218, 20.507998947278207 ], [ -97.477269458150218, 20.507459958107734 ], [ -97.477538952735458, 20.507459958107734 ], [ -97.477538952735458, 20.507190463522498 ], [ -97.476999963564992, 20.507190463522498 ], [ -97.476999963564992, 20.506920968937262 ], [ -97.477269458150218, 20.506920968937262 ], [ -97.477269458150218, 20.506651474352026 ], [ -97.477538952735458, 20.506651474352026 ], [ -97.477538952735458, 20.506920968937262 ], [ -97.478077941905937, 20.506920968937262 ], [ -97.478077941905937, 20.506651474352026 ], [ -97.478886425661642, 20.506651474352026 ], [ -97.478886425661642, 20.506920968937262 ], [ -97.478616931076402, 20.506920968937262 ], [ -97.478616931076402, 20.507190463522498 ], [ -97.478347436491163, 20.507190463522498 ], [ -97.478347436491163, 20.507729452692971 ], [ -97.478077941905937, 20.507729452692971 ], [ -97.478077941905937, 20.507998947278207 ], [ -97.477808447320697, 20.507998947278207 ], [ -97.477808447320697, 20.508268441863443 ], [ -97.478077941905937, 20.508268441863443 ], [ -97.478077941905937, 20.508537936448679 ], [ -97.478347436491163, 20.508537936448679 ], [ -97.478347436491163, 20.508268441863443 ], [ -97.478616931076402, 20.508268441863443 ], [ -97.478616931076402, 20.508807431033915 ], [ -97.478886425661642, 20.508807431033915 ], [ -97.478886425661642, 20.509076925619151 ] ] ] ] } },
{ "type": "Feature", "properties": { "ZONA_MET": "Poza_Rica", "INTENSIDAD": "Intensa", "T_PROM_POL": 3.0, "T_MIN_CIUD": 3.0, "DIF_TERMIC": 7.0 }, "geometry": { "type": "MultiPolygon", "coordinates": [ [ [ [ -97.475382996053568, 20.505304001425849 ], [ -97.474574512297863, 20.505304001425849 ], [ -97.474574512297863, 20.505034506840612 ], [ -97.473766028542158, 20.505034506840612 ], [ -97.473766028542158, 20.50449551767014 ], [ -97.474035523127398, 20.50449551767014 ], [ -97.474035523127398, 20.504226023084904 ], [ -97.473766028542158, 20.504226023084904 ], [ -97.473766028542158, 20.502070066403018 ], [ -97.474035523127398, 20.502070066403018 ], [ -97.474035523127398, 20.500992088062073 ], [ -97.475113501468343, 20.500992088062073 ], [ -97.475113501468343, 20.501261582647309 ], [ -97.475382996053568, 20.501261582647309 ], [ -97.475382996053568, 20.501531077232546 ], [ -97.475652490638808, 20.501531077232546 ], [ -97.475652490638808, 20.502070066403018 ], [ -97.475382996053568, 20.502070066403018 ], [ -97.475382996053568, 20.50260905557349 ], [ -97.474035523127398, 20.50260905557349 ], [ -97.474035523127398, 20.503417539329195 ], [ -97.474305017712624, 20.503417539329195 ], [ -97.474305017712624, 20.503687033914431 ], [ -97.474035523127398, 20.503687033914431 ], [ -97.474035523127398, 20.503956528499668 ], [ -97.474305017712624, 20.503956528499668 ], [ -97.474305017712624, 20.50449551767014 ], [ -97.474574512297863, 20.50449551767014 ], [ -97.474574512297863, 20.504765012255376 ], [ -97.474844006883103, 20.504765012255376 ], [ -97.474844006883103, 20.50449551767014 ], [ -97.475382996053568, 20.50449551767014 ], [ -97.475382996053568, 20.503956528499668 ], [ -97.475652490638808, 20.503956528499668 ], [ -97.475652490638808, 20.504765012255376 ], [ -97.475382996053568, 20.504765012255376 ], [ -97.475382996053568, 20.505304001425849 ] ], [ [ -97.475113501468343, 20.502070066403018 ], [ -97.475113501468343, 20.501800571817782 ], [ -97.474305017712624, 20.501800571817782 ], [ -97.474305017712624, 20.502070066403018 ], [ -97.475113501468343, 20.502070066403018 ] ] ] ] } }
]
}
