{
"type": "FeatureCollection",
"name": "UHI_Campeche",
"crs": { "type": "name", "properties": { "name": "urn:ogc:def:crs:OGC:1.3:CRS84" } },
"features": [
{ "type": "Feature", "properties": { "ZONA_MET": "Campeche", "INTENSIDAD": "Intensa", "T_PROM_POL": 4.0, "T_MIN_CIUD": 2.0, "DIF_TERMIC": 1.0 }, "geometry": { "type": "MultiPolygon", "coordinates": [ [ [ [ -90.511912408144283, 19.863906888564511 ], [ -90.511373418973804, 19.863906888564511 ], [ -90.511373418973804, 19.863637393979275 ], [ -90.511103924388578, 19.863637393979275 ], [ -90.511103924388578, 19.86255941563833 ], [ -90.511912408144283, 19.86255941563833 ], [ -90.511912408144283, 19.863367899394039 ], [ -90.512181902729523, 19.863367899394039 ], [ -90.512181902729523, 19.863637393979275 ], [ -90.511912408144283, 19.863637393979275 ], [ -90.511912408144283, 19.863906888564511 ] ], [ [ -90.511642913559044, 19.863637393979275 ], [ -90.511642913559044, 19.863367899394039 ], [ -90.511373418973804, 19.863367899394039 ], [ -90.511373418973804, 19.863637393979275 ], [ -90.511642913559044, 19.863637393979275 ] ] ] ] } },
{ "type": "Feature", "properties": { "ZONA_MET": "Campeche", "INTENSIDAD": "Intensa", "T_PROM_POL": 4.0, "T_MIN_CIUD": 2.0, "DIF_TERMIC": 1.0 }, "geometry": { "type": "MultiPolygon", "coordinates": [ [ [ [ -90.48388497127975, 19.862289921053094 ], [ -90.483076487524045, 19.862289921053094 ], [ -90.483076487524045, 19.862020426467858 ], [ -90.483345982109284, 19.862020426467858 ], [ -90.483345982109284, 19.861481437297389 ], [ -90.483076487524045, 19.861481437297389 ], [ -90.483076487524045, 19.860942448126917 ], [ -90.484962949620694, 19.860942448126917 ], [ -90.484962949620694, 19.861211942712153 ], [ -90.484693455035455, 19.861211942712153 ], [ -90.484693455035455, 19.861481437297389 ], [ -90.484423960450229, 19.861481437297389 ], [ -90.484423960450229, 19.861211942712153 ], [ -90.48388497127975, 19.861211942712153 ], [ -90.48388497127975, 19.862289921053094 ] ] ] ] } },
{ "type": "Feature", "properties": { "ZONA_MET": "Campeche", "INTENSIDAD": "Intensa", "T_PROM_POL": 4.0, "T_MIN_CIUD": 2.0, "DIF_TERMIC": 1.0 }, "geometry": { "type": "MultiPolygon", "coordinates": [ [ [ [ -90.490891830495883, 19.857978007689322 ], [ -90.490083346740178, 19.857978007689322 ], [ -90.490083346740178, 19.85743901851885 ], [ -90.489544357569699, 19.85743901851885 ], [ -90.489544357569699, 19.857708513104086 ], [ -90.489274862984473, 19.857708513104086 ], [ -90.489274862984473, 19.857978007689322 ], [ -90.489005368399233, 19.857978007689322 ], [ -90.489005368399233, 19.85743901851885 ], [ -90.489274862984473, 19.85743901851885 ], [ -90.489274862984473, 19.856900029348378 ], [ -90.489544357569699, 19.856900029348378 ], [ -90.489544357569699, 19.856630534763141 ], [ -90.490083346740178, 19.856630534763141 ], [ -90.490083346740178, 19.857169523933614 ], [ -90.490352841325418, 19.857169523933614 ], [ -90.490352841325418, 19.856900029348378 ], [ -90.490622335910643, 19.856900029348378 ], [ -90.490622335910643, 19.85743901851885 ], [ -90.490891830495883, 19.85743901851885 ], [ -90.490891830495883, 19.857978007689322 ] ] ] ] } },
{ "type": "Feature", "properties": { "ZONA_MET": "Campeche", "INTENSIDAD": "Intensa", "T_PROM_POL": 4.0, "T_MIN_CIUD": 2.0, "DIF_TERMIC": 1.0 }, "geometry": { "type": "MultiPolygon", "coordinates": [ [ [ [ -90.52592612657655, 19.855013567251728 ], [ -90.525387137406071, 19.855013567251728 ], [ -90.525387137406071, 19.854744072666492 ], [ -90.525117642820831, 19.854744072666492 ], [ -90.525117642820831, 19.854474578081255 ], [ -90.524848148235606, 19.854474578081255 ], [ -90.524848148235606, 19.853935588910783 ], [ -90.524578653650366, 19.853935588910783 ], [ -90.524578653650366, 19.853666094325547 ], [ -90.525117642820831, 19.853666094325547 ], [ -90.525117642820831, 19.853396599740311 ], [ -90.52592612657655, 19.853396599740311 ], [ -90.52592612657655, 19.855013567251728 ] ] ] ] } },
{ "type": "Feature", "properties": { "ZONA_MET": "Campeche", "INTENSIDAD": "Intensa", "T_PROM_POL": 4.0, "T_MIN_CIUD": 2.0, "DIF_TERMIC": 1.0 }, "geometry": { "type": "MultiPolygon", "coordinates": [ [ [ [ -90.486040927961639, 19.85231862139937 ], [ -90.484962949620694, 19.85231862139937 ], [ -90.484962949620694, 19.852049126814133 ], [ -90.483345982109284, 19.852049126814133 ], [ -90.483345982109284, 19.851779632228897 ], [ -90.48361547669451, 19.851779632228897 ], [ -90.48361547669451, 19.851510137643661 ], [ -90.484423960450229, 19.851510137643661 ], [ -90.484423960450229, 19.851779632228897 ], [ -90.485232444205934, 19.851779632228897 ], [ -90.485232444205934, 19.852049126814133 ], [ -90.486040927961639, 19.852049126814133 ], [ -90.486040927961639, 19.85231862139937 ] ] ] ] } },
{ "type": "Feature", "properties": { "ZONA_MET": "Campeche", "INTENSIDAD": "Intensa", "T_PROM_POL": 4.0, "T_MIN_CIUD": 2.0, "DIF_TERMIC": 1.0 }, "geometry": { "type": "MultiPolygon", "coordinates": [ [ [ [ -90.491969808836828, 19.85231862139937 ], [ -90.490622335910643, 19.85231862139937 ], [ -90.490622335910643, 19.852049126814133 ], [ -90.490352841325418, 19.852049126814133 ], [ -90.490352841325418, 19.851240643058425 ], [ -90.490622335910643, 19.851240643058425 ], [ -90.490622335910643, 19.850971148473189 ], [ -90.490891830495883, 19.850971148473189 ], [ -90.490891830495883, 19.851240643058425 ], [ -90.491430819666363, 19.851240643058425 ], [ -90.491430819666363, 19.851779632228897 ], [ -90.491700314251588, 19.851779632228897 ], [ -90.491700314251588, 19.852049126814133 ], [ -90.491969808836828, 19.852049126814133 ], [ -90.491969808836828, 19.85231862139937 ] ], [ [ -90.491161325081123, 19.851779632228897 ], [ -90.491161325081123, 19.851510137643661 ], [ -90.490891830495883, 19.851510137643661 ], [ -90.490891830495883, 19.851779632228897 ], [ -90.491161325081123, 19.851779632228897 ] ] ] ] } },
{ "type": "Feature", "properties": { "ZONA_MET": "Campeche", "INTENSIDAD": "Intensa", "T_PROM_POL": 4.0, "T_MIN_CIUD": 2.0, "DIF_TERMIC": 1.0 }, "geometry": { "type": "MultiPolygon", "coordinates": [ [ [ [ -90.467984790750833, 19.851510137643661 ], [ -90.467445801580368, 19.851510137643661 ], [ -90.467445801580368, 19.851240643058425 ], [ -90.467176306995128, 19.851240643058425 ], [ -90.467176306995128, 19.850971148473189 ], [ -90.467715296165593, 19.850971148473189 ], [ -90.467715296165593, 19.850432159302716 ], [ -90.467984790750833, 19.850432159302716 ], [ -90.467984790750833, 19.85016266471748 ], [ -90.468523779921313, 19.85016266471748 ], [ -90.468523779921313, 19.850432159302716 ], [ -90.468793274506538, 19.850432159302716 ], [ -90.468793274506538, 19.850701653887953 ], [ -90.468523779921313, 19.850701653887953 ], [ -90.468523779921313, 19.850971148473189 ], [ -90.468254285336073, 19.850971148473189 ], [ -90.468254285336073, 19.851240643058425 ], [ -90.467984790750833, 19.851240643058425 ], [ -90.467984790750833, 19.851510137643661 ] ] ] ] } },
{ "type": "Feature", "properties": { "ZONA_MET": "Campeche", "INTENSIDAD": "Extrema", "T_PROM_POL": 4.0, "T_MIN_CIUD": 2.0, "DIF_TERMIC": 1.0 }, "geometry": { "type": "MultiPolygon", "coordinates": [ [ [ [ -90.532932985792684, 19.852049126814133 ], [ -90.532663491207444, 19.852049126814133 ], [ -90.532663491207444, 19.851510137643661 ], [ -90.532393996622204, 19.851510137643661 ], [ -90.532393996622204, 19.851240643058425 ], [ -90.532124502036964, 19.851240643058425 ], [ -90.532124502036964, 19.850971148473189 ], [ -90.532932985792684, 19.850971148473189 ], [ -90.532932985792684, 19.850701653887953 ], [ -90.533202480377909, 19.850701653887953 ], [ -90.533202480377909, 19.850432159302716 ], [ -90.533741469548389, 19.850432159302716 ], [ -90.533741469548389, 19.849893170132244 ], [ -90.535088942474559, 19.849893170132244 ], [ -90.535088942474559, 19.850701653887953 ], [ -90.534819447889333, 19.850701653887953 ], [ -90.534819447889333, 19.851240643058425 ], [ -90.534549953304094, 19.851240643058425 ], [ -90.534549953304094, 19.851510137643661 ], [ -90.534280458718854, 19.851510137643661 ], [ -90.534280458718854, 19.851240643058425 ], [ -90.533471974963149, 19.851240643058425 ], [ -90.533471974963149, 19.851779632228897 ], [ -90.532932985792684, 19.851779632228897 ], [ -90.532932985792684, 19.852049126814133 ] ], [ [ -90.534549953304094, 19.850701653887953 ], [ -90.534549953304094, 19.850432159302716 ], [ -90.534010964133614, 19.850432159302716 ], [ -90.534010964133614, 19.850701653887953 ], [ -90.534549953304094, 19.850701653887953 ] ] ] ] } },
{ "type": "Feature", "properties": { "ZONA_MET": "Campeche", "INTENSIDAD": "Intensa", "T_PROM_POL": 4.0, "T_MIN_CIUD": 2.0, "DIF_TERMIC": 1.0 }, "geometry": { "type": "MultiPolygon", "coordinates": [ [ [ [ -90.53131601828126, 19.854205083496019 ], [ -90.530777029110794, 19.854205083496019 ], [ -90.530777029110794, 19.853935588910783 ], [ -90.530507534525555, 19.853935588910783 ], [ -90.530507534525555, 19.853666094325547 ], [ -90.530238039940315, 19.853666094325547 ], [ -90.530238039940315, 19.852857610569838 ], [ -90.52942955618461, 19.852857610569838 ], [ -90.52942955618461, 19.853127105155075 ], [ -90.52916006159937, 19.853127105155075 ], [ -90.52916006159937, 19.853396599740311 ], [ -90.528082083258425, 19.853396599740311 ], [ -90.528082083258425, 19.853127105155075 ], [ -90.5278125886732, 19.853127105155075 ], [ -90.5278125886732, 19.852049126814133 ], [ -90.528890567014145, 19.852049126814133 ], [ -90.528890567014145, 19.85231862139937 ], [ -90.528621072428905, 19.85231862139937 ], [ -90.528621072428905, 19.852857610569838 ], [ -90.52916006159937, 19.852857610569838 ], [ -90.52916006159937, 19.852588115984602 ], [ -90.52942955618461, 19.852588115984602 ], [ -90.52942955618461, 19.85231862139937 ], [ -90.52916006159937, 19.85231862139937 ], [ -90.52916006159937, 19.851779632228897 ], [ -90.52969905076985, 19.851779632228897 ], [ -90.52969905076985, 19.851510137643661 ], [ -90.530238039940315, 19.851510137643661 ], [ -90.530238039940315, 19.851779632228897 ], [ -90.529968545355089, 19.851779632228897 ], [ -90.529968545355089, 19.852049126814133 ], [ -90.530507534525555, 19.852049126814133 ], [ -90.530507534525555, 19.85231862139937 ], [ -90.530238039940315, 19.85231862139937 ], [ -90.530238039940315, 19.852588115984602 ], [ -90.53104652369602, 19.852588115984602 ], [ -90.53104652369602, 19.852049126814133 ], [ -90.53131601828126, 19.852049126814133 ], [ -90.53131601828126, 19.85231862139937 ], [ -90.531585512866499, 19.85231862139937 ], [ -90.531585512866499, 19.852049126814133 ], [ -90.531855007451739, 19.852049126814133 ], [ -90.531855007451739, 19.851779632228897 ], [ -90.531585512866499, 19.851779632228897 ], [ -90.531585512866499, 19.851510137643661 ], [ -90.53104652369602, 19.851510137643661 ], [ -90.53104652369602, 19.850701653887953 ], [ -90.531585512866499, 19.850701653887953 ], [ -90.531585512866499, 19.85016266471748 ], [ -90.53131601828126, 19.85016266471748 ], [ -90.53131601828126, 19.849623675547008 ], [ -90.53104652369602, 19.849623675547008 ], [ -90.53104652369602, 19.849084686376539 ], [ -90.531855007451739, 19.849084686376539 ], [ -90.531855007451739, 19.849354180961775 ], [ -90.532124502036964, 19.849354180961775 ], [ -90.532124502036964, 19.849623675547008 ], [ -90.532932985792684, 19.849623675547008 ], [ -90.532932985792684, 19.849354180961775 ], [ -90.533202480377909, 19.849354180961775 ], [ -90.533202480377909, 19.849893170132244 ], [ -90.532932985792684, 19.849893170132244 ], [ -90.532932985792684, 19.85016266471748 ], [ -90.532124502036964, 19.85016266471748 ], [ -90.532124502036964, 19.851240643058425 ], [ -90.532393996622204, 19.851240643058425 ], [ -90.532393996622204, 19.851510137643661 ], [ -90.532663491207444, 19.851510137643661 ], [ -90.532663491207444, 19.852049126814133 ], [ -90.532932985792684, 19.852049126814133 ], [ -90.532932985792684, 19.85231862139937 ], [ -90.533202480377909, 19.85231862139937 ], [ -90.533202480377909, 19.852588115984602 ], [ -90.533741469548389, 19.852588115984602 ], [ -90.533741469548389, 19.852857610569838 ], [ -90.531855007451739, 19.852857610569838 ], [ -90.531855007451739, 19.852588115984602 ], [ -90.53131601828126, 19.852588115984602 ], [ -90.53131601828126, 19.852857610569838 ], [ -90.531585512866499, 19.852857610569838 ], [ -90.531585512866499, 19.853127105155075 ], [ -90.531855007451739, 19.853127105155075 ], [ -90.531855007451739, 19.853396599740311 ], [ -90.531585512866499, 19.853396599740311 ], [ -90.531585512866499, 19.853935588910783 ], [ -90.53131601828126, 19.853935588910783 ], [ -90.53131601828126, 19.854205083496019 ] ], [ [ -90.53104652369602, 19.853396599740311 ], [ -90.53104652369602, 19.852857610569838 ], [ -90.530777029110794, 19.852857610569838 ], [ -90.530777029110794, 19.853396599740311 ], [ -90.53104652369602, 19.853396599740311 ] ], [ [ -90.52969905076985, 19.85231862139937 ], [ -90.52969905076985, 19.852049126814133 ], [ -90.52942955618461, 19.852049126814133 ], [ -90.52942955618461, 19.85231862139937 ], [ -90.52969905076985, 19.85231862139937 ] ] ] ] } },
{ "type": "Feature", "properties": { "ZONA_MET": "Campeche", "INTENSIDAD": "Extrema", "T_PROM_POL": 4.0, "T_MIN_CIUD": 2.0, "DIF_TERMIC": 1.0 }, "geometry": { "type": "MultiPolygon", "coordinates": [ [ [ [ -90.496281722200607, 19.849354180961775 ], [ -90.494664754689182, 19.849354180961775 ], [ -90.494664754689182, 19.849084686376539 ], [ -90.494934249274422, 19.849084686376539 ], [ -90.494934249274422, 19.848815191791303 ], [ -90.494664754689182, 19.848815191791303 ], [ -90.494664754689182, 19.848276202620831 ], [ -90.494934249274422, 19.848276202620831 ], [ -90.494934249274422, 19.848006708035594 ], [ -90.496012227615367, 19.848006708035594 ], [ -90.496012227615367, 19.849084686376539 ], [ -90.496281722200607, 19.849084686376539 ], [ -90.496281722200607, 19.849354180961775 ] ] ] ] } },
{ "type": "Feature", "properties": { "ZONA_MET": "Campeche", "INTENSIDAD": "Intensa", "T_PROM_POL": 4.0, "T_MIN_CIUD": 2.0, "DIF_TERMIC": 1.0 }, "geometry": { "type": "MultiPolygon", "coordinates": [ [ [ [ -90.495742733030127, 19.849893170132244 ], [ -90.494125765518717, 19.849893170132244 ], [ -90.494125765518717, 19.849354180961775 ], [ -90.493856270933478, 19.849354180961775 ], [ -90.493856270933478, 19.849084686376539 ], [ -90.494395260103957, 19.849084686376539 ], [ -90.494395260103957, 19.848815191791303 ], [ -90.494125765518717, 19.848815191791303 ], [ -90.494125765518717, 19.848276202620831 ], [ -90.494395260103957, 19.848276202620831 ], [ -90.494395260103957, 19.848006708035594 ], [ -90.494125765518717, 19.848006708035594 ], [ -90.494125765518717, 19.847737213450358 ], [ -90.494395260103957, 19.847737213450358 ], [ -90.494395260103957, 19.847467718865122 ], [ -90.495473238444887, 19.847467718865122 ], [ -90.495473238444887, 19.847737213450358 ], [ -90.494664754689182, 19.847737213450358 ], [ -90.494664754689182, 19.848006708035594 ], [ -90.494934249274422, 19.848006708035594 ], [ -90.494934249274422, 19.848276202620831 ], [ -90.494664754689182, 19.848276202620831 ], [ -90.494664754689182, 19.848815191791303 ], [ -90.494934249274422, 19.848815191791303 ], [ -90.494934249274422, 19.849084686376539 ], [ -90.494664754689182, 19.849084686376539 ], [ -90.494664754689182, 19.849354180961775 ], [ -90.495742733030127, 19.849354180961775 ], [ -90.495742733030127, 19.849893170132244 ] ] ] ] } },
{ "type": "Feature", "properties": { "ZONA_MET": "Campeche", "INTENSIDAD": "Intensa", "T_PROM_POL": 4.0, "T_MIN_CIUD": 2.0, "DIF_TERMIC": 1.0 }, "geometry": { "type": "MultiPolygon", "coordinates": [ [ [ [ -90.48388497127975, 19.848006708035594 ], [ -90.483076487524045, 19.848006708035594 ], [ -90.483076487524045, 19.847198224279886 ], [ -90.482806992938805, 19.847198224279886 ], [ -90.482806992938805, 19.846659235109414 ], [ -90.483076487524045, 19.846659235109414 ], [ -90.483076487524045, 19.84692872969465 ], [ -90.48361547669451, 19.84692872969465 ], [ -90.48361547669451, 19.846659235109414 ], [ -90.48388497127975, 19.846659235109414 ], [ -90.48388497127975, 19.848006708035594 ] ] ] ] } },
{ "type": "Feature", "properties": { "ZONA_MET": "Campeche", "INTENSIDAD": "Intensa", "T_PROM_POL": 4.0, "T_MIN_CIUD": 2.0, "DIF_TERMIC": 1.0 }, "geometry": { "type": "MultiPolygon", "coordinates": [ [ [ [ -90.535358437059799, 19.851240643058425 ], [ -90.534819447889333, 19.851240643058425 ], [ -90.534819447889333, 19.850701653887953 ], [ -90.535088942474559, 19.850701653887953 ], [ -90.535088942474559, 19.849623675547008 ], [ -90.534819447889333, 19.849623675547008 ], [ -90.534819447889333, 19.849354180961775 ], [ -90.534280458718854, 19.849354180961775 ], [ -90.534280458718854, 19.849084686376539 ], [ -90.534010964133614, 19.849084686376539 ], [ -90.534010964133614, 19.849354180961775 ], [ -90.533741469548389, 19.849354180961775 ], [ -90.533741469548389, 19.849623675547008 ], [ -90.533471974963149, 19.849623675547008 ], [ -90.533471974963149, 19.849354180961775 ], [ -90.533202480377909, 19.849354180961775 ], [ -90.533202480377909, 19.849084686376539 ], [ -90.533741469548389, 19.849084686376539 ], [ -90.533741469548389, 19.848815191791303 ], [ -90.534549953304094, 19.848815191791303 ], [ -90.534549953304094, 19.848276202620831 ], [ -90.534010964133614, 19.848276202620831 ], [ -90.534010964133614, 19.848006708035594 ], [ -90.534280458718854, 19.848006708035594 ], [ -90.534280458718854, 19.84692872969465 ], [ -90.534010964133614, 19.84692872969465 ], [ -90.534010964133614, 19.847198224279886 ], [ -90.533741469548389, 19.847198224279886 ], [ -90.533741469548389, 19.846659235109414 ], [ -90.533471974963149, 19.846659235109414 ], [ -90.533471974963149, 19.846389740524181 ], [ -90.532932985792684, 19.846389740524181 ], [ -90.532932985792684, 19.845850751353709 ], [ -90.534819447889333, 19.845850751353709 ], [ -90.534819447889333, 19.846389740524181 ], [ -90.535088942474559, 19.846389740524181 ], [ -90.535088942474559, 19.845850751353709 ], [ -90.536436415400743, 19.845850751353709 ], [ -90.536436415400743, 19.846389740524181 ], [ -90.536705909985983, 19.846389740524181 ], [ -90.536705909985983, 19.846659235109414 ], [ -90.536975404571209, 19.846659235109414 ], [ -90.536975404571209, 19.84692872969465 ], [ -90.536705909985983, 19.84692872969465 ], [ -90.536705909985983, 19.847198224279886 ], [ -90.537244899156448, 19.847198224279886 ], [ -90.537244899156448, 19.84692872969465 ], [ -90.537514393741688, 19.84692872969465 ], [ -90.537514393741688, 19.846389740524181 ], [ -90.537783888326928, 19.846389740524181 ], [ -90.537783888326928, 19.846659235109414 ], [ -90.538053382912153, 19.846659235109414 ], [ -90.538053382912153, 19.847198224279886 ], [ -90.538322877497393, 19.847198224279886 ], [ -90.538322877497393, 19.847467718865122 ], [ -90.538053382912153, 19.847467718865122 ], [ -90.538053382912153, 19.847737213450358 ], [ -90.537783888326928, 19.847737213450358 ], [ -90.537783888326928, 19.848006708035594 ], [ -90.537514393741688, 19.848006708035594 ], [ -90.537514393741688, 19.847737213450358 ], [ -90.537244899156448, 19.847737213450358 ], [ -90.537244899156448, 19.848006708035594 ], [ -90.536975404571209, 19.848006708035594 ], [ -90.536975404571209, 19.848545697206067 ], [ -90.536436415400743, 19.848545697206067 ], [ -90.536436415400743, 19.848276202620831 ], [ -90.536705909985983, 19.848276202620831 ], [ -90.536705909985983, 19.848006708035594 ], [ -90.536166920815504, 19.848006708035594 ], [ -90.536166920815504, 19.847737213450358 ], [ -90.535358437059799, 19.847737213450358 ], [ -90.535358437059799, 19.847467718865122 ], [ -90.534549953304094, 19.847467718865122 ], [ -90.534549953304094, 19.848006708035594 ], [ -90.534819447889333, 19.848006708035594 ], [ -90.534819447889333, 19.848276202620831 ], [ -90.535088942474559, 19.848276202620831 ], [ -90.535088942474559, 19.848006708035594 ], [ -90.535627931645038, 19.848006708035594 ], [ -90.535627931645038, 19.848815191791303 ], [ -90.535897426230278, 19.848815191791303 ], [ -90.535897426230278, 19.849084686376539 ], [ -90.535627931645038, 19.849084686376539 ], [ -90.535627931645038, 19.849893170132244 ], [ -90.535358437059799, 19.849893170132244 ], [ -90.535358437059799, 19.851240643058425 ] ], [ [ -90.535358437059799, 19.848815191791303 ], [ -90.535358437059799, 19.848545697206067 ], [ -90.534819447889333, 19.848545697206067 ], [ -90.534819447889333, 19.848815191791303 ], [ -90.535358437059799, 19.848815191791303 ] ], [ [ -90.537783888326928, 19.847467718865122 ], [ -90.537783888326928, 19.847198224279886 ], [ -90.537244899156448, 19.847198224279886 ], [ -90.537244899156448, 19.847467718865122 ], [ -90.537783888326928, 19.847467718865122 ] ] ] ] } },
{ "type": "Feature", "properties": { "ZONA_MET": "Campeche", "INTENSIDAD": "Extrema", "T_PROM_POL": 4.0, "T_MIN_CIUD": 2.0, "DIF_TERMIC": 1.0 }, "geometry": { "type": "MultiPolygon", "coordinates": [ [ [ [ -90.48361547669451, 19.84692872969465 ], [ -90.483076487524045, 19.84692872969465 ], [ -90.483076487524045, 19.846389740524181 ], [ -90.483345982109284, 19.846389740524181 ], [ -90.483345982109284, 19.845850751353709 ], [ -90.483076487524045, 19.845850751353709 ], [ -90.483076487524045, 19.845581256768472 ], [ -90.482806992938805, 19.845581256768472 ], [ -90.482806992938805, 19.845042267598 ], [ -90.48253749835358, 19.845042267598 ], [ -90.48253749835358, 19.844772773012764 ], [ -90.483076487524045, 19.844772773012764 ], [ -90.483076487524045, 19.844503278427528 ], [ -90.483345982109284, 19.844503278427528 ], [ -90.483345982109284, 19.844772773012764 ], [ -90.484154465864989, 19.844772773012764 ], [ -90.484154465864989, 19.845850751353709 ], [ -90.48388497127975, 19.845850751353709 ], [ -90.48388497127975, 19.846659235109414 ], [ -90.48361547669451, 19.846659235109414 ], [ -90.48361547669451, 19.84692872969465 ] ] ] ] } },
{ "type": "Feature", "properties": { "ZONA_MET": "Campeche", "INTENSIDAD": "Intensa", "T_PROM_POL": 4.0, "T_MIN_CIUD": 2.0, "DIF_TERMIC": 1.0 }, "geometry": { "type": "MultiPolygon", "coordinates": [ [ [ [ -90.50328858141674, 19.844503278427528 ], [ -90.502749592246261, 19.844503278427528 ], [ -90.502749592246261, 19.844233783842292 ], [ -90.502210603075795, 19.844233783842292 ], [ -90.502210603075795, 19.843694794671819 ], [ -90.502480097661021, 19.843694794671819 ], [ -90.502480097661021, 19.843425300086587 ], [ -90.502749592246261, 19.843425300086587 ], [ -90.502749592246261, 19.843694794671819 ], [ -90.5030190868315, 19.843694794671819 ], [ -90.5030190868315, 19.843964289257055 ], [ -90.50328858141674, 19.843964289257055 ], [ -90.50328858141674, 19.843694794671819 ], [ -90.503558076001966, 19.843694794671819 ], [ -90.503558076001966, 19.844233783842292 ], [ -90.50328858141674, 19.844233783842292 ], [ -90.50328858141674, 19.844503278427528 ] ] ] ] } },
{ "type": "Feature", "properties": { "ZONA_MET": "Campeche", "INTENSIDAD": "Intensa", "T_PROM_POL": 4.0, "T_MIN_CIUD": 2.0, "DIF_TERMIC": 1.0 }, "geometry": { "type": "MultiPolygon", "coordinates": [ [ [ [ -90.516763310678527, 19.844233783842292 ], [ -90.516493816093288, 19.844233783842292 ], [ -90.516493816093288, 19.843964289257055 ], [ -90.516224321508048, 19.843964289257055 ], [ -90.516224321508048, 19.843694794671819 ], [ -90.515954826922822, 19.843694794671819 ], [ -90.515954826922822, 19.843425300086587 ], [ -90.516224321508048, 19.843425300086587 ], [ -90.516224321508048, 19.84315580550135 ], [ -90.515685332337583, 19.84315580550135 ], [ -90.515685332337583, 19.842886310916114 ], [ -90.516763310678527, 19.842886310916114 ], [ -90.516763310678527, 19.842616816330878 ], [ -90.517032805263767, 19.842616816330878 ], [ -90.517032805263767, 19.842886310916114 ], [ -90.517571794434232, 19.842886310916114 ], [ -90.517571794434232, 19.84315580550135 ], [ -90.516763310678527, 19.84315580550135 ], [ -90.516763310678527, 19.844233783842292 ] ] ] ] } },
{ "type": "Feature", "properties": { "ZONA_MET": "Campeche", "INTENSIDAD": "Intensa", "T_PROM_POL": 4.0, "T_MIN_CIUD": 2.0, "DIF_TERMIC": 1.0 }, "geometry": { "type": "MultiPolygon", "coordinates": [ [ [ [ -90.5278125886732, 19.843964289257055 ], [ -90.52727359950272, 19.843964289257055 ], [ -90.52727359950272, 19.843694794671819 ], [ -90.527004104917495, 19.843694794671819 ], [ -90.527004104917495, 19.843964289257055 ], [ -90.524848148235606, 19.843964289257055 ], [ -90.524848148235606, 19.84315580550135 ], [ -90.525117642820831, 19.84315580550135 ], [ -90.525117642820831, 19.842616816330878 ], [ -90.525656631991311, 19.842616816330878 ], [ -90.525656631991311, 19.842347321745642 ], [ -90.526195621161776, 19.842347321745642 ], [ -90.526195621161776, 19.842886310916114 ], [ -90.526465115747015, 19.842886310916114 ], [ -90.526465115747015, 19.842616816330878 ], [ -90.527004104917495, 19.842616816330878 ], [ -90.527004104917495, 19.842347321745642 ], [ -90.52727359950272, 19.842347321745642 ], [ -90.52727359950272, 19.84315580550135 ], [ -90.525656631991311, 19.84315580550135 ], [ -90.525656631991311, 19.843425300086587 ], [ -90.52754309408796, 19.843425300086587 ], [ -90.52754309408796, 19.842616816330878 ], [ -90.5278125886732, 19.842616816330878 ], [ -90.5278125886732, 19.842886310916114 ], [ -90.528082083258425, 19.842886310916114 ], [ -90.528082083258425, 19.843694794671819 ], [ -90.5278125886732, 19.843694794671819 ], [ -90.5278125886732, 19.843964289257055 ] ], [ [ -90.52592612657655, 19.842886310916114 ], [ -90.52592612657655, 19.842616816330878 ], [ -90.525656631991311, 19.842616816330878 ], [ -90.525656631991311, 19.842886310916114 ], [ -90.52592612657655, 19.842886310916114 ] ] ] ] } },
{ "type": "Feature", "properties": { "ZONA_MET": "Campeche", "INTENSIDAD": "Intensa", "T_PROM_POL": 4.0, "T_MIN_CIUD": 2.0, "DIF_TERMIC": 1.0 }, "geometry": { "type": "MultiPolygon", "coordinates": [ [ [ [ -90.512720891899988, 19.842886310916114 ], [ -90.511912408144283, 19.842886310916114 ], [ -90.511912408144283, 19.842616816330878 ], [ -90.511373418973804, 19.842616816330878 ], [ -90.511373418973804, 19.842077827160406 ], [ -90.512451397314749, 19.842077827160406 ], [ -90.512451397314749, 19.841269343404697 ], [ -90.512990386485228, 19.841269343404697 ], [ -90.512990386485228, 19.842616816330878 ], [ -90.512720891899988, 19.842616816330878 ], [ -90.512720891899988, 19.842886310916114 ] ] ] ] } },
{ "type": "Feature", "properties": { "ZONA_MET": "Campeche", "INTENSIDAD": "Intensa", "T_PROM_POL": 4.0, "T_MIN_CIUD": 2.0, "DIF_TERMIC": 1.0 }, "geometry": { "type": "MultiPolygon", "coordinates": [ [ [ [ -90.540748328764522, 19.842886310916114 ], [ -90.540209339594043, 19.842886310916114 ], [ -90.540209339594043, 19.84180833257517 ], [ -90.539939845008803, 19.84180833257517 ], [ -90.539939845008803, 19.841538837989933 ], [ -90.539670350423577, 19.841538837989933 ], [ -90.539670350423577, 19.841269343404697 ], [ -90.538861866667872, 19.841269343404697 ], [ -90.538861866667872, 19.840460859648989 ], [ -90.539400855838338, 19.840460859648989 ], [ -90.539400855838338, 19.840730354234225 ], [ -90.540748328764522, 19.840730354234225 ], [ -90.540748328764522, 19.840999848819461 ], [ -90.541017823349748, 19.840999848819461 ], [ -90.541017823349748, 19.840730354234225 ], [ -90.541556812520227, 19.840730354234225 ], [ -90.541556812520227, 19.840999848819461 ], [ -90.541826307105467, 19.840999848819461 ], [ -90.541826307105467, 19.841538837989933 ], [ -90.541556812520227, 19.841538837989933 ], [ -90.541556812520227, 19.842616816330878 ], [ -90.541287317934987, 19.842616816330878 ], [ -90.541287317934987, 19.842077827160406 ], [ -90.540748328764522, 19.842077827160406 ], [ -90.540748328764522, 19.842886310916114 ] ], [ [ -90.541287317934987, 19.84180833257517 ], [ -90.541287317934987, 19.841538837989933 ], [ -90.541017823349748, 19.841538837989933 ], [ -90.541017823349748, 19.841269343404697 ], [ -90.540748328764522, 19.841269343404697 ], [ -90.540748328764522, 19.84180833257517 ], [ -90.541287317934987, 19.84180833257517 ] ] ] ] } },
{ "type": "Feature", "properties": { "ZONA_MET": "Campeche", "INTENSIDAD": "Intensa", "T_PROM_POL": 4.0, "T_MIN_CIUD": 2.0, "DIF_TERMIC": 1.0 }, "geometry": { "type": "MultiPolygon", "coordinates": [ [ [ [ -90.532393996622204, 19.845311762183236 ], [ -90.531585512866499, 19.845311762183236 ], [ -90.531585512866499, 19.845042267598 ], [ -90.532124502036964, 19.845042267598 ], [ -90.532124502036964, 19.844772773012764 ], [ -90.531855007451739, 19.844772773012764 ], [ -90.531855007451739, 19.844503278427528 ], [ -90.532393996622204, 19.844503278427528 ], [ -90.532393996622204, 19.843964289257055 ], [ -90.531585512866499, 19.843964289257055 ], [ -90.531585512866499, 19.843425300086587 ], [ -90.53131601828126, 19.843425300086587 ], [ -90.53131601828126, 19.843694794671819 ], [ -90.53104652369602, 19.843694794671819 ], [ -90.53104652369602, 19.843964289257055 ], [ -90.530238039940315, 19.843964289257055 ], [ -90.530238039940315, 19.843694794671819 ], [ -90.52969905076985, 19.843694794671819 ], [ -90.52969905076985, 19.843425300086587 ], [ -90.529968545355089, 19.843425300086587 ], [ -90.529968545355089, 19.84315580550135 ], [ -90.530507534525555, 19.84315580550135 ], [ -90.530507534525555, 19.843425300086587 ], [ -90.53104652369602, 19.843425300086587 ], [ -90.53104652369602, 19.842886310916114 ], [ -90.531855007451739, 19.842886310916114 ], [ -90.531855007451739, 19.842347321745642 ], [ -90.532124502036964, 19.842347321745642 ], [ -90.532124502036964, 19.842077827160406 ], [ -90.532663491207444, 19.842077827160406 ], [ -90.532663491207444, 19.84180833257517 ], [ -90.532932985792684, 19.84180833257517 ], [ -90.532932985792684, 19.841538837989933 ], [ -90.533202480377909, 19.841538837989933 ], [ -90.533202480377909, 19.841269343404697 ], [ -90.533471974963149, 19.841269343404697 ], [ -90.533471974963149, 19.840999848819461 ], [ -90.534010964133614, 19.840999848819461 ], [ -90.534010964133614, 19.840730354234225 ], [ -90.534280458718854, 19.840730354234225 ], [ -90.534280458718854, 19.840460859648989 ], [ -90.535358437059799, 19.840460859648989 ], [ -90.535358437059799, 19.83992187047852 ], [ -90.535088942474559, 19.83992187047852 ], [ -90.535088942474559, 19.839113386722811 ], [ -90.535358437059799, 19.839113386722811 ], [ -90.535358437059799, 19.839382881308048 ], [ -90.535897426230278, 19.839382881308048 ], [ -90.535897426230278, 19.83992187047852 ], [ -90.536166920815504, 19.83992187047852 ], [ -90.536166920815504, 19.840191365063756 ], [ -90.535897426230278, 19.840191365063756 ], [ -90.535897426230278, 19.840460859648989 ], [ -90.535627931645038, 19.840460859648989 ], [ -90.535627931645038, 19.840730354234225 ], [ -90.535358437059799, 19.840730354234225 ], [ -90.535358437059799, 19.840999848819461 ], [ -90.535088942474559, 19.840999848819461 ], [ -90.535088942474559, 19.841269343404697 ], [ -90.534819447889333, 19.841269343404697 ], [ -90.534819447889333, 19.841538837989933 ], [ -90.534549953304094, 19.841538837989933 ], [ -90.534549953304094, 19.840999848819461 ], [ -90.534280458718854, 19.840999848819461 ], [ -90.534280458718854, 19.841538837989933 ], [ -90.534010964133614, 19.841538837989933 ], [ -90.534010964133614, 19.84180833257517 ], [ -90.535088942474559, 19.84180833257517 ], [ -90.535088942474559, 19.842077827160406 ], [ -90.535358437059799, 19.842077827160406 ], [ -90.535358437059799, 19.84180833257517 ], [ -90.535627931645038, 19.84180833257517 ], [ -90.535627931645038, 19.841538837989933 ], [ -90.536705909985983, 19.841538837989933 ], [ -90.536705909985983, 19.841269343404697 ], [ -90.537244899156448, 19.841269343404697 ], [ -90.537244899156448, 19.84180833257517 ], [ -90.536975404571209, 19.84180833257517 ], [ -90.536975404571209, 19.842347321745642 ], [ -90.536705909985983, 19.842347321745642 ], [ -90.536705909985983, 19.842616816330878 ], [ -90.536436415400743, 19.842616816330878 ], [ -90.536436415400743, 19.842347321745642 ], [ -90.535627931645038, 19.842347321745642 ], [ -90.535627931645038, 19.842616816330878 ], [ -90.535358437059799, 19.842616816330878 ], [ -90.535358437059799, 19.842886310916114 ], [ -90.534819447889333, 19.842886310916114 ], [ -90.534819447889333, 19.842616816330878 ], [ -90.534549953304094, 19.842616816330878 ], [ -90.534549953304094, 19.842886310916114 ], [ -90.534010964133614, 19.842886310916114 ], [ -90.534010964133614, 19.843694794671819 ], [ -90.533202480377909, 19.843694794671819 ], [ -90.533202480377909, 19.843964289257055 ], [ -90.533471974963149, 19.843964289257055 ], [ -90.533471974963149, 19.844233783842292 ], [ -90.533202480377909, 19.844233783842292 ], [ -90.533202480377909, 19.844503278427528 ], [ -90.532932985792684, 19.844503278427528 ], [ -90.532932985792684, 19.844233783842292 ], [ -90.532663491207444, 19.844233783842292 ], [ -90.532663491207444, 19.844772773012764 ], [ -90.532393996622204, 19.844772773012764 ], [ -90.532393996622204, 19.845311762183236 ] ], [ [ -90.532932985792684, 19.843425300086587 ], [ -90.532932985792684, 19.84315580550135 ], [ -90.532393996622204, 19.84315580550135 ], [ -90.532393996622204, 19.843425300086587 ], [ -90.532932985792684, 19.843425300086587 ] ], [ [ -90.534010964133614, 19.842347321745642 ], [ -90.534010964133614, 19.842077827160406 ], [ -90.533741469548389, 19.842077827160406 ], [ -90.533741469548389, 19.842347321745642 ], [ -90.534010964133614, 19.842347321745642 ] ], [ [ -90.536166920815504, 19.842077827160406 ], [ -90.536166920815504, 19.84180833257517 ], [ -90.535897426230278, 19.84180833257517 ], [ -90.535897426230278, 19.842077827160406 ], [ -90.536166920815504, 19.842077827160406 ] ], [ [ -90.534819447889333, 19.840999848819461 ], [ -90.534819447889333, 19.840730354234225 ], [ -90.534549953304094, 19.840730354234225 ], [ -90.534549953304094, 19.840999848819461 ], [ -90.534819447889333, 19.840999848819461 ] ] ] ] } },
{ "type": "Feature", "properties": { "ZONA_MET": "Campeche", "INTENSIDAD": "Extrema", "T_PROM_POL": 4.0, "T_MIN_CIUD": 2.0, "DIF_TERMIC": 1.0 }, "geometry": { "type": "MultiPolygon", "coordinates": [ [ [ [ -90.535358437059799, 19.842077827160406 ], [ -90.535088942474559, 19.842077827160406 ], [ -90.535088942474559, 19.84180833257517 ], [ -90.534010964133614, 19.84180833257517 ], [ -90.534010964133614, 19.841538837989933 ], [ -90.534819447889333, 19.841538837989933 ], [ -90.534819447889333, 19.841269343404697 ], [ -90.535088942474559, 19.841269343404697 ], [ -90.535088942474559, 19.840999848819461 ], [ -90.535358437059799, 19.840999848819461 ], [ -90.535358437059799, 19.840730354234225 ], [ -90.535627931645038, 19.840730354234225 ], [ -90.535627931645038, 19.840460859648989 ], [ -90.535897426230278, 19.840460859648989 ], [ -90.535897426230278, 19.840191365063756 ], [ -90.536436415400743, 19.840191365063756 ], [ -90.536436415400743, 19.839652375893284 ], [ -90.536166920815504, 19.839652375893284 ], [ -90.536166920815504, 19.83992187047852 ], [ -90.535897426230278, 19.83992187047852 ], [ -90.535897426230278, 19.838843892137575 ], [ -90.536436415400743, 19.838843892137575 ], [ -90.536436415400743, 19.838574397552339 ], [ -90.536705909985983, 19.838574397552339 ], [ -90.536705909985983, 19.839113386722811 ], [ -90.536975404571209, 19.839113386722811 ], [ -90.536975404571209, 19.839652375893284 ], [ -90.537514393741688, 19.839652375893284 ], [ -90.537514393741688, 19.838843892137575 ], [ -90.537783888326928, 19.838843892137575 ], [ -90.537783888326928, 19.838574397552339 ], [ -90.538053382912153, 19.838574397552339 ], [ -90.538053382912153, 19.838304902967103 ], [ -90.539131361253098, 19.838304902967103 ], [ -90.539131361253098, 19.839652375893284 ], [ -90.538861866667872, 19.839652375893284 ], [ -90.538861866667872, 19.840999848819461 ], [ -90.538053382912153, 19.840999848819461 ], [ -90.538053382912153, 19.840730354234225 ], [ -90.537514393741688, 19.840730354234225 ], [ -90.537514393741688, 19.840460859648989 ], [ -90.536975404571209, 19.840460859648989 ], [ -90.536975404571209, 19.841269343404697 ], [ -90.536436415400743, 19.841269343404697 ], [ -90.536436415400743, 19.841538837989933 ], [ -90.535627931645038, 19.841538837989933 ], [ -90.535627931645038, 19.84180833257517 ], [ -90.535358437059799, 19.84180833257517 ], [ -90.535358437059799, 19.842077827160406 ] ], [ [ -90.536436415400743, 19.841269343404697 ], [ -90.536436415400743, 19.840999848819461 ], [ -90.536705909985983, 19.840999848819461 ], [ -90.536705909985983, 19.840730354234225 ], [ -90.536166920815504, 19.840730354234225 ], [ -90.536166920815504, 19.840999848819461 ], [ -90.535897426230278, 19.840999848819461 ], [ -90.535897426230278, 19.841269343404697 ], [ -90.536436415400743, 19.841269343404697 ] ], [ [ -90.537783888326928, 19.83992187047852 ], [ -90.537783888326928, 19.839652375893284 ], [ -90.537514393741688, 19.839652375893284 ], [ -90.537514393741688, 19.83992187047852 ], [ -90.537783888326928, 19.83992187047852 ] ] ] ] } },
{ "type": "Feature", "properties": { "ZONA_MET": "Campeche", "INTENSIDAD": "Intensa", "T_PROM_POL": 4.0, "T_MIN_CIUD": 2.0, "DIF_TERMIC": 1.0 }, "geometry": { "type": "MultiPolygon", "coordinates": [ [ [ [ -90.539939845008803, 19.840191365063756 ], [ -90.538861866667872, 19.840191365063756 ], [ -90.538861866667872, 19.839652375893284 ], [ -90.539131361253098, 19.839652375893284 ], [ -90.539131361253098, 19.838304902967103 ], [ -90.538053382912153, 19.838304902967103 ], [ -90.538053382912153, 19.838035408381867 ], [ -90.538322877497393, 19.838035408381867 ], [ -90.538322877497393, 19.837496419211394 ], [ -90.538861866667872, 19.837496419211394 ], [ -90.538861866667872, 19.83776591379663 ], [ -90.539131361253098, 19.83776591379663 ], [ -90.539131361253098, 19.838035408381867 ], [ -90.539670350423577, 19.838035408381867 ], [ -90.539670350423577, 19.838304902967103 ], [ -90.539939845008803, 19.838304902967103 ], [ -90.539939845008803, 19.840191365063756 ] ] ] ] } },
{ "type": "Feature", "properties": { "ZONA_MET": "Campeche", "INTENSIDAD": "Extrema", "T_PROM_POL": 4.0, "T_MIN_CIUD": 2.0, "DIF_TERMIC": 1.0 }, "geometry": { "type": "MultiPolygon", "coordinates": [ [ [ [ -90.535088942474559, 19.838304902967103 ], [ -90.534819447889333, 19.838304902967103 ], [ -90.534819447889333, 19.83776591379663 ], [ -90.534280458718854, 19.83776591379663 ], [ -90.534280458718854, 19.836957430040925 ], [ -90.534549953304094, 19.836957430040925 ], [ -90.534549953304094, 19.837226924626162 ], [ -90.534819447889333, 19.837226924626162 ], [ -90.534819447889333, 19.836957430040925 ], [ -90.535088942474559, 19.836957430040925 ], [ -90.535088942474559, 19.837226924626162 ], [ -90.535358437059799, 19.837226924626162 ], [ -90.535358437059799, 19.838035408381867 ], [ -90.535088942474559, 19.838035408381867 ], [ -90.535088942474559, 19.838304902967103 ] ] ] ] } },
{ "type": "Feature", "properties": { "ZONA_MET": "Campeche", "INTENSIDAD": "Intensa", "T_PROM_POL": 4.0, "T_MIN_CIUD": 2.0, "DIF_TERMIC": 1.0 }, "geometry": { "type": "MultiPolygon", "coordinates": [ [ [ [ -90.493317281763012, 19.838035408381867 ], [ -90.493047787177773, 19.838035408381867 ], [ -90.493047787177773, 19.836418440870453 ], [ -90.493317281763012, 19.836418440870453 ], [ -90.493317281763012, 19.836148946285217 ], [ -90.493856270933478, 19.836148946285217 ], [ -90.493856270933478, 19.83776591379663 ], [ -90.493317281763012, 19.83776591379663 ], [ -90.493317281763012, 19.838035408381867 ] ] ] ] } },
{ "type": "Feature", "properties": { "ZONA_MET": "Campeche", "INTENSIDAD": "Intensa", "T_PROM_POL": 4.0, "T_MIN_CIUD": 2.0, "DIF_TERMIC": 1.0 }, "geometry": { "type": "MultiPolygon", "coordinates": [ [ [ [ -90.541556812520227, 19.836957430040925 ], [ -90.540478834179282, 19.836957430040925 ], [ -90.540478834179282, 19.836148946285217 ], [ -90.540748328764522, 19.836148946285217 ], [ -90.540748328764522, 19.835879451699981 ], [ -90.541287317934987, 19.835879451699981 ], [ -90.541287317934987, 19.835609957114745 ], [ -90.542095801690692, 19.835609957114745 ], [ -90.542095801690692, 19.835879451699981 ], [ -90.542904285446397, 19.835879451699981 ], [ -90.542904285446397, 19.835609957114745 ], [ -90.543173780031637, 19.835609957114745 ], [ -90.543173780031637, 19.835879451699981 ], [ -90.543982263787342, 19.835879451699981 ], [ -90.543982263787342, 19.836687935455689 ], [ -90.543443274616877, 19.836687935455689 ], [ -90.543443274616877, 19.836418440870453 ], [ -90.543173780031637, 19.836418440870453 ], [ -90.543173780031637, 19.836148946285217 ], [ -90.542365296275932, 19.836148946285217 ], [ -90.542365296275932, 19.836418440870453 ], [ -90.541556812520227, 19.836418440870453 ], [ -90.541556812520227, 19.836957430040925 ] ] ] ] } },
{ "type": "Feature", "properties": { "ZONA_MET": "Campeche", "INTENSIDAD": "Intensa", "T_PROM_POL": 4.0, "T_MIN_CIUD": 2.0, "DIF_TERMIC": 1.0 }, "geometry": { "type": "MultiPolygon", "coordinates": [ [ [ [ -90.533471974963149, 19.839652375893284 ], [ -90.533202480377909, 19.839652375893284 ], [ -90.533202480377909, 19.839113386722811 ], [ -90.532932985792684, 19.839113386722811 ], [ -90.532932985792684, 19.838843892137575 ], [ -90.533202480377909, 19.838843892137575 ], [ -90.533202480377909, 19.838035408381867 ], [ -90.533471974963149, 19.838035408381867 ], [ -90.533471974963149, 19.836957430040925 ], [ -90.534010964133614, 19.836957430040925 ], [ -90.534010964133614, 19.836687935455689 ], [ -90.534280458718854, 19.836687935455689 ], [ -90.534280458718854, 19.83776591379663 ], [ -90.534819447889333, 19.83776591379663 ], [ -90.534819447889333, 19.838304902967103 ], [ -90.535088942474559, 19.838304902967103 ], [ -90.535088942474559, 19.838035408381867 ], [ -90.535358437059799, 19.838035408381867 ], [ -90.535358437059799, 19.837226924626162 ], [ -90.535088942474559, 19.837226924626162 ], [ -90.535088942474559, 19.836957430040925 ], [ -90.534819447889333, 19.836957430040925 ], [ -90.534819447889333, 19.837226924626162 ], [ -90.534549953304094, 19.837226924626162 ], [ -90.534549953304094, 19.836418440870453 ], [ -90.534280458718854, 19.836418440870453 ], [ -90.534280458718854, 19.836148946285217 ], [ -90.534549953304094, 19.836148946285217 ], [ -90.534549953304094, 19.835609957114745 ], [ -90.534819447889333, 19.835609957114745 ], [ -90.534819447889333, 19.834801473359036 ], [ -90.535088942474559, 19.834801473359036 ], [ -90.535088942474559, 19.835070967944272 ], [ -90.535358437059799, 19.835070967944272 ], [ -90.535358437059799, 19.835340462529508 ], [ -90.535088942474559, 19.835340462529508 ], [ -90.535088942474559, 19.835609957114745 ], [ -90.535358437059799, 19.835609957114745 ], [ -90.535358437059799, 19.835879451699981 ], [ -90.535627931645038, 19.835879451699981 ], [ -90.535627931645038, 19.836418440870453 ], [ -90.535358437059799, 19.836418440870453 ], [ -90.535358437059799, 19.836687935455689 ], [ -90.535627931645038, 19.836687935455689 ], [ -90.535627931645038, 19.837226924626162 ], [ -90.535897426230278, 19.837226924626162 ], [ -90.535897426230278, 19.83776591379663 ], [ -90.536975404571209, 19.83776591379663 ], [ -90.536975404571209, 19.838035408381867 ], [ -90.537244899156448, 19.838035408381867 ], [ -90.537244899156448, 19.838304902967103 ], [ -90.538053382912153, 19.838304902967103 ], [ -90.538053382912153, 19.838574397552339 ], [ -90.537783888326928, 19.838574397552339 ], [ -90.537783888326928, 19.838843892137575 ], [ -90.537514393741688, 19.838843892137575 ], [ -90.537514393741688, 19.838574397552339 ], [ -90.536436415400743, 19.838574397552339 ], [ -90.536436415400743, 19.838843892137575 ], [ -90.535358437059799, 19.838843892137575 ], [ -90.535358437059799, 19.838574397552339 ], [ -90.535088942474559, 19.838574397552339 ], [ -90.535088942474559, 19.838843892137575 ], [ -90.534549953304094, 19.838843892137575 ], [ -90.534549953304094, 19.839113386722811 ], [ -90.533741469548389, 19.839113386722811 ], [ -90.533741469548389, 19.839382881308048 ], [ -90.533471974963149, 19.839382881308048 ], [ -90.533471974963149, 19.839652375893284 ] ], [ [ -90.536436415400743, 19.838304902967103 ], [ -90.536436415400743, 19.838035408381867 ], [ -90.536166920815504, 19.838035408381867 ], [ -90.536166920815504, 19.838304902967103 ], [ -90.536436415400743, 19.838304902967103 ] ], [ [ -90.534549953304094, 19.838304902967103 ], [ -90.534549953304094, 19.838035408381867 ], [ -90.533741469548389, 19.838035408381867 ], [ -90.533741469548389, 19.838304902967103 ], [ -90.534549953304094, 19.838304902967103 ] ] ] ] } },
{ "type": "Feature", "properties": { "ZONA_MET": "Campeche", "INTENSIDAD": "Intensa", "T_PROM_POL": 4.0, "T_MIN_CIUD": 2.0, "DIF_TERMIC": 1.0 }, "geometry": { "type": "MultiPolygon", "coordinates": [ [ [ [ -90.52969905076985, 19.835070967944272 ], [ -90.52916006159937, 19.835070967944272 ], [ -90.52916006159937, 19.8345319787738 ], [ -90.528890567014145, 19.8345319787738 ], [ -90.528890567014145, 19.834801473359036 ], [ -90.528351577843665, 19.834801473359036 ], [ -90.528351577843665, 19.8345319787738 ], [ -90.528082083258425, 19.8345319787738 ], [ -90.528082083258425, 19.834262484188567 ], [ -90.529968545355089, 19.834262484188567 ], [ -90.529968545355089, 19.833992989603331 ], [ -90.530238039940315, 19.833992989603331 ], [ -90.530238039940315, 19.833723495018095 ], [ -90.530777029110794, 19.833723495018095 ], [ -90.530777029110794, 19.833992989603331 ], [ -90.53104652369602, 19.833992989603331 ], [ -90.53104652369602, 19.8345319787738 ], [ -90.530777029110794, 19.8345319787738 ], [ -90.530777029110794, 19.834801473359036 ], [ -90.52969905076985, 19.834801473359036 ], [ -90.52969905076985, 19.835070967944272 ] ] ] ] } },
{ "type": "Feature", "properties": { "ZONA_MET": "Campeche", "INTENSIDAD": "Extrema", "T_PROM_POL": 4.0, "T_MIN_CIUD": 2.0, "DIF_TERMIC": 1.0 }, "geometry": { "type": "MultiPolygon", "coordinates": [ [ [ [ -90.526734610332255, 19.834262484188567 ], [ -90.526195621161776, 19.834262484188567 ], [ -90.526195621161776, 19.833992989603331 ], [ -90.52592612657655, 19.833992989603331 ], [ -90.52592612657655, 19.832915011262386 ], [ -90.526195621161776, 19.832915011262386 ], [ -90.526195621161776, 19.832376022091914 ], [ -90.526465115747015, 19.832376022091914 ], [ -90.526465115747015, 19.833723495018095 ], [ -90.526734610332255, 19.833723495018095 ], [ -90.526734610332255, 19.834262484188567 ] ] ] ] } },
{ "type": "Feature", "properties": { "ZONA_MET": "Campeche", "INTENSIDAD": "Extrema", "T_PROM_POL": 4.0, "T_MIN_CIUD": 2.0, "DIF_TERMIC": 1.0 }, "geometry": { "type": "MultiPolygon", "coordinates": [ [ [ [ -90.5067920110248, 19.834801473359036 ], [ -90.50652251643956, 19.834801473359036 ], [ -90.50652251643956, 19.8345319787738 ], [ -90.505444538098615, 19.8345319787738 ], [ -90.505444538098615, 19.833723495018095 ], [ -90.50517504351339, 19.833723495018095 ], [ -90.50517504351339, 19.833454000432859 ], [ -90.505714032683855, 19.833454000432859 ], [ -90.505714032683855, 19.833723495018095 ], [ -90.506253021854334, 19.833723495018095 ], [ -90.506253021854334, 19.833454000432859 ], [ -90.50652251643956, 19.833454000432859 ], [ -90.50652251643956, 19.832915011262386 ], [ -90.506253021854334, 19.832915011262386 ], [ -90.506253021854334, 19.832376022091914 ], [ -90.50652251643956, 19.832376022091914 ], [ -90.50652251643956, 19.83264551667715 ], [ -90.5067920110248, 19.83264551667715 ], [ -90.5067920110248, 19.833454000432859 ], [ -90.507061505610039, 19.833454000432859 ], [ -90.507061505610039, 19.833723495018095 ], [ -90.5067920110248, 19.833723495018095 ], [ -90.5067920110248, 19.834801473359036 ] ] ] ] } },
{ "type": "Feature", "properties": { "ZONA_MET": "Campeche", "INTENSIDAD": "Intensa", "T_PROM_POL": 4.0, "T_MIN_CIUD": 2.0, "DIF_TERMIC": 1.0 }, "geometry": { "type": "MultiPolygon", "coordinates": [ [ [ [ -90.553684068855844, 19.833454000432859 ], [ -90.552875585100125, 19.833454000432859 ], [ -90.552875585100125, 19.832915011262386 ], [ -90.5526060905149, 19.832915011262386 ], [ -90.5526060905149, 19.832106527506678 ], [ -90.553145079685365, 19.832106527506678 ], [ -90.553145079685365, 19.83264551667715 ], [ -90.553684068855844, 19.83264551667715 ], [ -90.553684068855844, 19.833454000432859 ] ] ] ] } },
{ "type": "Feature", "properties": { "ZONA_MET": "Campeche", "INTENSIDAD": "Intensa", "T_PROM_POL": 4.0, "T_MIN_CIUD": 2.0, "DIF_TERMIC": 1.0 }, "geometry": { "type": "MultiPolygon", "coordinates": [ [ [ [ -90.547485693395416, 19.833992989603331 ], [ -90.546407715054471, 19.833992989603331 ], [ -90.546407715054471, 19.833723495018095 ], [ -90.545868725884006, 19.833723495018095 ], [ -90.545868725884006, 19.833184505847623 ], [ -90.545329736713526, 19.833184505847623 ], [ -90.545329736713526, 19.832915011262386 ], [ -90.546946704224936, 19.832915011262386 ], [ -90.546946704224936, 19.83264551667715 ], [ -90.547216198810176, 19.83264551667715 ], [ -90.547216198810176, 19.832106527506678 ], [ -90.547485693395416, 19.832106527506678 ], [ -90.547485693395416, 19.832376022091914 ], [ -90.547755187980655, 19.832376022091914 ], [ -90.547755187980655, 19.832106527506678 ], [ -90.548024682565881, 19.832106527506678 ], [ -90.548024682565881, 19.832376022091914 ], [ -90.548294177151121, 19.832376022091914 ], [ -90.548294177151121, 19.83264551667715 ], [ -90.5488331663216, 19.83264551667715 ], [ -90.5488331663216, 19.832376022091914 ], [ -90.549641650077305, 19.832376022091914 ], [ -90.549641650077305, 19.832915011262386 ], [ -90.5488331663216, 19.832915011262386 ], [ -90.5488331663216, 19.833184505847623 ], [ -90.548024682565881, 19.833184505847623 ], [ -90.548024682565881, 19.833723495018095 ], [ -90.547485693395416, 19.833723495018095 ], [ -90.547485693395416, 19.833992989603331 ] ] ] ] } },
{ "type": "Feature", "properties": { "ZONA_MET": "Campeche", "INTENSIDAD": "Intensa", "T_PROM_POL": 4.0, "T_MIN_CIUD": 2.0, "DIF_TERMIC": 1.0 }, "geometry": { "type": "MultiPolygon", "coordinates": [ [ [ [ -90.531585512866499, 19.833454000432859 ], [ -90.53131601828126, 19.833454000432859 ], [ -90.53131601828126, 19.833184505847623 ], [ -90.53104652369602, 19.833184505847623 ], [ -90.53104652369602, 19.832915011262386 ], [ -90.530777029110794, 19.832915011262386 ], [ -90.530777029110794, 19.833184505847623 ], [ -90.530507534525555, 19.833184505847623 ], [ -90.530507534525555, 19.833454000432859 ], [ -90.530238039940315, 19.833454000432859 ], [ -90.530238039940315, 19.832915011262386 ], [ -90.530507534525555, 19.832915011262386 ], [ -90.530507534525555, 19.83264551667715 ], [ -90.529968545355089, 19.83264551667715 ], [ -90.529968545355089, 19.831567538336206 ], [ -90.530238039940315, 19.831567538336206 ], [ -90.530238039940315, 19.832106527506678 ], [ -90.530507534525555, 19.832106527506678 ], [ -90.530507534525555, 19.832376022091914 ], [ -90.530777029110794, 19.832376022091914 ], [ -90.530777029110794, 19.83264551667715 ], [ -90.53131601828126, 19.83264551667715 ], [ -90.53131601828126, 19.832915011262386 ], [ -90.531585512866499, 19.832915011262386 ], [ -90.531585512866499, 19.833454000432859 ] ] ] ] } },
{ "type": "Feature", "properties": { "ZONA_MET": "Campeche", "INTENSIDAD": "Intensa", "T_PROM_POL": 4.0, "T_MIN_CIUD": 2.0, "DIF_TERMIC": 1.0 }, "geometry": { "type": "MultiPolygon", "coordinates": [ [ [ [ -90.535897426230278, 19.831028549165737 ], [ -90.535358437059799, 19.831028549165737 ], [ -90.535358437059799, 19.830759054580501 ], [ -90.535088942474559, 19.830759054580501 ], [ -90.535088942474559, 19.831028549165737 ], [ -90.534549953304094, 19.831028549165737 ], [ -90.534549953304094, 19.830759054580501 ], [ -90.534819447889333, 19.830759054580501 ], [ -90.534819447889333, 19.829950570824792 ], [ -90.534549953304094, 19.829950570824792 ], [ -90.534549953304094, 19.829681076239556 ], [ -90.535088942474559, 19.829681076239556 ], [ -90.535088942474559, 19.829950570824792 ], [ -90.535897426230278, 19.829950570824792 ], [ -90.535897426230278, 19.830489559995264 ], [ -90.536166920815504, 19.830489559995264 ], [ -90.536166920815504, 19.830759054580501 ], [ -90.535897426230278, 19.830759054580501 ], [ -90.535897426230278, 19.831028549165737 ] ] ] ] } },
{ "type": "Feature", "properties": { "ZONA_MET": "Campeche", "INTENSIDAD": "Intensa", "T_PROM_POL": 4.0, "T_MIN_CIUD": 2.0, "DIF_TERMIC": 1.0 }, "geometry": { "type": "MultiPolygon", "coordinates": [ [ [ [ -90.555840025537719, 19.830220065410028 ], [ -90.554762047196789, 19.830220065410028 ], [ -90.554762047196789, 19.828872592483847 ], [ -90.554223058026309, 19.828872592483847 ], [ -90.554223058026309, 19.828603097898611 ], [ -90.554492552611549, 19.828603097898611 ], [ -90.554492552611549, 19.828333603313379 ], [ -90.555301036367254, 19.828333603313379 ], [ -90.555301036367254, 19.828603097898611 ], [ -90.555570530952494, 19.828603097898611 ], [ -90.555570530952494, 19.828872592483847 ], [ -90.555840025537719, 19.828872592483847 ], [ -90.555840025537719, 19.830220065410028 ] ] ] ] } },
{ "type": "Feature", "properties": { "ZONA_MET": "Campeche", "INTENSIDAD": "Intensa", "T_PROM_POL": 4.0, "T_MIN_CIUD": 2.0, "DIF_TERMIC": 1.0 }, "geometry": { "type": "MultiPolygon", "coordinates": [ [ [ [ -90.555031541782014, 19.82752511955767 ], [ -90.554223058026309, 19.82752511955767 ], [ -90.554223058026309, 19.827255624972434 ], [ -90.55206710134442, 19.827255624972434 ], [ -90.55206710134442, 19.82752511955767 ], [ -90.551797606759195, 19.82752511955767 ], [ -90.551797606759195, 19.827255624972434 ], [ -90.551528112173955, 19.827255624972434 ], [ -90.551528112173955, 19.826447141216725 ], [ -90.551797606759195, 19.826447141216725 ], [ -90.551797606759195, 19.826716635801962 ], [ -90.55206710134442, 19.826716635801962 ], [ -90.55206710134442, 19.826177646631489 ], [ -90.552875585100125, 19.826177646631489 ], [ -90.552875585100125, 19.826447141216725 ], [ -90.553145079685365, 19.826447141216725 ], [ -90.553145079685365, 19.826177646631489 ], [ -90.55395356344107, 19.826177646631489 ], [ -90.55395356344107, 19.826447141216725 ], [ -90.554492552611549, 19.826447141216725 ], [ -90.554492552611549, 19.826177646631489 ], [ -90.554762047196789, 19.826177646631489 ], [ -90.554762047196789, 19.826716635801962 ], [ -90.555031541782014, 19.826716635801962 ], [ -90.555031541782014, 19.82752511955767 ] ], [ [ -90.554492552611549, 19.826986130387198 ], [ -90.554492552611549, 19.826716635801962 ], [ -90.55395356344107, 19.826716635801962 ], [ -90.55395356344107, 19.826986130387198 ], [ -90.554492552611549, 19.826986130387198 ] ] ] ] } },
{ "type": "Feature", "properties": { "ZONA_MET": "Campeche", "INTENSIDAD": "Intensa", "T_PROM_POL": 4.0, "T_MIN_CIUD": 2.0, "DIF_TERMIC": 1.0 }, "geometry": { "type": "MultiPolygon", "coordinates": [ [ [ [ -90.534819447889333, 19.82752511955767 ], [ -90.534549953304094, 19.82752511955767 ], [ -90.534549953304094, 19.826986130387198 ], [ -90.534010964133614, 19.826986130387198 ], [ -90.534010964133614, 19.827255624972434 ], [ -90.533741469548389, 19.827255624972434 ], [ -90.533741469548389, 19.826986130387198 ], [ -90.533471974963149, 19.826986130387198 ], [ -90.533471974963149, 19.826447141216725 ], [ -90.533741469548389, 19.826447141216725 ], [ -90.533741469548389, 19.826177646631489 ], [ -90.534549953304094, 19.826177646631489 ], [ -90.534549953304094, 19.826716635801962 ], [ -90.534819447889333, 19.826716635801962 ], [ -90.534819447889333, 19.82752511955767 ] ] ] ] } },
{ "type": "Feature", "properties": { "ZONA_MET": "Campeche", "INTENSIDAD": "Extrema", "T_PROM_POL": 4.0, "T_MIN_CIUD": 2.0, "DIF_TERMIC": 1.0 }, "geometry": { "type": "MultiPolygon", "coordinates": [ [ [ [ -90.543982263787342, 19.828333603313379 ], [ -90.543173780031637, 19.828333603313379 ], [ -90.543173780031637, 19.828064108728142 ], [ -90.542904285446397, 19.828064108728142 ], [ -90.542904285446397, 19.826716635801962 ], [ -90.543173780031637, 19.826716635801962 ], [ -90.543173780031637, 19.826986130387198 ], [ -90.543443274616877, 19.826986130387198 ], [ -90.543443274616877, 19.826447141216725 ], [ -90.543173780031637, 19.826447141216725 ], [ -90.543173780031637, 19.826177646631489 ], [ -90.542904285446397, 19.826177646631489 ], [ -90.542904285446397, 19.825908152046253 ], [ -90.543712769202116, 19.825908152046253 ], [ -90.543712769202116, 19.826447141216725 ], [ -90.543982263787342, 19.826447141216725 ], [ -90.543982263787342, 19.827794614142906 ], [ -90.544251758372582, 19.827794614142906 ], [ -90.544251758372582, 19.828064108728142 ], [ -90.543982263787342, 19.828064108728142 ], [ -90.543982263787342, 19.828333603313379 ] ] ] ] } },
{ "type": "Feature", "properties": { "ZONA_MET": "Campeche", "INTENSIDAD": "Intensa", "T_PROM_POL": 4.0, "T_MIN_CIUD": 2.0, "DIF_TERMIC": 1.0 }, "geometry": { "type": "MultiPolygon", "coordinates": [ [ [ [ -90.545599231298766, 19.825638657461017 ], [ -90.545329736713526, 19.825638657461017 ], [ -90.545329736713526, 19.825369162875784 ], [ -90.545060242128287, 19.825369162875784 ], [ -90.545060242128287, 19.825099668290548 ], [ -90.544790747543061, 19.825099668290548 ], [ -90.544790747543061, 19.824830173705312 ], [ -90.543982263787342, 19.824830173705312 ], [ -90.543982263787342, 19.824560679120076 ], [ -90.543712769202116, 19.824560679120076 ], [ -90.543712769202116, 19.82429118453484 ], [ -90.544251758372582, 19.82429118453484 ], [ -90.544251758372582, 19.824021689949603 ], [ -90.544521252957821, 19.824021689949603 ], [ -90.544521252957821, 19.82429118453484 ], [ -90.544790747543061, 19.82429118453484 ], [ -90.544790747543061, 19.824560679120076 ], [ -90.545060242128287, 19.824560679120076 ], [ -90.545060242128287, 19.824830173705312 ], [ -90.545329736713526, 19.824830173705312 ], [ -90.545329736713526, 19.825099668290548 ], [ -90.545599231298766, 19.825099668290548 ], [ -90.545599231298766, 19.825638657461017 ] ] ] ] } },
{ "type": "Feature", "properties": { "ZONA_MET": "Campeche", "INTENSIDAD": "Intensa", "T_PROM_POL": 4.0, "T_MIN_CIUD": 2.0, "DIF_TERMIC": 1.0 }, "geometry": { "type": "MultiPolygon", "coordinates": [ [ [ [ -90.543712769202116, 19.829950570824792 ], [ -90.542365296275932, 19.829950570824792 ], [ -90.542365296275932, 19.829681076239556 ], [ -90.542095801690692, 19.829681076239556 ], [ -90.542095801690692, 19.829950570824792 ], [ -90.540748328764522, 19.829950570824792 ], [ -90.540748328764522, 19.82941158165432 ], [ -90.541287317934987, 19.82941158165432 ], [ -90.541287317934987, 19.829681076239556 ], [ -90.541556812520227, 19.829681076239556 ], [ -90.541556812520227, 19.829142087069084 ], [ -90.541826307105467, 19.829142087069084 ], [ -90.541826307105467, 19.828603097898611 ], [ -90.542095801690692, 19.828603097898611 ], [ -90.542095801690692, 19.828064108728142 ], [ -90.542365296275932, 19.828064108728142 ], [ -90.542365296275932, 19.827255624972434 ], [ -90.542634790861172, 19.827255624972434 ], [ -90.542634790861172, 19.826716635801962 ], [ -90.542095801690692, 19.826716635801962 ], [ -90.542095801690692, 19.826986130387198 ], [ -90.541826307105467, 19.826986130387198 ], [ -90.541826307105467, 19.825908152046253 ], [ -90.542095801690692, 19.825908152046253 ], [ -90.542095801690692, 19.825638657461017 ], [ -90.541556812520227, 19.825638657461017 ], [ -90.541556812520227, 19.825099668290548 ], [ -90.542095801690692, 19.825099668290548 ], [ -90.542095801690692, 19.824830173705312 ], [ -90.542634790861172, 19.824830173705312 ], [ -90.542634790861172, 19.82429118453484 ], [ -90.542904285446397, 19.82429118453484 ], [ -90.542904285446397, 19.824021689949603 ], [ -90.543173780031637, 19.824021689949603 ], [ -90.543173780031637, 19.823752195364367 ], [ -90.542634790861172, 19.823752195364367 ], [ -90.542634790861172, 19.824021689949603 ], [ -90.541826307105467, 19.824021689949603 ], [ -90.541826307105467, 19.823482700779131 ], [ -90.542365296275932, 19.823482700779131 ], [ -90.542365296275932, 19.822135227852954 ], [ -90.541826307105467, 19.822135227852954 ], [ -90.541826307105467, 19.82240472243819 ], [ -90.542095801690692, 19.82240472243819 ], [ -90.542095801690692, 19.822943711608659 ], [ -90.541826307105467, 19.822943711608659 ], [ -90.541826307105467, 19.822674217023422 ], [ -90.541556812520227, 19.822674217023422 ], [ -90.541556812520227, 19.822135227852954 ], [ -90.541287317934987, 19.822135227852954 ], [ -90.541287317934987, 19.821865733267718 ], [ -90.541017823349748, 19.821865733267718 ], [ -90.541017823349748, 19.821596238682481 ], [ -90.540748328764522, 19.821596238682481 ], [ -90.540748328764522, 19.820787754926773 ], [ -90.541017823349748, 19.820787754926773 ], [ -90.541017823349748, 19.821057249512009 ], [ -90.541287317934987, 19.821057249512009 ], [ -90.541287317934987, 19.821596238682481 ], [ -90.541556812520227, 19.821596238682481 ], [ -90.541556812520227, 19.821057249512009 ], [ -90.541826307105467, 19.821057249512009 ], [ -90.541826307105467, 19.820787754926773 ], [ -90.542095801690692, 19.820787754926773 ], [ -90.542095801690692, 19.820518260341537 ], [ -90.542365296275932, 19.820518260341537 ], [ -90.542365296275932, 19.821057249512009 ], [ -90.542095801690692, 19.821057249512009 ], [ -90.542095801690692, 19.821326744097245 ], [ -90.542365296275932, 19.821326744097245 ], [ -90.542365296275932, 19.821596238682481 ], [ -90.542634790861172, 19.821596238682481 ], [ -90.542634790861172, 19.821326744097245 ], [ -90.542904285446397, 19.821326744097245 ], [ -90.542904285446397, 19.821865733267718 ], [ -90.543173780031637, 19.821865733267718 ], [ -90.543173780031637, 19.821596238682481 ], [ -90.543443274616877, 19.821596238682481 ], [ -90.543443274616877, 19.822135227852954 ], [ -90.543173780031637, 19.822135227852954 ], [ -90.543173780031637, 19.82240472243819 ], [ -90.542904285446397, 19.82240472243819 ], [ -90.542904285446397, 19.822135227852954 ], [ -90.542634790861172, 19.822135227852954 ], [ -90.542634790861172, 19.822943711608659 ], [ -90.542904285446397, 19.822943711608659 ], [ -90.542904285446397, 19.822674217023422 ], [ -90.543173780031637, 19.822674217023422 ], [ -90.543173780031637, 19.823213206193895 ], [ -90.543443274616877, 19.823213206193895 ], [ -90.543443274616877, 19.823752195364367 ], [ -90.543712769202116, 19.823752195364367 ], [ -90.543712769202116, 19.82429118453484 ], [ -90.543443274616877, 19.82429118453484 ], [ -90.543443274616877, 19.824560679120076 ], [ -90.542904285446397, 19.824560679120076 ], [ -90.542904285446397, 19.825099668290548 ], [ -90.542634790861172, 19.825099668290548 ], [ -90.542634790861172, 19.825638657461017 ], [ -90.542365296275932, 19.825638657461017 ], [ -90.542365296275932, 19.826177646631489 ], [ -90.542095801690692, 19.826177646631489 ], [ -90.542095801690692, 19.826447141216725 ], [ -90.542904285446397, 19.826447141216725 ], [ -90.542904285446397, 19.828064108728142 ], [ -90.543173780031637, 19.828064108728142 ], [ -90.543173780031637, 19.828333603313379 ], [ -90.543982263787342, 19.828333603313379 ], [ -90.543982263787342, 19.828064108728142 ], [ -90.544251758372582, 19.828064108728142 ], [ -90.544251758372582, 19.827794614142906 ], [ -90.543982263787342, 19.827794614142906 ], [ -90.543982263787342, 19.825099668290548 ], [ -90.544251758372582, 19.825099668290548 ], [ -90.544251758372582, 19.825369162875784 ], [ -90.544521252957821, 19.825369162875784 ], [ -90.544521252957821, 19.825638657461017 ], [ -90.545060242128287, 19.825638657461017 ], [ -90.545060242128287, 19.825908152046253 ], [ -90.545599231298766, 19.825908152046253 ], [ -90.545599231298766, 19.826177646631489 ], [ -90.545060242128287, 19.826177646631489 ], [ -90.545060242128287, 19.826447141216725 ], [ -90.544790747543061, 19.826447141216725 ], [ -90.544790747543061, 19.826716635801962 ], [ -90.544521252957821, 19.826716635801962 ], [ -90.544521252957821, 19.826447141216725 ], [ -90.544251758372582, 19.826447141216725 ], [ -90.544251758372582, 19.827255624972434 ], [ -90.544521252957821, 19.827255624972434 ], [ -90.544521252957821, 19.826986130387198 ], [ -90.544790747543061, 19.826986130387198 ], [ -90.544790747543061, 19.828872592483847 ], [ -90.544251758372582, 19.828872592483847 ], [ -90.544251758372582, 19.828603097898611 ], [ -90.543982263787342, 19.828603097898611 ], [ -90.543982263787342, 19.829681076239556 ], [ -90.543712769202116, 19.829681076239556 ], [ -90.543712769202116, 19.829950570824792 ] ], [ [ -90.542634790861172, 19.829681076239556 ], [ -90.542634790861172, 19.82941158165432 ], [ -90.542904285446397, 19.82941158165432 ], [ -90.542904285446397, 19.829142087069084 ], [ -90.542365296275932, 19.829142087069084 ], [ -90.542365296275932, 19.829681076239556 ], [ -90.542634790861172, 19.829681076239556 ] ], [ [ -90.542365296275932, 19.825369162875784 ], [ -90.542365296275932, 19.825099668290548 ], [ -90.542095801690692, 19.825099668290548 ], [ -90.542095801690692, 19.825369162875784 ], [ -90.542365296275932, 19.825369162875784 ] ] ] ] } },
{ "type": "Feature", "properties": { "ZONA_MET": "Campeche", "INTENSIDAD": "Intensa", "T_PROM_POL": 4.0, "T_MIN_CIUD": 2.0, "DIF_TERMIC": 1.0 }, "geometry": { "type": "MultiPolygon", "coordinates": [ [ [ [ -90.523770169894661, 19.821865733267718 ], [ -90.523231180724181, 19.821865733267718 ], [ -90.523231180724181, 19.821596238682481 ], [ -90.523500675309421, 19.821596238682481 ], [ -90.523500675309421, 19.821326744097245 ], [ -90.523231180724181, 19.821326744097245 ], [ -90.523231180724181, 19.821057249512009 ], [ -90.523500675309421, 19.821057249512009 ], [ -90.523500675309421, 19.820787754926773 ], [ -90.523770169894661, 19.820787754926773 ], [ -90.523770169894661, 19.820518260341537 ], [ -90.524578653650366, 19.820518260341537 ], [ -90.524578653650366, 19.820787754926773 ], [ -90.524309159065126, 19.820787754926773 ], [ -90.524309159065126, 19.821057249512009 ], [ -90.524578653650366, 19.821057249512009 ], [ -90.524578653650366, 19.821596238682481 ], [ -90.523770169894661, 19.821596238682481 ], [ -90.523770169894661, 19.821865733267718 ] ] ] ] } },
{ "type": "Feature", "properties": { "ZONA_MET": "Campeche", "INTENSIDAD": "Extrema", "T_PROM_POL": 4.0, "T_MIN_CIUD": 2.0, "DIF_TERMIC": 1.0 }, "geometry": { "type": "MultiPolygon", "coordinates": [ [ [ [ -90.52942955618461, 19.818092809074415 ], [ -90.528351577843665, 19.818092809074415 ], [ -90.528351577843665, 19.816745336148234 ], [ -90.528621072428905, 19.816745336148234 ], [ -90.528621072428905, 19.817284325318706 ], [ -90.52916006159937, 19.817284325318706 ], [ -90.52916006159937, 19.817553819903942 ], [ -90.52942955618461, 19.817553819903942 ], [ -90.52942955618461, 19.818092809074415 ] ] ] ] } },
{ "type": "Feature", "properties": { "ZONA_MET": "Campeche", "INTENSIDAD": "Intensa", "T_PROM_POL": 4.0, "T_MIN_CIUD": 2.0, "DIF_TERMIC": 1.0 }, "geometry": { "type": "MultiPolygon", "coordinates": [ [ [ [ -90.5488331663216, 19.816745336148234 ], [ -90.548024682565881, 19.816745336148234 ], [ -90.548024682565881, 19.816475841562998 ], [ -90.547485693395416, 19.816475841562998 ], [ -90.547485693395416, 19.816206346977765 ], [ -90.547755187980655, 19.816206346977765 ], [ -90.547755187980655, 19.815667357807293 ], [ -90.548024682565881, 19.815667357807293 ], [ -90.548024682565881, 19.815936852392529 ], [ -90.54856367173636, 19.815936852392529 ], [ -90.54856367173636, 19.816206346977765 ], [ -90.5488331663216, 19.816206346977765 ], [ -90.5488331663216, 19.816745336148234 ] ] ] ] } },
{ "type": "Feature", "properties": { "ZONA_MET": "Campeche", "INTENSIDAD": "Intensa", "T_PROM_POL": 4.0, "T_MIN_CIUD": 2.0, "DIF_TERMIC": 1.0 }, "geometry": { "type": "MultiPolygon", "coordinates": [ [ [ [ -90.52942955618461, 19.817553819903942 ], [ -90.52916006159937, 19.817553819903942 ], [ -90.52916006159937, 19.817284325318706 ], [ -90.528621072428905, 19.817284325318706 ], [ -90.528621072428905, 19.816745336148234 ], [ -90.528351577843665, 19.816745336148234 ], [ -90.528351577843665, 19.81701483073347 ], [ -90.528082083258425, 19.81701483073347 ], [ -90.528082083258425, 19.816475841562998 ], [ -90.528351577843665, 19.816475841562998 ], [ -90.528351577843665, 19.815936852392529 ], [ -90.528082083258425, 19.815936852392529 ], [ -90.528082083258425, 19.816206346977765 ], [ -90.5278125886732, 19.816206346977765 ], [ -90.5278125886732, 19.815936852392529 ], [ -90.52727359950272, 19.815936852392529 ], [ -90.52727359950272, 19.815667357807293 ], [ -90.52754309408796, 19.815667357807293 ], [ -90.52754309408796, 19.815397863222056 ], [ -90.52727359950272, 19.815397863222056 ], [ -90.52727359950272, 19.81512836863682 ], [ -90.5278125886732, 19.81512836863682 ], [ -90.5278125886732, 19.814858874051584 ], [ -90.528082083258425, 19.814858874051584 ], [ -90.528082083258425, 19.814589379466348 ], [ -90.52916006159937, 19.814589379466348 ], [ -90.52916006159937, 19.814858874051584 ], [ -90.52969905076985, 19.814858874051584 ], [ -90.52969905076985, 19.81512836863682 ], [ -90.529968545355089, 19.81512836863682 ], [ -90.529968545355089, 19.815936852392529 ], [ -90.52969905076985, 19.815936852392529 ], [ -90.52969905076985, 19.816206346977765 ], [ -90.52942955618461, 19.816206346977765 ], [ -90.52942955618461, 19.816475841562998 ], [ -90.529968545355089, 19.816475841562998 ], [ -90.529968545355089, 19.816745336148234 ], [ -90.52969905076985, 19.816745336148234 ], [ -90.52969905076985, 19.817284325318706 ], [ -90.52942955618461, 19.817284325318706 ], [ -90.52942955618461, 19.817553819903942 ] ], [ [ -90.52916006159937, 19.816206346977765 ], [ -90.52916006159937, 19.815936852392529 ], [ -90.52942955618461, 19.815936852392529 ], [ -90.52942955618461, 19.815667357807293 ], [ -90.52916006159937, 19.815667357807293 ], [ -90.52916006159937, 19.814858874051584 ], [ -90.528621072428905, 19.814858874051584 ], [ -90.528621072428905, 19.815397863222056 ], [ -90.528351577843665, 19.815397863222056 ], [ -90.528351577843665, 19.81512836863682 ], [ -90.528082083258425, 19.81512836863682 ], [ -90.528082083258425, 19.815667357807293 ], [ -90.528621072428905, 19.815667357807293 ], [ -90.528621072428905, 19.815936852392529 ], [ -90.528890567014145, 19.815936852392529 ], [ -90.528890567014145, 19.816206346977765 ], [ -90.52916006159937, 19.816206346977765 ] ] ] ] } },
{ "type": "Feature", "properties": { "ZONA_MET": "Campeche", "INTENSIDAD": "Intensa", "T_PROM_POL": 4.0, "T_MIN_CIUD": 2.0, "DIF_TERMIC": 1.0 }, "geometry": { "type": "MultiPolygon", "coordinates": [ [ [ [ -90.507600494780505, 19.814858874051584 ], [ -90.5067920110248, 19.814858874051584 ], [ -90.5067920110248, 19.814319884881112 ], [ -90.50652251643956, 19.814319884881112 ], [ -90.50652251643956, 19.814050390295876 ], [ -90.507869989365744, 19.814050390295876 ], [ -90.507869989365744, 19.813780895710639 ], [ -90.508139483950984, 19.813780895710639 ], [ -90.508139483950984, 19.813241906540171 ], [ -90.50840897853621, 19.813241906540171 ], [ -90.50840897853621, 19.813511401125403 ], [ -90.508678473121449, 19.813511401125403 ], [ -90.508678473121449, 19.814050390295876 ], [ -90.508139483950984, 19.814050390295876 ], [ -90.508139483950984, 19.814589379466348 ], [ -90.507600494780505, 19.814589379466348 ], [ -90.507600494780505, 19.814858874051584 ] ] ] ] } },
{ "type": "Feature", "properties": { "ZONA_MET": "Campeche", "INTENSIDAD": "Intensa", "T_PROM_POL": 4.0, "T_MIN_CIUD": 2.0, "DIF_TERMIC": 1.0 }, "geometry": { "type": "MultiPolygon", "coordinates": [ [ [ [ -90.524848148235606, 19.815667357807293 ], [ -90.524039664479901, 19.815667357807293 ], [ -90.524039664479901, 19.814858874051584 ], [ -90.523770169894661, 19.814858874051584 ], [ -90.523770169894661, 19.814319884881112 ], [ -90.523231180724181, 19.814319884881112 ], [ -90.523231180724181, 19.81512836863682 ], [ -90.522961686138956, 19.81512836863682 ], [ -90.522961686138956, 19.814858874051584 ], [ -90.521614213212771, 19.814858874051584 ], [ -90.521614213212771, 19.814589379466348 ], [ -90.521344718627532, 19.814589379466348 ], [ -90.521344718627532, 19.814319884881112 ], [ -90.521614213212771, 19.814319884881112 ], [ -90.521614213212771, 19.814050390295876 ], [ -90.521344718627532, 19.814050390295876 ], [ -90.521344718627532, 19.813780895710639 ], [ -90.521883707798011, 19.813780895710639 ], [ -90.521883707798011, 19.813511401125403 ], [ -90.522153202383237, 19.813511401125403 ], [ -90.522153202383237, 19.813241906540171 ], [ -90.522692191553716, 19.813241906540171 ], [ -90.522692191553716, 19.813780895710639 ], [ -90.522422696968476, 19.813780895710639 ], [ -90.522422696968476, 19.814050390295876 ], [ -90.525117642820831, 19.814050390295876 ], [ -90.525117642820831, 19.814319884881112 ], [ -90.525656631991311, 19.814319884881112 ], [ -90.525656631991311, 19.814858874051584 ], [ -90.525387137406071, 19.814858874051584 ], [ -90.525387137406071, 19.815397863222056 ], [ -90.524848148235606, 19.815397863222056 ], [ -90.524848148235606, 19.815667357807293 ] ], [ [ -90.524578653650366, 19.814589379466348 ], [ -90.524578653650366, 19.814319884881112 ], [ -90.524309159065126, 19.814319884881112 ], [ -90.524309159065126, 19.814589379466348 ], [ -90.524578653650366, 19.814589379466348 ] ] ] ] } },
{ "type": "Feature", "properties": { "ZONA_MET": "Campeche", "INTENSIDAD": "Intensa", "T_PROM_POL": 4.0, "T_MIN_CIUD": 2.0, "DIF_TERMIC": 1.0 }, "geometry": { "type": "MultiPolygon", "coordinates": [ [ [ [ -90.507061505610039, 19.812972411954934 ], [ -90.50652251643956, 19.812972411954934 ], [ -90.50652251643956, 19.812702917369698 ], [ -90.506253021854334, 19.812702917369698 ], [ -90.506253021854334, 19.81189443361399 ], [ -90.50652251643956, 19.81189443361399 ], [ -90.50652251643956, 19.811355444443517 ], [ -90.5067920110248, 19.811355444443517 ], [ -90.5067920110248, 19.811085949858281 ], [ -90.507061505610039, 19.811085949858281 ], [ -90.507061505610039, 19.811355444443517 ], [ -90.507331000195265, 19.811355444443517 ], [ -90.507331000195265, 19.811085949858281 ], [ -90.507869989365744, 19.811085949858281 ], [ -90.507869989365744, 19.812163928199226 ], [ -90.508139483950984, 19.812163928199226 ], [ -90.508139483950984, 19.811624939028754 ], [ -90.50840897853621, 19.811624939028754 ], [ -90.50840897853621, 19.812433422784462 ], [ -90.507869989365744, 19.812433422784462 ], [ -90.507869989365744, 19.812702917369698 ], [ -90.507600494780505, 19.812702917369698 ], [ -90.507600494780505, 19.812433422784462 ], [ -90.507061505610039, 19.812433422784462 ], [ -90.507061505610039, 19.812972411954934 ] ] ] ] } },
{ "type": "Feature", "properties": { "ZONA_MET": "Campeche", "INTENSIDAD": "Extrema", "T_PROM_POL": 4.0, "T_MIN_CIUD": 2.0, "DIF_TERMIC": 1.0 }, "geometry": { "type": "MultiPolygon", "coordinates": [ [ [ [ -90.503827570587205, 19.828872592483847 ], [ -90.5030190868315, 19.828872592483847 ], [ -90.5030190868315, 19.828603097898611 ], [ -90.502749592246261, 19.828603097898611 ], [ -90.502749592246261, 19.827255624972434 ], [ -90.502480097661021, 19.827255624972434 ], [ -90.502480097661021, 19.826447141216725 ], [ -90.502210603075795, 19.826447141216725 ], [ -90.502210603075795, 19.825638657461017 ], [ -90.501941108490556, 19.825638657461017 ], [ -90.501941108490556, 19.82429118453484 ], [ -90.501671613905316, 19.82429118453484 ], [ -90.501671613905316, 19.823482700779131 ], [ -90.501402119320076, 19.823482700779131 ], [ -90.501402119320076, 19.821865733267718 ], [ -90.501132624734851, 19.821865733267718 ], [ -90.501132624734851, 19.820787754926773 ], [ -90.500863130149611, 19.820787754926773 ], [ -90.500863130149611, 19.8202487657563 ], [ -90.500593635564371, 19.8202487657563 ], [ -90.500593635564371, 19.818901292830123 ], [ -90.500324140979146, 19.818901292830123 ], [ -90.500324140979146, 19.818092809074415 ], [ -90.500054646393906, 19.818092809074415 ], [ -90.500054646393906, 19.817284325318706 ], [ -90.499785151808666, 19.817284325318706 ], [ -90.499785151808666, 19.815936852392529 ], [ -90.499515657223427, 19.815936852392529 ], [ -90.499515657223427, 19.81512836863682 ], [ -90.499246162638201, 19.81512836863682 ], [ -90.499246162638201, 19.813780895710639 ], [ -90.498976668052961, 19.813780895710639 ], [ -90.498976668052961, 19.813511401125403 ], [ -90.498707173467722, 19.813511401125403 ], [ -90.498707173467722, 19.81189443361399 ], [ -90.498437678882482, 19.81189443361399 ], [ -90.498437678882482, 19.810546960687809 ], [ -90.498168184297256, 19.810546960687809 ], [ -90.498168184297256, 19.81000797151734 ], [ -90.497898689712017, 19.81000797151734 ], [ -90.497898689712017, 19.808929993176395 ], [ -90.497629195126777, 19.808929993176395 ], [ -90.497629195126777, 19.807582520250214 ], [ -90.497359700541551, 19.807582520250214 ], [ -90.497359700541551, 19.807043531079746 ], [ -90.497090205956312, 19.807043531079746 ], [ -90.497090205956312, 19.805965552738801 ], [ -90.496820711371072, 19.805965552738801 ], [ -90.496820711371072, 19.805426563568329 ], [ -90.497090205956312, 19.805426563568329 ], [ -90.497090205956312, 19.805157068983092 ], [ -90.497629195126777, 19.805157068983092 ], [ -90.497629195126777, 19.805426563568329 ], [ -90.497898689712017, 19.805426563568329 ], [ -90.497898689712017, 19.805965552738801 ], [ -90.498437678882482, 19.805965552738801 ], [ -90.498437678882482, 19.806235047324037 ], [ -90.498168184297256, 19.806235047324037 ], [ -90.498168184297256, 19.807582520250214 ], [ -90.498437678882482, 19.807582520250214 ], [ -90.498437678882482, 19.808929993176395 ], [ -90.498707173467722, 19.808929993176395 ], [ -90.498707173467722, 19.810277466102576 ], [ -90.498976668052961, 19.810277466102576 ], [ -90.498976668052961, 19.811085949858281 ], [ -90.499246162638201, 19.811085949858281 ], [ -90.499246162638201, 19.811355444443517 ], [ -90.499515657223427, 19.811355444443517 ], [ -90.499515657223427, 19.811624939028754 ], [ -90.499785151808666, 19.811624939028754 ], [ -90.499785151808666, 19.81189443361399 ], [ -90.500054646393906, 19.81189443361399 ], [ -90.500054646393906, 19.812163928199226 ], [ -90.500324140979146, 19.812163928199226 ], [ -90.500324140979146, 19.812702917369698 ], [ -90.499785151808666, 19.812702917369698 ], [ -90.499785151808666, 19.814050390295876 ], [ -90.500054646393906, 19.814050390295876 ], [ -90.500054646393906, 19.815397863222056 ], [ -90.500324140979146, 19.815397863222056 ], [ -90.500324140979146, 19.816206346977765 ], [ -90.501402119320076, 19.816206346977765 ], [ -90.501402119320076, 19.815397863222056 ], [ -90.501941108490556, 19.815397863222056 ], [ -90.501941108490556, 19.81512836863682 ], [ -90.502210603075795, 19.81512836863682 ], [ -90.502210603075795, 19.814050390295876 ], [ -90.501402119320076, 19.814050390295876 ], [ -90.501402119320076, 19.813780895710639 ], [ -90.502480097661021, 19.813780895710639 ], [ -90.502480097661021, 19.813241906540171 ], [ -90.5030190868315, 19.813241906540171 ], [ -90.5030190868315, 19.813511401125403 ], [ -90.50328858141674, 19.813511401125403 ], [ -90.50328858141674, 19.814050390295876 ], [ -90.503558076001966, 19.814050390295876 ], [ -90.503558076001966, 19.81512836863682 ], [ -90.503827570587205, 19.81512836863682 ], [ -90.503827570587205, 19.815936852392529 ], [ -90.503558076001966, 19.815936852392529 ], [ -90.503558076001966, 19.815397863222056 ], [ -90.5030190868315, 19.815397863222056 ], [ -90.5030190868315, 19.815667357807293 ], [ -90.502749592246261, 19.815667357807293 ], [ -90.502749592246261, 19.815397863222056 ], [ -90.502210603075795, 19.815397863222056 ], [ -90.502210603075795, 19.815936852392529 ], [ -90.501941108490556, 19.815936852392529 ], [ -90.501941108490556, 19.816206346977765 ], [ -90.502210603075795, 19.816206346977765 ], [ -90.502210603075795, 19.816475841562998 ], [ -90.501941108490556, 19.816475841562998 ], [ -90.501941108490556, 19.816745336148234 ], [ -90.501671613905316, 19.816745336148234 ], [ -90.501671613905316, 19.817284325318706 ], [ -90.501402119320076, 19.817284325318706 ], [ -90.501402119320076, 19.818362303659651 ], [ -90.501132624734851, 19.818362303659651 ], [ -90.501132624734851, 19.818901292830123 ], [ -90.501402119320076, 19.818901292830123 ], [ -90.501402119320076, 19.820787754926773 ], [ -90.501671613905316, 19.820787754926773 ], [ -90.501671613905316, 19.821596238682481 ], [ -90.501941108490556, 19.821596238682481 ], [ -90.501941108490556, 19.82240472243819 ], [ -90.502210603075795, 19.82240472243819 ], [ -90.502210603075795, 19.823213206193895 ], [ -90.502480097661021, 19.823213206193895 ], [ -90.502480097661021, 19.82429118453484 ], [ -90.502749592246261, 19.82429118453484 ], [ -90.502749592246261, 19.825908152046253 ], [ -90.50328858141674, 19.825908152046253 ], [ -90.50328858141674, 19.826447141216725 ], [ -90.503558076001966, 19.826447141216725 ], [ -90.503558076001966, 19.826716635801962 ], [ -90.503827570587205, 19.826716635801962 ], [ -90.503827570587205, 19.827794614142906 ], [ -90.503558076001966, 19.827794614142906 ], [ -90.503558076001966, 19.828603097898611 ], [ -90.503827570587205, 19.828603097898611 ], [ -90.503827570587205, 19.828872592483847 ] ], [ [ -90.501132624734851, 19.817284325318706 ], [ -90.501132624734851, 19.816745336148234 ], [ -90.500593635564371, 19.816745336148234 ], [ -90.500593635564371, 19.817284325318706 ], [ -90.501132624734851, 19.817284325318706 ] ] ] ] } },
{ "type": "Feature", "properties": { "ZONA_MET": "Campeche", "INTENSIDAD": "Intensa", "T_PROM_POL": 4.0, "T_MIN_CIUD": 2.0, "DIF_TERMIC": 1.0 }, "geometry": { "type": "MultiPolygon", "coordinates": [ [ [ [ -90.505444538098615, 19.804348585227388 ], [ -90.50463605434291, 19.804348585227388 ], [ -90.50463605434291, 19.804079090642151 ], [ -90.504366559757671, 19.804079090642151 ], [ -90.504366559757671, 19.803809596056915 ], [ -90.504097065172445, 19.803809596056915 ], [ -90.504097065172445, 19.803001112301207 ], [ -90.50517504351339, 19.803001112301207 ], [ -90.50517504351339, 19.80273161771597 ], [ -90.50490554892815, 19.80273161771597 ], [ -90.50490554892815, 19.802192628545498 ], [ -90.50517504351339, 19.802192628545498 ], [ -90.50517504351339, 19.801923133960262 ], [ -90.505983527269095, 19.801923133960262 ], [ -90.505983527269095, 19.80273161771597 ], [ -90.505714032683855, 19.80273161771597 ], [ -90.505714032683855, 19.803270606886443 ], [ -90.505444538098615, 19.803270606886443 ], [ -90.505444538098615, 19.804348585227388 ] ], [ [ -90.50490554892815, 19.803809596056915 ], [ -90.50490554892815, 19.803270606886443 ], [ -90.50463605434291, 19.803270606886443 ], [ -90.50463605434291, 19.803809596056915 ], [ -90.50490554892815, 19.803809596056915 ] ] ] ] } },
{ "type": "Feature", "properties": { "ZONA_MET": "Campeche", "INTENSIDAD": "Extrema", "T_PROM_POL": 4.0, "T_MIN_CIUD": 2.0, "DIF_TERMIC": 1.0 }, "geometry": { "type": "MultiPolygon", "coordinates": [ [ [ [ -90.613781361363436, 19.796533242255546 ], [ -90.613242372192957, 19.796533242255546 ], [ -90.613242372192957, 19.796263747670309 ], [ -90.612972877607731, 19.796263747670309 ], [ -90.612972877607731, 19.795724758499837 ], [ -90.612703383022492, 19.795724758499837 ], [ -90.612703383022492, 19.794916274744132 ], [ -90.613511866778197, 19.794916274744132 ], [ -90.613511866778197, 19.795185769329368 ], [ -90.613781361363436, 19.795185769329368 ], [ -90.613781361363436, 19.795455263914601 ], [ -90.614320350533902, 19.795455263914601 ], [ -90.614320350533902, 19.795724758499837 ], [ -90.614050855948676, 19.795724758499837 ], [ -90.614050855948676, 19.795994253085073 ], [ -90.613781361363436, 19.795994253085073 ], [ -90.613781361363436, 19.796533242255546 ] ], [ [ -90.613781361363436, 19.795724758499837 ], [ -90.613781361363436, 19.795455263914601 ], [ -90.613511866778197, 19.795455263914601 ], [ -90.613511866778197, 19.795724758499837 ], [ -90.613781361363436, 19.795724758499837 ] ] ] ] } },
{ "type": "Feature", "properties": { "ZONA_MET": "Campeche", "INTENSIDAD": "Extrema", "T_PROM_POL": 4.0, "T_MIN_CIUD": 2.0, "DIF_TERMIC": 1.0 }, "geometry": { "type": "MultiPolygon", "coordinates": [ [ [ [ -90.611355910096307, 19.791143350550829 ], [ -90.611086415511082, 19.791143350550829 ], [ -90.611086415511082, 19.790873855965593 ], [ -90.610547426340602, 19.790873855965593 ], [ -90.610547426340602, 19.790334866795121 ], [ -90.610277931755363, 19.790334866795121 ], [ -90.610277931755363, 19.790065372209884 ], [ -90.611355910096307, 19.790065372209884 ], [ -90.611355910096307, 19.790334866795121 ], [ -90.611625404681547, 19.790334866795121 ], [ -90.611625404681547, 19.790873855965593 ], [ -90.611355910096307, 19.790873855965593 ], [ -90.611355910096307, 19.791143350550829 ] ] ] ] } },
{ "type": "Feature", "properties": { "ZONA_MET": "Campeche", "INTENSIDAD": "Intensa", "T_PROM_POL": 4.0, "T_MIN_CIUD": 2.0, "DIF_TERMIC": 1.0 }, "geometry": { "type": "MultiPolygon", "coordinates": [ [ [ [ -90.619710242238625, 19.791412845136065 ], [ -90.619440747653385, 19.791412845136065 ], [ -90.619440747653385, 19.791143350550829 ], [ -90.61890175848292, 19.791143350550829 ], [ -90.61890175848292, 19.790873855965593 ], [ -90.619440747653385, 19.790873855965593 ], [ -90.619440747653385, 19.790604361380357 ], [ -90.61890175848292, 19.790604361380357 ], [ -90.61890175848292, 19.790334866795121 ], [ -90.619171253068146, 19.790334866795121 ], [ -90.619171253068146, 19.789795877624648 ], [ -90.62078822057957, 19.789795877624648 ], [ -90.62078822057957, 19.790604361380357 ], [ -90.62105771516481, 19.790604361380357 ], [ -90.62105771516481, 19.790873855965593 ], [ -90.62051872599433, 19.790873855965593 ], [ -90.62051872599433, 19.790604361380357 ], [ -90.62024923140909, 19.790604361380357 ], [ -90.62024923140909, 19.790873855965593 ], [ -90.619710242238625, 19.790873855965593 ], [ -90.619710242238625, 19.791412845136065 ] ], [ [ -90.62024923140909, 19.790604361380357 ], [ -90.62024923140909, 19.790334866795121 ], [ -90.62051872599433, 19.790334866795121 ], [ -90.62051872599433, 19.790065372209884 ], [ -90.619710242238625, 19.790065372209884 ], [ -90.619710242238625, 19.790334866795121 ], [ -90.619979736823865, 19.790334866795121 ], [ -90.619979736823865, 19.790604361380357 ], [ -90.62024923140909, 19.790604361380357 ] ] ] ] } },
{ "type": "Feature", "properties": { "ZONA_MET": "Campeche", "INTENSIDAD": "Intensa", "T_PROM_POL": 4.0, "T_MIN_CIUD": 2.0, "DIF_TERMIC": 1.0 }, "geometry": { "type": "MultiPolygon", "coordinates": [ [ [ [ -89.992865836980016, 19.489578909671906 ], [ -89.991518364053846, 19.489578909671906 ], [ -89.991518364053846, 19.489309415086669 ], [ -89.992057353224311, 19.489309415086669 ], [ -89.992057353224311, 19.489039920501433 ], [ -89.992326847809551, 19.489039920501433 ], [ -89.992326847809551, 19.488770425916201 ], [ -89.992865836980016, 19.488770425916201 ], [ -89.992865836980016, 19.488231436745728 ], [ -89.993674320735735, 19.488231436745728 ], [ -89.993674320735735, 19.488500931330965 ], [ -89.993404826150496, 19.488500931330965 ], [ -89.993404826150496, 19.488770425916201 ], [ -89.993135331565256, 19.488770425916201 ], [ -89.993135331565256, 19.489039920501433 ], [ -89.992865836980016, 19.489039920501433 ], [ -89.992865836980016, 19.489578909671906 ] ] ] ] } },
{ "type": "Feature", "properties": { "ZONA_MET": "Campeche", "INTENSIDAD": "Intensa", "T_PROM_POL": 4.0, "T_MIN_CIUD": 2.0, "DIF_TERMIC": 1.0 }, "geometry": { "type": "MultiPolygon", "coordinates": [ [ [ [ -89.998794717855205, 19.487153458404784 ], [ -89.998525223269979, 19.487153458404784 ], [ -89.998525223269979, 19.486075480063839 ], [ -89.9979862340995, 19.486075480063839 ], [ -89.9979862340995, 19.48553649089337 ], [ -89.997447244929035, 19.48553649089337 ], [ -89.997447244929035, 19.485266996308134 ], [ -89.999064212440445, 19.485266996308134 ], [ -89.999064212440445, 19.48553649089337 ], [ -89.999333707025684, 19.48553649089337 ], [ -89.999333707025684, 19.486075480063839 ], [ -89.998794717855205, 19.486075480063839 ], [ -89.998794717855205, 19.486344974649075 ], [ -89.999064212440445, 19.486344974649075 ], [ -89.999064212440445, 19.486614469234311 ], [ -89.998794717855205, 19.486614469234311 ], [ -89.998794717855205, 19.487153458404784 ] ] ] ] } },
{ "type": "Feature", "properties": { "ZONA_MET": "Campeche", "INTENSIDAD": "Extrema", "T_PROM_POL": 4.0, "T_MIN_CIUD": 2.0, "DIF_TERMIC": 1.0 }, "geometry": { "type": "MultiPolygon", "coordinates": [ [ [ [ -89.989092912786717, 19.486075480063839 ], [ -89.988284429031012, 19.486075480063839 ], [ -89.988284429031012, 19.48553649089337 ], [ -89.988553923616251, 19.48553649089337 ], [ -89.988553923616251, 19.485266996308134 ], [ -89.988284429031012, 19.485266996308134 ], [ -89.988284429031012, 19.484458512552425 ], [ -89.988823418201477, 19.484458512552425 ], [ -89.988823418201477, 19.48553649089337 ], [ -89.989092912786717, 19.48553649089337 ], [ -89.989092912786717, 19.486075480063839 ] ] ] ] } },
{ "type": "Feature", "properties": { "ZONA_MET": "Campeche", "INTENSIDAD": "Extrema", "T_PROM_POL": 4.0, "T_MIN_CIUD": 2.0, "DIF_TERMIC": 1.0 }, "geometry": { "type": "MultiPolygon", "coordinates": [ [ [ [ -89.995021793661905, 19.482841545041008 ], [ -89.9942133099062, 19.482841545041008 ], [ -89.9942133099062, 19.48014659918865 ], [ -89.99448280449144, 19.48014659918865 ], [ -89.99448280449144, 19.481494072114831 ], [ -89.994752299076666, 19.481494072114831 ], [ -89.994752299076666, 19.481763566700067 ], [ -89.99448280449144, 19.481763566700067 ], [ -89.99448280449144, 19.482033061285303 ], [ -89.995291288247145, 19.482033061285303 ], [ -89.995291288247145, 19.48230255587054 ], [ -89.995021793661905, 19.48230255587054 ], [ -89.995021793661905, 19.482841545041008 ] ] ] ] } }
]
}
