{
"type": "FeatureCollection",
"name": "UHI_Puerto_Vallarta",
"crs": { "type": "name", "properties": { "name": "urn:ogc:def:crs:OGC:1.3:CRS84" } },
"features": [
{ "type": "Feature", "properties": { "ZONA_MET": "Puerto_Vallarta", "INTENSIDAD": "Intensa", "T_PROM_POL": 4.0, "T_MIN_CIUD": 2.0, "DIF_TERMIC": 1.0 }, "geometry": { "type": "MultiPolygon", "coordinates": [ [ [ [ -105.203409722276987, 20.72871501258637 ], [ -105.202870733106522, 20.72871501258637 ], [ -105.202870733106522, 20.727906528830665 ], [ -105.203679216862227, 20.727906528830665 ], [ -105.203679216862227, 20.727637034245429 ], [ -105.203948711447467, 20.727637034245429 ], [ -105.203948711447467, 20.727367539660193 ], [ -105.204757195203172, 20.727367539660193 ], [ -105.204757195203172, 20.727906528830665 ], [ -105.203948711447467, 20.727906528830665 ], [ -105.203948711447467, 20.728176023415902 ], [ -105.203679216862227, 20.728176023415902 ], [ -105.203679216862227, 20.728445518001138 ], [ -105.203409722276987, 20.728445518001138 ], [ -105.203409722276987, 20.72871501258637 ] ] ] ] } },
{ "type": "Feature", "properties": { "ZONA_MET": "Puerto_Vallarta", "INTENSIDAD": "Intensa", "T_PROM_POL": 4.0, "T_MIN_CIUD": 2.0, "DIF_TERMIC": 1.0 }, "geometry": { "type": "MultiPolygon", "coordinates": [ [ [ [ -105.194785895549444, 20.724133604637363 ], [ -105.194246906378979, 20.724133604637363 ], [ -105.194246906378979, 20.723864110052126 ], [ -105.193707917208499, 20.723864110052126 ], [ -105.193707917208499, 20.72359461546689 ], [ -105.193438422623274, 20.72359461546689 ], [ -105.193438422623274, 20.722786131711182 ], [ -105.193707917208499, 20.722786131711182 ], [ -105.193707917208499, 20.723325120881654 ], [ -105.193977411793739, 20.723325120881654 ], [ -105.193977411793739, 20.72359461546689 ], [ -105.194246906378979, 20.72359461546689 ], [ -105.194246906378979, 20.723055626296418 ], [ -105.195055390134684, 20.723055626296418 ], [ -105.195055390134684, 20.723325120881654 ], [ -105.195324884719923, 20.723325120881654 ], [ -105.195324884719923, 20.72359461546689 ], [ -105.194785895549444, 20.72359461546689 ], [ -105.194785895549444, 20.724133604637363 ] ] ] ] } },
{ "type": "Feature", "properties": { "ZONA_MET": "Puerto_Vallarta", "INTENSIDAD": "Intensa", "T_PROM_POL": 4.0, "T_MIN_CIUD": 2.0, "DIF_TERMIC": 1.0 }, "geometry": { "type": "MultiPolygon", "coordinates": [ [ [ [ -105.211494559834065, 20.723864110052126 ], [ -105.21122506524884, 20.723864110052126 ], [ -105.21122506524884, 20.723325120881654 ], [ -105.21068607607836, 20.723325120881654 ], [ -105.21068607607836, 20.723055626296418 ], [ -105.2109555706636, 20.723055626296418 ], [ -105.2109555706636, 20.722786131711182 ], [ -105.211764054419305, 20.722786131711182 ], [ -105.211764054419305, 20.722516637125949 ], [ -105.212033549004545, 20.722516637125949 ], [ -105.212033549004545, 20.722247142540713 ], [ -105.212303043589785, 20.722247142540713 ], [ -105.212303043589785, 20.722516637125949 ], [ -105.21284203276025, 20.722516637125949 ], [ -105.21284203276025, 20.723055626296418 ], [ -105.212303043589785, 20.723055626296418 ], [ -105.212303043589785, 20.723325120881654 ], [ -105.211764054419305, 20.723325120881654 ], [ -105.211764054419305, 20.72359461546689 ], [ -105.211494559834065, 20.72359461546689 ], [ -105.211494559834065, 20.723864110052126 ] ] ] ] } },
{ "type": "Feature", "properties": { "ZONA_MET": "Puerto_Vallarta", "INTENSIDAD": "Intensa", "T_PROM_POL": 4.0, "T_MIN_CIUD": 2.0, "DIF_TERMIC": 1.0 }, "geometry": { "type": "MultiPolygon", "coordinates": [ [ [ [ -105.206913151885061, 20.724133604637363 ], [ -105.206374162714582, 20.724133604637363 ], [ -105.206374162714582, 20.723864110052126 ], [ -105.206104668129356, 20.723864110052126 ], [ -105.206104668129356, 20.722786131711182 ], [ -105.205296184373651, 20.722786131711182 ], [ -105.205296184373651, 20.722516637125949 ], [ -105.205565678958877, 20.722516637125949 ], [ -105.205565678958877, 20.722247142540713 ], [ -105.206374162714582, 20.722247142540713 ], [ -105.206374162714582, 20.721977647955477 ], [ -105.206643657299821, 20.721977647955477 ], [ -105.206643657299821, 20.721708153370241 ], [ -105.206913151885061, 20.721708153370241 ], [ -105.206913151885061, 20.721438658785004 ], [ -105.206643657299821, 20.721438658785004 ], [ -105.206643657299821, 20.721169164199768 ], [ -105.207182646470301, 20.721169164199768 ], [ -105.207182646470301, 20.720899669614532 ], [ -105.207721635640766, 20.720899669614532 ], [ -105.207721635640766, 20.721169164199768 ], [ -105.207452141055526, 20.721169164199768 ], [ -105.207452141055526, 20.722247142540713 ], [ -105.207182646470301, 20.722247142540713 ], [ -105.207182646470301, 20.722516637125949 ], [ -105.207452141055526, 20.722516637125949 ], [ -105.207452141055526, 20.722786131711182 ], [ -105.206913151885061, 20.722786131711182 ], [ -105.206913151885061, 20.724133604637363 ] ] ] ] } },
{ "type": "Feature", "properties": { "ZONA_MET": "Puerto_Vallarta", "INTENSIDAD": "Intensa", "T_PROM_POL": 4.0, "T_MIN_CIUD": 2.0, "DIF_TERMIC": 1.0 }, "geometry": { "type": "MultiPolygon", "coordinates": [ [ [ [ -105.201253765595112, 20.72359461546689 ], [ -105.200714776424633, 20.72359461546689 ], [ -105.200714776424633, 20.723325120881654 ], [ -105.200445281839393, 20.723325120881654 ], [ -105.200445281839393, 20.723055626296418 ], [ -105.199906292668928, 20.723055626296418 ], [ -105.199906292668928, 20.721708153370241 ], [ -105.200175787254167, 20.721708153370241 ], [ -105.200175787254167, 20.722516637125949 ], [ -105.200714776424633, 20.722516637125949 ], [ -105.200714776424633, 20.721708153370241 ], [ -105.200445281839393, 20.721708153370241 ], [ -105.200445281839393, 20.721169164199768 ], [ -105.200714776424633, 20.721169164199768 ], [ -105.200714776424633, 20.720899669614532 ], [ -105.200445281839393, 20.720899669614532 ], [ -105.200445281839393, 20.720630175029296 ], [ -105.199636798083688, 20.720630175029296 ], [ -105.199636798083688, 20.72036068044406 ], [ -105.200175787254167, 20.72036068044406 ], [ -105.200175787254167, 20.720091185858823 ], [ -105.200445281839393, 20.720091185858823 ], [ -105.200445281839393, 20.72036068044406 ], [ -105.201253765595112, 20.72036068044406 ], [ -105.201253765595112, 20.720630175029296 ], [ -105.201792754765577, 20.720630175029296 ], [ -105.201792754765577, 20.720899669614532 ], [ -105.202062249350817, 20.720899669614532 ], [ -105.202062249350817, 20.721169164199768 ], [ -105.202331743936057, 20.721169164199768 ], [ -105.202331743936057, 20.722247142540713 ], [ -105.202062249350817, 20.722247142540713 ], [ -105.202062249350817, 20.722516637125949 ], [ -105.201792754765577, 20.722516637125949 ], [ -105.201792754765577, 20.722786131711182 ], [ -105.201253765595112, 20.722786131711182 ], [ -105.201253765595112, 20.72359461546689 ] ], [ [ -105.202062249350817, 20.721977647955477 ], [ -105.202062249350817, 20.721708153370241 ], [ -105.201792754765577, 20.721708153370241 ], [ -105.201792754765577, 20.721977647955477 ], [ -105.202062249350817, 20.721977647955477 ] ] ] ] } },
{ "type": "Feature", "properties": { "ZONA_MET": "Puerto_Vallarta", "INTENSIDAD": "Extrema", "T_PROM_POL": 4.0, "T_MIN_CIUD": 2.0, "DIF_TERMIC": 1.0 }, "geometry": { "type": "MultiPolygon", "coordinates": [ [ [ [ -105.193438422623274, 20.723055626296418 ], [ -105.192629938867555, 20.723055626296418 ], [ -105.192629938867555, 20.722247142540713 ], [ -105.192360444282329, 20.722247142540713 ], [ -105.192360444282329, 20.721977647955477 ], [ -105.192629938867555, 20.721977647955477 ], [ -105.192629938867555, 20.721708153370241 ], [ -105.192899433452794, 20.721708153370241 ], [ -105.192899433452794, 20.721169164199768 ], [ -105.193168928038034, 20.721169164199768 ], [ -105.193168928038034, 20.720899669614532 ], [ -105.192090949697089, 20.720899669614532 ], [ -105.192090949697089, 20.721169164199768 ], [ -105.19182145511185, 20.721169164199768 ], [ -105.19182145511185, 20.721438658785004 ], [ -105.19155196052661, 20.721438658785004 ], [ -105.19155196052661, 20.721169164199768 ], [ -105.191282465941384, 20.721169164199768 ], [ -105.191282465941384, 20.721438658785004 ], [ -105.190743476770905, 20.721438658785004 ], [ -105.190743476770905, 20.721708153370241 ], [ -105.1899349930152, 20.721708153370241 ], [ -105.1899349930152, 20.721977647955477 ], [ -105.18966549842996, 20.721977647955477 ], [ -105.18966549842996, 20.721708153370241 ], [ -105.188587520089015, 20.721708153370241 ], [ -105.188587520089015, 20.721169164199768 ], [ -105.18831802550379, 20.721169164199768 ], [ -105.18831802550379, 20.721438658785004 ], [ -105.18804853091855, 20.721438658785004 ], [ -105.18804853091855, 20.720899669614532 ], [ -105.187779036333311, 20.720899669614532 ], [ -105.187779036333311, 20.720630175029296 ], [ -105.18831802550379, 20.720630175029296 ], [ -105.18831802550379, 20.72036068044406 ], [ -105.188587520089015, 20.72036068044406 ], [ -105.188587520089015, 20.720630175029296 ], [ -105.188857014674255, 20.720630175029296 ], [ -105.188857014674255, 20.72036068044406 ], [ -105.189126509259495, 20.72036068044406 ], [ -105.189126509259495, 20.721169164199768 ], [ -105.189396003844735, 20.721169164199768 ], [ -105.189396003844735, 20.721438658785004 ], [ -105.19020448760044, 20.721438658785004 ], [ -105.19020448760044, 20.721169164199768 ], [ -105.190473982185665, 20.721169164199768 ], [ -105.190473982185665, 20.720630175029296 ], [ -105.19155196052661, 20.720630175029296 ], [ -105.19155196052661, 20.72036068044406 ], [ -105.192899433452794, 20.72036068044406 ], [ -105.192899433452794, 20.720091185858823 ], [ -105.193438422623274, 20.720091185858823 ], [ -105.193438422623274, 20.72036068044406 ], [ -105.193707917208499, 20.72036068044406 ], [ -105.193707917208499, 20.720899669614532 ], [ -105.193977411793739, 20.720899669614532 ], [ -105.193977411793739, 20.721169164199768 ], [ -105.194246906378979, 20.721169164199768 ], [ -105.194246906378979, 20.721438658785004 ], [ -105.193977411793739, 20.721438658785004 ], [ -105.193977411793739, 20.722247142540713 ], [ -105.193707917208499, 20.722247142540713 ], [ -105.193707917208499, 20.721977647955477 ], [ -105.193438422623274, 20.721977647955477 ], [ -105.193438422623274, 20.722247142540713 ], [ -105.193168928038034, 20.722247142540713 ], [ -105.193168928038034, 20.721977647955477 ], [ -105.192899433452794, 20.721977647955477 ], [ -105.192899433452794, 20.722516637125949 ], [ -105.193438422623274, 20.722516637125949 ], [ -105.193438422623274, 20.723055626296418 ] ], [ [ -105.193707917208499, 20.721708153370241 ], [ -105.193707917208499, 20.721438658785004 ], [ -105.193438422623274, 20.721438658785004 ], [ -105.193438422623274, 20.721708153370241 ], [ -105.193707917208499, 20.721708153370241 ] ], [ [ -105.189126509259495, 20.721438658785004 ], [ -105.189126509259495, 20.721169164199768 ], [ -105.188857014674255, 20.721169164199768 ], [ -105.188857014674255, 20.721438658785004 ], [ -105.189126509259495, 20.721438658785004 ] ] ] ] } },
{ "type": "Feature", "properties": { "ZONA_MET": "Puerto_Vallarta", "INTENSIDAD": "Intensa", "T_PROM_POL": 4.0, "T_MIN_CIUD": 2.0, "DIF_TERMIC": 1.0 }, "geometry": { "type": "MultiPolygon", "coordinates": [ [ [ [ -105.222813332413978, 20.721169164199768 ], [ -105.222004848658273, 20.721169164199768 ], [ -105.222004848658273, 20.720899669614532 ], [ -105.222274343243498, 20.720899669614532 ], [ -105.222274343243498, 20.72036068044406 ], [ -105.222543837828738, 20.72036068044406 ], [ -105.222543837828738, 20.720091185858823 ], [ -105.223082826999217, 20.720091185858823 ], [ -105.223082826999217, 20.720630175029296 ], [ -105.223621816169683, 20.720630175029296 ], [ -105.223621816169683, 20.720899669614532 ], [ -105.222813332413978, 20.720899669614532 ], [ -105.222813332413978, 20.721169164199768 ] ] ] ] } },
{ "type": "Feature", "properties": { "ZONA_MET": "Puerto_Vallarta", "INTENSIDAD": "Intensa", "T_PROM_POL": 4.0, "T_MIN_CIUD": 2.0, "DIF_TERMIC": 1.0 }, "geometry": { "type": "MultiPolygon", "coordinates": [ [ [ [ -105.19020448760044, 20.721438658785004 ], [ -105.189396003844735, 20.721438658785004 ], [ -105.189396003844735, 20.721169164199768 ], [ -105.189126509259495, 20.721169164199768 ], [ -105.189126509259495, 20.720091185858823 ], [ -105.189396003844735, 20.720091185858823 ], [ -105.189396003844735, 20.72036068044406 ], [ -105.1899349930152, 20.72036068044406 ], [ -105.1899349930152, 20.720091185858823 ], [ -105.190743476770905, 20.720091185858823 ], [ -105.190743476770905, 20.719821691273587 ], [ -105.19155196052661, 20.719821691273587 ], [ -105.19155196052661, 20.72036068044406 ], [ -105.191012971356145, 20.72036068044406 ], [ -105.191012971356145, 20.720630175029296 ], [ -105.190473982185665, 20.720630175029296 ], [ -105.190473982185665, 20.721169164199768 ], [ -105.19020448760044, 20.721169164199768 ], [ -105.19020448760044, 20.721438658785004 ] ], [ [ -105.19020448760044, 20.721169164199768 ], [ -105.19020448760044, 20.720899669614532 ], [ -105.1899349930152, 20.720899669614532 ], [ -105.1899349930152, 20.721169164199768 ], [ -105.19020448760044, 20.721169164199768 ] ] ] ] } },
{ "type": "Feature", "properties": { "ZONA_MET": "Puerto_Vallarta", "INTENSIDAD": "Intensa", "T_PROM_POL": 4.0, "T_MIN_CIUD": 2.0, "DIF_TERMIC": 1.0 }, "geometry": { "type": "MultiPolygon", "coordinates": [ [ [ [ -105.207452141055526, 20.720630175029296 ], [ -105.207182646470301, 20.720630175029296 ], [ -105.207182646470301, 20.720091185858823 ], [ -105.206643657299821, 20.720091185858823 ], [ -105.206643657299821, 20.719821691273587 ], [ -105.207452141055526, 20.719821691273587 ], [ -105.207452141055526, 20.719552196688355 ], [ -105.207182646470301, 20.719552196688355 ], [ -105.207182646470301, 20.719013207517882 ], [ -105.207452141055526, 20.719013207517882 ], [ -105.207452141055526, 20.719282702103119 ], [ -105.2109555706636, 20.719282702103119 ], [ -105.2109555706636, 20.719552196688355 ], [ -105.210416581493121, 20.719552196688355 ], [ -105.210416581493121, 20.719821691273587 ], [ -105.210147086907895, 20.719821691273587 ], [ -105.210147086907895, 20.719552196688355 ], [ -105.209877592322655, 20.719552196688355 ], [ -105.209877592322655, 20.719821691273587 ], [ -105.208799613981711, 20.719821691273587 ], [ -105.208799613981711, 20.720091185858823 ], [ -105.207452141055526, 20.720091185858823 ], [ -105.207452141055526, 20.720630175029296 ] ] ] ] } },
{ "type": "Feature", "properties": { "ZONA_MET": "Puerto_Vallarta", "INTENSIDAD": "Intensa", "T_PROM_POL": 4.0, "T_MIN_CIUD": 2.0, "DIF_TERMIC": 1.0 }, "geometry": { "type": "MultiPolygon", "coordinates": [ [ [ [ -105.205296184373651, 20.720630175029296 ], [ -105.204218206032706, 20.720630175029296 ], [ -105.204218206032706, 20.72036068044406 ], [ -105.203948711447467, 20.72036068044406 ], [ -105.203948711447467, 20.720091185858823 ], [ -105.205026689788411, 20.720091185858823 ], [ -105.205026689788411, 20.718743712932646 ], [ -105.205296184373651, 20.718743712932646 ], [ -105.205296184373651, 20.719282702103119 ], [ -105.205835173544116, 20.719282702103119 ], [ -105.205835173544116, 20.719552196688355 ], [ -105.206104668129356, 20.719552196688355 ], [ -105.206104668129356, 20.720091185858823 ], [ -105.205835173544116, 20.720091185858823 ], [ -105.205835173544116, 20.72036068044406 ], [ -105.205296184373651, 20.72036068044406 ], [ -105.205296184373651, 20.720630175029296 ] ] ] ] } },
{ "type": "Feature", "properties": { "ZONA_MET": "Puerto_Vallarta", "INTENSIDAD": "Intensa", "T_PROM_POL": 4.0, "T_MIN_CIUD": 2.0, "DIF_TERMIC": 1.0 }, "geometry": { "type": "MultiPolygon", "coordinates": [ [ [ [ -105.195863873890389, 20.723055626296418 ], [ -105.195324884719923, 20.723055626296418 ], [ -105.195324884719923, 20.722786131711182 ], [ -105.194785895549444, 20.722786131711182 ], [ -105.194785895549444, 20.722247142540713 ], [ -105.195055390134684, 20.722247142540713 ], [ -105.195055390134684, 20.721977647955477 ], [ -105.194785895549444, 20.721977647955477 ], [ -105.194785895549444, 20.721438658785004 ], [ -105.195055390134684, 20.721438658785004 ], [ -105.195055390134684, 20.721708153370241 ], [ -105.195324884719923, 20.721708153370241 ], [ -105.195324884719923, 20.721169164199768 ], [ -105.194516400964204, 20.721169164199768 ], [ -105.194516400964204, 20.720899669614532 ], [ -105.194785895549444, 20.720899669614532 ], [ -105.194785895549444, 20.719821691273587 ], [ -105.195055390134684, 20.719821691273587 ], [ -105.195055390134684, 20.720091185858823 ], [ -105.195594379305149, 20.720091185858823 ], [ -105.195594379305149, 20.721438658785004 ], [ -105.196133368475628, 20.721438658785004 ], [ -105.196133368475628, 20.720091185858823 ], [ -105.195863873890389, 20.720091185858823 ], [ -105.195863873890389, 20.718743712932646 ], [ -105.196133368475628, 20.718743712932646 ], [ -105.196133368475628, 20.719282702103119 ], [ -105.196402863060868, 20.719282702103119 ], [ -105.196402863060868, 20.718743712932646 ], [ -105.196941852231333, 20.718743712932646 ], [ -105.196941852231333, 20.719013207517882 ], [ -105.197480841401799, 20.719013207517882 ], [ -105.197480841401799, 20.719821691273587 ], [ -105.197750335987038, 20.719821691273587 ], [ -105.197750335987038, 20.720091185858823 ], [ -105.197480841401799, 20.720091185858823 ], [ -105.197480841401799, 20.72036068044406 ], [ -105.198019830572278, 20.72036068044406 ], [ -105.198019830572278, 20.720091185858823 ], [ -105.198289325157518, 20.720091185858823 ], [ -105.198289325157518, 20.72036068044406 ], [ -105.199097808913223, 20.72036068044406 ], [ -105.199097808913223, 20.720630175029296 ], [ -105.199367303498462, 20.720630175029296 ], [ -105.199367303498462, 20.720899669614532 ], [ -105.198019830572278, 20.720899669614532 ], [ -105.198019830572278, 20.721708153370241 ], [ -105.196402863060868, 20.721708153370241 ], [ -105.196402863060868, 20.721977647955477 ], [ -105.196672357646094, 20.721977647955477 ], [ -105.196672357646094, 20.722247142540713 ], [ -105.196133368475628, 20.722247142540713 ], [ -105.196133368475628, 20.721977647955477 ], [ -105.195594379305149, 20.721977647955477 ], [ -105.195594379305149, 20.722247142540713 ], [ -105.195863873890389, 20.722247142540713 ], [ -105.195863873890389, 20.723055626296418 ] ], [ [ -105.197480841401799, 20.721169164199768 ], [ -105.197480841401799, 20.720899669614532 ], [ -105.196941852231333, 20.720899669614532 ], [ -105.196941852231333, 20.721169164199768 ], [ -105.197480841401799, 20.721169164199768 ] ] ] ] } },
{ "type": "Feature", "properties": { "ZONA_MET": "Puerto_Vallarta", "INTENSIDAD": "Intensa", "T_PROM_POL": 4.0, "T_MIN_CIUD": 2.0, "DIF_TERMIC": 1.0 }, "geometry": { "type": "MultiPolygon", "coordinates": [ [ [ [ -105.214997989442139, 20.720091185858823 ], [ -105.214728494856899, 20.720091185858823 ], [ -105.214728494856899, 20.719821691273587 ], [ -105.21445900027166, 20.719821691273587 ], [ -105.21445900027166, 20.719552196688355 ], [ -105.214189505686434, 20.719552196688355 ], [ -105.214189505686434, 20.720091185858823 ], [ -105.213920011101195, 20.720091185858823 ], [ -105.213920011101195, 20.719821691273587 ], [ -105.213650516515955, 20.719821691273587 ], [ -105.213650516515955, 20.719552196688355 ], [ -105.213920011101195, 20.719552196688355 ], [ -105.213920011101195, 20.719282702103119 ], [ -105.215267484027379, 20.719282702103119 ], [ -105.215267484027379, 20.718743712932646 ], [ -105.215536978612604, 20.718743712932646 ], [ -105.215536978612604, 20.719552196688355 ], [ -105.215267484027379, 20.719552196688355 ], [ -105.215267484027379, 20.719821691273587 ], [ -105.214997989442139, 20.719821691273587 ], [ -105.214997989442139, 20.720091185858823 ] ] ] ] } },
{ "type": "Feature", "properties": { "ZONA_MET": "Puerto_Vallarta", "INTENSIDAD": "Intensa", "T_PROM_POL": 4.0, "T_MIN_CIUD": 2.0, "DIF_TERMIC": 1.0 }, "geometry": { "type": "MultiPolygon", "coordinates": [ [ [ [ -105.195594379305149, 20.717665734591701 ], [ -105.194785895549444, 20.717665734591701 ], [ -105.194785895549444, 20.716857250835993 ], [ -105.195324884719923, 20.716857250835993 ], [ -105.195324884719923, 20.71658775625076 ], [ -105.195055390134684, 20.71658775625076 ], [ -105.195055390134684, 20.716318261665524 ], [ -105.195594379305149, 20.716318261665524 ], [ -105.195594379305149, 20.71658775625076 ], [ -105.195863873890389, 20.71658775625076 ], [ -105.195863873890389, 20.717396240006465 ], [ -105.195594379305149, 20.717396240006465 ], [ -105.195594379305149, 20.717665734591701 ] ] ] ] } },
{ "type": "Feature", "properties": { "ZONA_MET": "Puerto_Vallarta", "INTENSIDAD": "Intensa", "T_PROM_POL": 4.0, "T_MIN_CIUD": 2.0, "DIF_TERMIC": 1.0 }, "geometry": { "type": "MultiPolygon", "coordinates": [ [ [ [ -105.226047267436812, 20.71658775625076 ], [ -105.224969289095867, 20.71658775625076 ], [ -105.224969289095867, 20.716318261665524 ], [ -105.224699794510627, 20.716318261665524 ], [ -105.224699794510627, 20.715779272495052 ], [ -105.224430299925388, 20.715779272495052 ], [ -105.224430299925388, 20.715509777909816 ], [ -105.224699794510627, 20.715509777909816 ], [ -105.224699794510627, 20.714970788739343 ], [ -105.224969289095867, 20.714970788739343 ], [ -105.224969289095867, 20.715509777909816 ], [ -105.225508278266332, 20.715509777909816 ], [ -105.225508278266332, 20.715779272495052 ], [ -105.224969289095867, 20.715779272495052 ], [ -105.224969289095867, 20.716048767080288 ], [ -105.226316762022037, 20.716048767080288 ], [ -105.226316762022037, 20.715779272495052 ], [ -105.226586256607277, 20.715779272495052 ], [ -105.226586256607277, 20.716318261665524 ], [ -105.226047267436812, 20.716318261665524 ], [ -105.226047267436812, 20.71658775625076 ] ] ] ] } },
{ "type": "Feature", "properties": { "ZONA_MET": "Puerto_Vallarta", "INTENSIDAD": "Intensa", "T_PROM_POL": 4.0, "T_MIN_CIUD": 2.0, "DIF_TERMIC": 1.0 }, "geometry": { "type": "MultiPolygon", "coordinates": [ [ [ [ -105.20933860315219, 20.716318261665524 ], [ -105.208799613981711, 20.716318261665524 ], [ -105.208799613981711, 20.715779272495052 ], [ -105.208530119396471, 20.715779272495052 ], [ -105.208530119396471, 20.715509777909816 ], [ -105.20933860315219, 20.715509777909816 ], [ -105.20933860315219, 20.715240283324579 ], [ -105.209608097737416, 20.715240283324579 ], [ -105.209608097737416, 20.714701294154107 ], [ -105.20933860315219, 20.714701294154107 ], [ -105.20933860315219, 20.714162304983635 ], [ -105.210147086907895, 20.714162304983635 ], [ -105.210147086907895, 20.714431799568871 ], [ -105.209877592322655, 20.714431799568871 ], [ -105.209877592322655, 20.714701294154107 ], [ -105.210147086907895, 20.714701294154107 ], [ -105.210147086907895, 20.715240283324579 ], [ -105.21068607607836, 20.715240283324579 ], [ -105.21068607607836, 20.715779272495052 ], [ -105.209608097737416, 20.715779272495052 ], [ -105.209608097737416, 20.716048767080288 ], [ -105.20933860315219, 20.716048767080288 ], [ -105.20933860315219, 20.716318261665524 ] ] ] ] } },
{ "type": "Feature", "properties": { "ZONA_MET": "Puerto_Vallarta", "INTENSIDAD": "Intensa", "T_PROM_POL": 4.0, "T_MIN_CIUD": 2.0, "DIF_TERMIC": 1.0 }, "geometry": { "type": "MultiPolygon", "coordinates": [ [ [ [ -105.194785895549444, 20.714162304983635 ], [ -105.193977411793739, 20.714162304983635 ], [ -105.193977411793739, 20.713892810398399 ], [ -105.193707917208499, 20.713892810398399 ], [ -105.193707917208499, 20.713084326642694 ], [ -105.194516400964204, 20.713084326642694 ], [ -105.194516400964204, 20.71335382122793 ], [ -105.194785895549444, 20.71335382122793 ], [ -105.194785895549444, 20.714162304983635 ] ] ] ] } },
{ "type": "Feature", "properties": { "ZONA_MET": "Puerto_Vallarta", "INTENSIDAD": "Intensa", "T_PROM_POL": 4.0, "T_MIN_CIUD": 2.0, "DIF_TERMIC": 1.0 }, "geometry": { "type": "MultiPolygon", "coordinates": [ [ [ [ -105.271861346926912, 20.712814832057457 ], [ -105.270513874000727, 20.712814832057457 ], [ -105.270513874000727, 20.711736853716513 ], [ -105.270783368585967, 20.711736853716513 ], [ -105.270783368585967, 20.711467359131277 ], [ -105.271052863171192, 20.711467359131277 ], [ -105.271052863171192, 20.712275842886985 ], [ -105.271322357756432, 20.712275842886985 ], [ -105.271322357756432, 20.712545337472221 ], [ -105.271861346926912, 20.712545337472221 ], [ -105.271861346926912, 20.712814832057457 ] ] ] ] } },
{ "type": "Feature", "properties": { "ZONA_MET": "Puerto_Vallarta", "INTENSIDAD": "Intensa", "T_PROM_POL": 4.0, "T_MIN_CIUD": 2.0, "DIF_TERMIC": 1.0 }, "geometry": { "type": "MultiPolygon", "coordinates": [ [ [ [ -105.219040408220678, 20.713623315813162 ], [ -105.218231924464973, 20.713623315813162 ], [ -105.218231924464973, 20.71335382122793 ], [ -105.217962429879734, 20.71335382122793 ], [ -105.217962429879734, 20.712814832057457 ], [ -105.217692935294494, 20.712814832057457 ], [ -105.217692935294494, 20.713084326642694 ], [ -105.216614956953549, 20.713084326642694 ], [ -105.216614956953549, 20.712814832057457 ], [ -105.216345462368309, 20.712814832057457 ], [ -105.216345462368309, 20.711736853716513 ], [ -105.216884451538789, 20.711736853716513 ], [ -105.216884451538789, 20.71119786454604 ], [ -105.217153946124029, 20.71119786454604 ], [ -105.217153946124029, 20.711467359131277 ], [ -105.217423440709254, 20.711467359131277 ], [ -105.217423440709254, 20.711736853716513 ], [ -105.217962429879734, 20.711736853716513 ], [ -105.217962429879734, 20.712275842886985 ], [ -105.218231924464973, 20.712275842886985 ], [ -105.218231924464973, 20.712814832057457 ], [ -105.218770913635439, 20.712814832057457 ], [ -105.218770913635439, 20.713084326642694 ], [ -105.219040408220678, 20.713084326642694 ], [ -105.219040408220678, 20.713623315813162 ] ] ] ] } },
{ "type": "Feature", "properties": { "ZONA_MET": "Puerto_Vallarta", "INTENSIDAD": "Intensa", "T_PROM_POL": 4.0, "T_MIN_CIUD": 2.0, "DIF_TERMIC": 1.0 }, "geometry": { "type": "MultiPolygon", "coordinates": [ [ [ [ -105.220657375732088, 20.711736853716513 ], [ -105.220118386561623, 20.711736853716513 ], [ -105.220118386561623, 20.71119786454604 ], [ -105.220926870317328, 20.71119786454604 ], [ -105.220926870317328, 20.710389380790335 ], [ -105.220657375732088, 20.710389380790335 ], [ -105.220657375732088, 20.710119886205099 ], [ -105.222004848658273, 20.710119886205099 ], [ -105.222004848658273, 20.710658875375568 ], [ -105.221735354073033, 20.710658875375568 ], [ -105.221735354073033, 20.71119786454604 ], [ -105.221196364902568, 20.71119786454604 ], [ -105.221196364902568, 20.711467359131277 ], [ -105.220657375732088, 20.711467359131277 ], [ -105.220657375732088, 20.711736853716513 ] ] ] ] } },
{ "type": "Feature", "properties": { "ZONA_MET": "Puerto_Vallarta", "INTENSIDAD": "Intensa", "T_PROM_POL": 4.0, "T_MIN_CIUD": 2.0, "DIF_TERMIC": 1.0 }, "geometry": { "type": "MultiPolygon", "coordinates": [ [ [ [ -105.216075967783084, 20.711467359131277 ], [ -105.215806473197844, 20.711467359131277 ], [ -105.215806473197844, 20.710928369960804 ], [ -105.216075967783084, 20.710928369960804 ], [ -105.216075967783084, 20.709850391619863 ], [ -105.216614956953549, 20.709850391619863 ], [ -105.216614956953549, 20.709311402449391 ], [ -105.216884451538789, 20.709311402449391 ], [ -105.216884451538789, 20.709580897034627 ], [ -105.217153946124029, 20.709580897034627 ], [ -105.217153946124029, 20.709850391619863 ], [ -105.217423440709254, 20.709850391619863 ], [ -105.217423440709254, 20.710119886205099 ], [ -105.217153946124029, 20.710119886205099 ], [ -105.217153946124029, 20.710389380790335 ], [ -105.216884451538789, 20.710389380790335 ], [ -105.216884451538789, 20.71119786454604 ], [ -105.216075967783084, 20.71119786454604 ], [ -105.216075967783084, 20.711467359131277 ] ], [ [ -105.216884451538789, 20.710389380790335 ], [ -105.216884451538789, 20.710119886205099 ], [ -105.216614956953549, 20.710119886205099 ], [ -105.216614956953549, 20.710389380790335 ], [ -105.216884451538789, 20.710389380790335 ] ] ] ] } },
{ "type": "Feature", "properties": { "ZONA_MET": "Puerto_Vallarta", "INTENSIDAD": "Intensa", "T_PROM_POL": 4.0, "T_MIN_CIUD": 2.0, "DIF_TERMIC": 1.0 }, "geometry": { "type": "MultiPolygon", "coordinates": [ [ [ [ -105.219579397391144, 20.710119886205099 ], [ -105.219309902805904, 20.710119886205099 ], [ -105.219309902805904, 20.709850391619863 ], [ -105.218770913635439, 20.709850391619863 ], [ -105.218770913635439, 20.709580897034627 ], [ -105.217692935294494, 20.709580897034627 ], [ -105.217692935294494, 20.709311402449391 ], [ -105.219848891976383, 20.709311402449391 ], [ -105.219848891976383, 20.709850391619863 ], [ -105.219579397391144, 20.709850391619863 ], [ -105.219579397391144, 20.710119886205099 ] ] ] ] } },
{ "type": "Feature", "properties": { "ZONA_MET": "Puerto_Vallarta", "INTENSIDAD": "Intensa", "T_PROM_POL": 4.0, "T_MIN_CIUD": 2.0, "DIF_TERMIC": 1.0 }, "geometry": { "type": "MultiPolygon", "coordinates": [ [ [ [ -105.2357490725053, 20.709580897034627 ], [ -105.23521008333482, 20.709580897034627 ], [ -105.23521008333482, 20.708772413278918 ], [ -105.23547957792006, 20.708772413278918 ], [ -105.23547957792006, 20.70796392952321 ], [ -105.2357490725053, 20.70796392952321 ], [ -105.2357490725053, 20.708233424108446 ], [ -105.236018567090539, 20.708233424108446 ], [ -105.236018567090539, 20.708502918693682 ], [ -105.2357490725053, 20.708502918693682 ], [ -105.2357490725053, 20.708772413278918 ], [ -105.236018567090539, 20.708772413278918 ], [ -105.236018567090539, 20.709041907864155 ], [ -105.236288061675765, 20.709041907864155 ], [ -105.236288061675765, 20.709311402449391 ], [ -105.2357490725053, 20.709311402449391 ], [ -105.2357490725053, 20.709580897034627 ] ] ] ] } },
{ "type": "Feature", "properties": { "ZONA_MET": "Puerto_Vallarta", "INTENSIDAD": "Intensa", "T_PROM_POL": 4.0, "T_MIN_CIUD": 2.0, "DIF_TERMIC": 1.0 }, "geometry": { "type": "MultiPolygon", "coordinates": [ [ [ [ -105.232245642897226, 20.704460499915147 ], [ -105.231706653726761, 20.704460499915147 ], [ -105.231706653726761, 20.703921510744674 ], [ -105.231976148312, 20.703921510744674 ], [ -105.231976148312, 20.703652016159438 ], [ -105.231706653726761, 20.703652016159438 ], [ -105.231706653726761, 20.703382521574202 ], [ -105.231976148312, 20.703382521574202 ], [ -105.231976148312, 20.703113026988966 ], [ -105.232245642897226, 20.703113026988966 ], [ -105.232245642897226, 20.70284353240373 ], [ -105.232515137482466, 20.70284353240373 ], [ -105.232515137482466, 20.702304543233257 ], [ -105.232784632067705, 20.702304543233257 ], [ -105.232784632067705, 20.702035048648021 ], [ -105.233054126652945, 20.702035048648021 ], [ -105.233054126652945, 20.701765554062785 ], [ -105.232515137482466, 20.701765554062785 ], [ -105.232515137482466, 20.701496059477552 ], [ -105.233054126652945, 20.701496059477552 ], [ -105.233054126652945, 20.701226564892316 ], [ -105.233323621238171, 20.701226564892316 ], [ -105.233323621238171, 20.70095707030708 ], [ -105.23413210499389, 20.70095707030708 ], [ -105.23413210499389, 20.701226564892316 ], [ -105.23386261040865, 20.701226564892316 ], [ -105.23386261040865, 20.701496059477552 ], [ -105.23413210499389, 20.701496059477552 ], [ -105.23413210499389, 20.702035048648021 ], [ -105.234671094164355, 20.702035048648021 ], [ -105.234671094164355, 20.702304543233257 ], [ -105.234940588749595, 20.702304543233257 ], [ -105.234940588749595, 20.70284353240373 ], [ -105.234401599579115, 20.70284353240373 ], [ -105.234401599579115, 20.703113026988966 ], [ -105.23386261040865, 20.703113026988966 ], [ -105.23386261040865, 20.703652016159438 ], [ -105.23359311582341, 20.703652016159438 ], [ -105.23359311582341, 20.703382521574202 ], [ -105.233054126652945, 20.703382521574202 ], [ -105.233054126652945, 20.703652016159438 ], [ -105.232784632067705, 20.703652016159438 ], [ -105.232784632067705, 20.703113026988966 ], [ -105.232515137482466, 20.703113026988966 ], [ -105.232515137482466, 20.703382521574202 ], [ -105.232245642897226, 20.703382521574202 ], [ -105.232245642897226, 20.704460499915147 ] ], [ [ -105.23359311582341, 20.703113026988966 ], [ -105.23359311582341, 20.70284353240373 ], [ -105.23413210499389, 20.70284353240373 ], [ -105.23413210499389, 20.702304543233257 ], [ -105.23386261040865, 20.702304543233257 ], [ -105.23386261040865, 20.702035048648021 ], [ -105.23359311582341, 20.702035048648021 ], [ -105.23359311582341, 20.701765554062785 ], [ -105.233323621238171, 20.701765554062785 ], [ -105.233323621238171, 20.702035048648021 ], [ -105.233054126652945, 20.702035048648021 ], [ -105.233054126652945, 20.702574037818493 ], [ -105.232784632067705, 20.702574037818493 ], [ -105.232784632067705, 20.70284353240373 ], [ -105.233054126652945, 20.70284353240373 ], [ -105.233054126652945, 20.703113026988966 ], [ -105.23359311582341, 20.703113026988966 ] ] ] ] } },
{ "type": "Feature", "properties": { "ZONA_MET": "Puerto_Vallarta", "INTENSIDAD": "Intensa", "T_PROM_POL": 4.0, "T_MIN_CIUD": 2.0, "DIF_TERMIC": 1.0 }, "geometry": { "type": "MultiPolygon", "coordinates": [ [ [ [ -105.237096545431484, 20.700687575721844 ], [ -105.236288061675765, 20.700687575721844 ], [ -105.236288061675765, 20.700418081136608 ], [ -105.23521008333482, 20.700418081136608 ], [ -105.23521008333482, 20.700148586551371 ], [ -105.236018567090539, 20.700148586551371 ], [ -105.236018567090539, 20.699609597380899 ], [ -105.236288061675765, 20.699609597380899 ], [ -105.236288061675765, 20.699070608210427 ], [ -105.236018567090539, 20.699070608210427 ], [ -105.236018567090539, 20.698801113625191 ], [ -105.236288061675765, 20.698801113625191 ], [ -105.236288061675765, 20.698531619039954 ], [ -105.236557556261005, 20.698531619039954 ], [ -105.236557556261005, 20.697723135284249 ], [ -105.236827050846244, 20.697723135284249 ], [ -105.236827050846244, 20.697992629869486 ], [ -105.237096545431484, 20.697992629869486 ], [ -105.237096545431484, 20.698262124454722 ], [ -105.23736604001671, 20.698262124454722 ], [ -105.23736604001671, 20.698531619039954 ], [ -105.237096545431484, 20.698531619039954 ], [ -105.237096545431484, 20.699340102795663 ], [ -105.23736604001671, 20.699340102795663 ], [ -105.23736604001671, 20.699879091966135 ], [ -105.237905029187189, 20.699879091966135 ], [ -105.237905029187189, 20.700418081136608 ], [ -105.237096545431484, 20.700418081136608 ], [ -105.237096545431484, 20.700687575721844 ] ] ] ] } },
{ "type": "Feature", "properties": { "ZONA_MET": "Puerto_Vallarta", "INTENSIDAD": "Intensa", "T_PROM_POL": 4.0, "T_MIN_CIUD": 2.0, "DIF_TERMIC": 1.0 }, "geometry": { "type": "MultiPolygon", "coordinates": [ [ [ [ -105.268357917318838, 20.697992629869486 ], [ -105.268088422733598, 20.697992629869486 ], [ -105.268088422733598, 20.697453640699013 ], [ -105.267010444392653, 20.697453640699013 ], [ -105.267010444392653, 20.697723135284249 ], [ -105.266740949807428, 20.697723135284249 ], [ -105.266740949807428, 20.697184146113777 ], [ -105.267549433563133, 20.697184146113777 ], [ -105.267549433563133, 20.696914651528541 ], [ -105.267279938977893, 20.696914651528541 ], [ -105.267279938977893, 20.696375662358069 ], [ -105.266740949807428, 20.696375662358069 ], [ -105.266740949807428, 20.696106167772832 ], [ -105.267549433563133, 20.696106167772832 ], [ -105.267549433563133, 20.696645156943305 ], [ -105.268088422733598, 20.696645156943305 ], [ -105.268088422733598, 20.697184146113777 ], [ -105.268357917318838, 20.697184146113777 ], [ -105.268357917318838, 20.697992629869486 ] ] ] ] } },
{ "type": "Feature", "properties": { "ZONA_MET": "Puerto_Vallarta", "INTENSIDAD": "Intensa", "T_PROM_POL": 4.0, "T_MIN_CIUD": 2.0, "DIF_TERMIC": 1.0 }, "geometry": { "type": "MultiPolygon", "coordinates": [ [ [ [ -105.239252502113359, 20.699070608210427 ], [ -105.238174523772415, 20.699070608210427 ], [ -105.238174523772415, 20.697453640699013 ], [ -105.237905029187189, 20.697453640699013 ], [ -105.237905029187189, 20.697184146113777 ], [ -105.237635534601949, 20.697184146113777 ], [ -105.237635534601949, 20.696645156943305 ], [ -105.237905029187189, 20.696645156943305 ], [ -105.237905029187189, 20.696375662358069 ], [ -105.238174523772415, 20.696375662358069 ], [ -105.238174523772415, 20.697184146113777 ], [ -105.238713512942894, 20.697184146113777 ], [ -105.238713512942894, 20.697453640699013 ], [ -105.238983007528134, 20.697453640699013 ], [ -105.238983007528134, 20.697184146113777 ], [ -105.239252502113359, 20.697184146113777 ], [ -105.239252502113359, 20.696914651528541 ], [ -105.239521996698599, 20.696914651528541 ], [ -105.239521996698599, 20.696375662358069 ], [ -105.239252502113359, 20.696375662358069 ], [ -105.239252502113359, 20.696106167772832 ], [ -105.240060985869079, 20.696106167772832 ], [ -105.240060985869079, 20.695836673187596 ], [ -105.240330480454304, 20.695836673187596 ], [ -105.240330480454304, 20.69556717860236 ], [ -105.240599975039544, 20.69556717860236 ], [ -105.240599975039544, 20.696375662358069 ], [ -105.240330480454304, 20.696375662358069 ], [ -105.240330480454304, 20.696645156943305 ], [ -105.240060985869079, 20.696645156943305 ], [ -105.240060985869079, 20.697453640699013 ], [ -105.239521996698599, 20.697453640699013 ], [ -105.239521996698599, 20.697723135284249 ], [ -105.238713512942894, 20.697723135284249 ], [ -105.238713512942894, 20.697992629869486 ], [ -105.238983007528134, 20.697992629869486 ], [ -105.238983007528134, 20.698262124454722 ], [ -105.239252502113359, 20.698262124454722 ], [ -105.239252502113359, 20.698531619039954 ], [ -105.238983007528134, 20.698531619039954 ], [ -105.238983007528134, 20.698801113625191 ], [ -105.239252502113359, 20.698801113625191 ], [ -105.239252502113359, 20.699070608210427 ] ] ] ] } },
{ "type": "Feature", "properties": { "ZONA_MET": "Puerto_Vallarta", "INTENSIDAD": "Intensa", "T_PROM_POL": 4.0, "T_MIN_CIUD": 2.0, "DIF_TERMIC": 1.0 }, "geometry": { "type": "MultiPolygon", "coordinates": [ [ [ [ -105.242216942550954, 20.696106167772832 ], [ -105.241677953380488, 20.696106167772832 ], [ -105.241677953380488, 20.695836673187596 ], [ -105.241408458795249, 20.695836673187596 ], [ -105.241408458795249, 20.69556717860236 ], [ -105.241138964210009, 20.69556717860236 ], [ -105.241138964210009, 20.695028189431891 ], [ -105.241408458795249, 20.695028189431891 ], [ -105.241408458795249, 20.694489200261419 ], [ -105.241677953380488, 20.694489200261419 ], [ -105.241677953380488, 20.694219705676183 ], [ -105.242216942550954, 20.694219705676183 ], [ -105.242216942550954, 20.695028189431891 ], [ -105.242486437136193, 20.695028189431891 ], [ -105.242486437136193, 20.695836673187596 ], [ -105.242216942550954, 20.695836673187596 ], [ -105.242216942550954, 20.696106167772832 ] ], [ [ -105.242216942550954, 20.695297684017127 ], [ -105.242216942550954, 20.695028189431891 ], [ -105.241947447965728, 20.695028189431891 ], [ -105.241947447965728, 20.695297684017127 ], [ -105.242216942550954, 20.695297684017127 ] ] ] ] } },
{ "type": "Feature", "properties": { "ZONA_MET": "Puerto_Vallarta", "INTENSIDAD": "Intensa", "T_PROM_POL": 4.0, "T_MIN_CIUD": 2.0, "DIF_TERMIC": 1.0 }, "geometry": { "type": "MultiPolygon", "coordinates": [ [ [ [ -105.23359311582341, 20.694758694846655 ], [ -105.233323621238171, 20.694758694846655 ], [ -105.233323621238171, 20.694489200261419 ], [ -105.233054126652945, 20.694489200261419 ], [ -105.233054126652945, 20.693950211090947 ], [ -105.232245642897226, 20.693950211090947 ], [ -105.232245642897226, 20.693411221920474 ], [ -105.231976148312, 20.693411221920474 ], [ -105.231976148312, 20.693141727335238 ], [ -105.232515137482466, 20.693141727335238 ], [ -105.232515137482466, 20.693411221920474 ], [ -105.232784632067705, 20.693411221920474 ], [ -105.232784632067705, 20.69368071650571 ], [ -105.233323621238171, 20.69368071650571 ], [ -105.233323621238171, 20.694219705676183 ], [ -105.23359311582341, 20.694219705676183 ], [ -105.23359311582341, 20.694758694846655 ] ] ] ] } },
{ "type": "Feature", "properties": { "ZONA_MET": "Puerto_Vallarta", "INTENSIDAD": "Intensa", "T_PROM_POL": 4.0, "T_MIN_CIUD": 2.0, "DIF_TERMIC": 1.0 }, "geometry": { "type": "MultiPolygon", "coordinates": [ [ [ [ -105.254074704301331, 20.68856031938623 ], [ -105.253535715130866, 20.68856031938623 ], [ -105.253535715130866, 20.688290824800994 ], [ -105.252727231375161, 20.688290824800994 ], [ -105.252727231375161, 20.68856031938623 ], [ -105.252457736789921, 20.68856031938623 ], [ -105.252457736789921, 20.688290824800994 ], [ -105.252188242204682, 20.688290824800994 ], [ -105.252188242204682, 20.688021330215758 ], [ -105.252457736789921, 20.688021330215758 ], [ -105.252457736789921, 20.687751835630522 ], [ -105.253535715130866, 20.687751835630522 ], [ -105.253535715130866, 20.687482341045285 ], [ -105.254074704301331, 20.687482341045285 ], [ -105.254074704301331, 20.687751835630522 ], [ -105.254344198886571, 20.687751835630522 ], [ -105.254344198886571, 20.688290824800994 ], [ -105.254074704301331, 20.688290824800994 ], [ -105.254074704301331, 20.68856031938623 ] ] ] ] } },
{ "type": "Feature", "properties": { "ZONA_MET": "Puerto_Vallarta", "INTENSIDAD": "Extrema", "T_PROM_POL": 4.0, "T_MIN_CIUD": 2.0, "DIF_TERMIC": 1.0 }, "geometry": { "type": "MultiPolygon", "coordinates": [ [ [ [ -105.231706653726761, 20.678858514317739 ], [ -105.231437159141521, 20.678858514317739 ], [ -105.231437159141521, 20.67805003056203 ], [ -105.231706653726761, 20.67805003056203 ], [ -105.231706653726761, 20.677780535976794 ], [ -105.231976148312, 20.677780535976794 ], [ -105.231976148312, 20.677511041391558 ], [ -105.232515137482466, 20.677511041391558 ], [ -105.232515137482466, 20.677780535976794 ], [ -105.232245642897226, 20.677780535976794 ], [ -105.232245642897226, 20.67805003056203 ], [ -105.232515137482466, 20.67805003056203 ], [ -105.232515137482466, 20.678319525147266 ], [ -105.232245642897226, 20.678319525147266 ], [ -105.232245642897226, 20.678589019732502 ], [ -105.231706653726761, 20.678589019732502 ], [ -105.231706653726761, 20.678858514317739 ] ] ] ] } },
{ "type": "Feature", "properties": { "ZONA_MET": "Puerto_Vallarta", "INTENSIDAD": "Intensa", "T_PROM_POL": 4.0, "T_MIN_CIUD": 2.0, "DIF_TERMIC": 1.0 }, "geometry": { "type": "MultiPolygon", "coordinates": [ [ [ [ -105.245450877573788, 20.682900933096278 ], [ -105.245181382988548, 20.682900933096278 ], [ -105.245181382988548, 20.681822954755333 ], [ -105.245450877573788, 20.681822954755333 ], [ -105.245450877573788, 20.681283965584861 ], [ -105.245181382988548, 20.681283965584861 ], [ -105.245181382988548, 20.680205987243919 ], [ -105.245450877573788, 20.680205987243919 ], [ -105.245450877573788, 20.679397503488211 ], [ -105.245720372159028, 20.679397503488211 ], [ -105.245720372159028, 20.678858514317739 ], [ -105.245989866744267, 20.678858514317739 ], [ -105.245989866744267, 20.678589019732502 ], [ -105.246528855914733, 20.678589019732502 ], [ -105.246528855914733, 20.678858514317739 ], [ -105.247606834255677, 20.678858514317739 ], [ -105.247606834255677, 20.678589019732502 ], [ -105.247876328840917, 20.678589019732502 ], [ -105.247876328840917, 20.678858514317739 ], [ -105.248145823426142, 20.678858514317739 ], [ -105.248145823426142, 20.677241546806325 ], [ -105.248415318011382, 20.677241546806325 ], [ -105.248415318011382, 20.677780535976794 ], [ -105.248684812596622, 20.677780535976794 ], [ -105.248684812596622, 20.678319525147266 ], [ -105.249493296352327, 20.678319525147266 ], [ -105.249493296352327, 20.679397503488211 ], [ -105.249762790937567, 20.679397503488211 ], [ -105.249762790937567, 20.680205987243919 ], [ -105.249223801767087, 20.680205987243919 ], [ -105.249223801767087, 20.679936492658683 ], [ -105.248954307181862, 20.679936492658683 ], [ -105.248954307181862, 20.679666998073447 ], [ -105.248684812596622, 20.679666998073447 ], [ -105.248684812596622, 20.679397503488211 ], [ -105.248415318011382, 20.679397503488211 ], [ -105.248415318011382, 20.679936492658683 ], [ -105.248145823426142, 20.679936492658683 ], [ -105.248145823426142, 20.680205987243919 ], [ -105.248415318011382, 20.680205987243919 ], [ -105.248415318011382, 20.680744976414388 ], [ -105.248684812596622, 20.680744976414388 ], [ -105.248684812596622, 20.681283965584861 ], [ -105.248415318011382, 20.681283965584861 ], [ -105.248415318011382, 20.681014470999624 ], [ -105.247606834255677, 20.681014470999624 ], [ -105.247606834255677, 20.680205987243919 ], [ -105.247067845085212, 20.680205987243919 ], [ -105.247067845085212, 20.679666998073447 ], [ -105.246528855914733, 20.679666998073447 ], [ -105.246528855914733, 20.679397503488211 ], [ -105.245989866744267, 20.679397503488211 ], [ -105.245989866744267, 20.679936492658683 ], [ -105.245720372159028, 20.679936492658683 ], [ -105.245720372159028, 20.680475481829152 ], [ -105.245450877573788, 20.680475481829152 ], [ -105.245450877573788, 20.681014470999624 ], [ -105.245720372159028, 20.681014470999624 ], [ -105.245720372159028, 20.681283965584861 ], [ -105.245989866744267, 20.681283965584861 ], [ -105.245989866744267, 20.682631438511041 ], [ -105.245450877573788, 20.682631438511041 ], [ -105.245450877573788, 20.682900933096278 ] ], [ [ -105.249223801767087, 20.679397503488211 ], [ -105.249223801767087, 20.679128008902975 ], [ -105.248954307181862, 20.679128008902975 ], [ -105.248954307181862, 20.679397503488211 ], [ -105.249223801767087, 20.679397503488211 ] ] ] ] } },
{ "type": "Feature", "properties": { "ZONA_MET": "Puerto_Vallarta", "INTENSIDAD": "Intensa", "T_PROM_POL": 4.0, "T_MIN_CIUD": 2.0, "DIF_TERMIC": 1.0 }, "geometry": { "type": "MultiPolygon", "coordinates": [ [ [ [ -105.250032285522806, 20.67805003056203 ], [ -105.249762790937567, 20.67805003056203 ], [ -105.249762790937567, 20.677511041391558 ], [ -105.249493296352327, 20.677511041391558 ], [ -105.249493296352327, 20.677780535976794 ], [ -105.248954307181862, 20.677780535976794 ], [ -105.248954307181862, 20.677241546806325 ], [ -105.248415318011382, 20.677241546806325 ], [ -105.248415318011382, 20.676972052221089 ], [ -105.248954307181862, 20.676972052221089 ], [ -105.248954307181862, 20.676702557635853 ], [ -105.250840769278511, 20.676702557635853 ], [ -105.250840769278511, 20.676972052221089 ], [ -105.250571274693272, 20.676972052221089 ], [ -105.250571274693272, 20.677241546806325 ], [ -105.250032285522806, 20.677241546806325 ], [ -105.250032285522806, 20.67805003056203 ] ] ] ] } },
{ "type": "Feature", "properties": { "ZONA_MET": "Puerto_Vallarta", "INTENSIDAD": "Intensa", "T_PROM_POL": 4.0, "T_MIN_CIUD": 2.0, "DIF_TERMIC": 1.0 }, "geometry": { "type": "MultiPolygon", "coordinates": [ [ [ [ -105.226047267436812, 20.677780535976794 ], [ -105.225777772851572, 20.677780535976794 ], [ -105.225777772851572, 20.677511041391558 ], [ -105.225508278266332, 20.677511041391558 ], [ -105.225508278266332, 20.676972052221089 ], [ -105.225777772851572, 20.676972052221089 ], [ -105.225777772851572, 20.676702557635853 ], [ -105.226586256607277, 20.676702557635853 ], [ -105.226586256607277, 20.676433063050617 ], [ -105.226316762022037, 20.676433063050617 ], [ -105.226316762022037, 20.67616356846538 ], [ -105.226855751192517, 20.67616356846538 ], [ -105.226855751192517, 20.676433063050617 ], [ -105.227125245777756, 20.676433063050617 ], [ -105.227125245777756, 20.676972052221089 ], [ -105.226855751192517, 20.676972052221089 ], [ -105.226855751192517, 20.677511041391558 ], [ -105.226047267436812, 20.677511041391558 ], [ -105.226047267436812, 20.677780535976794 ] ] ] ] } },
{ "type": "Feature", "properties": { "ZONA_MET": "Puerto_Vallarta", "INTENSIDAD": "Extrema", "T_PROM_POL": 4.0, "T_MIN_CIUD": 2.0, "DIF_TERMIC": 1.0 }, "geometry": { "type": "MultiPolygon", "coordinates": [ [ [ [ -105.243294920891898, 20.689638297727171 ], [ -105.242755931721433, 20.689638297727171 ], [ -105.242755931721433, 20.688290824800994 ], [ -105.243025426306673, 20.688290824800994 ], [ -105.243025426306673, 20.68856031938623 ], [ -105.244103404647603, 20.68856031938623 ], [ -105.244103404647603, 20.688290824800994 ], [ -105.244372899232843, 20.688290824800994 ], [ -105.244372899232843, 20.688021330215758 ], [ -105.244642393818083, 20.688021330215758 ], [ -105.244642393818083, 20.687751835630522 ], [ -105.244911888403323, 20.687751835630522 ], [ -105.244911888403323, 20.687482341045285 ], [ -105.245181382988548, 20.687482341045285 ], [ -105.245181382988548, 20.687212846460049 ], [ -105.245720372159028, 20.687212846460049 ], [ -105.245720372159028, 20.686943351874813 ], [ -105.245989866744267, 20.686943351874813 ], [ -105.245989866744267, 20.686673857289577 ], [ -105.246259361329493, 20.686673857289577 ], [ -105.246259361329493, 20.686404362704344 ], [ -105.246798350499972, 20.686404362704344 ], [ -105.246798350499972, 20.685865373533872 ], [ -105.247067845085212, 20.685865373533872 ], [ -105.247067845085212, 20.685595878948636 ], [ -105.247606834255677, 20.685595878948636 ], [ -105.247606834255677, 20.6853263843634 ], [ -105.247876328840917, 20.6853263843634 ], [ -105.247876328840917, 20.685056889778163 ], [ -105.248145823426142, 20.685056889778163 ], [ -105.248145823426142, 20.684787395192927 ], [ -105.246528855914733, 20.684787395192927 ], [ -105.246528855914733, 20.685056889778163 ], [ -105.245989866744267, 20.685056889778163 ], [ -105.245989866744267, 20.684248406022455 ], [ -105.246259361329493, 20.684248406022455 ], [ -105.246259361329493, 20.683709416851983 ], [ -105.245989866744267, 20.683709416851983 ], [ -105.245989866744267, 20.683170427681514 ], [ -105.245720372159028, 20.683170427681514 ], [ -105.245720372159028, 20.682631438511041 ], [ -105.245989866744267, 20.682631438511041 ], [ -105.245989866744267, 20.681283965584861 ], [ -105.245720372159028, 20.681283965584861 ], [ -105.245720372159028, 20.681014470999624 ], [ -105.245450877573788, 20.681014470999624 ], [ -105.245450877573788, 20.680475481829152 ], [ -105.245720372159028, 20.680475481829152 ], [ -105.245720372159028, 20.679936492658683 ], [ -105.245989866744267, 20.679936492658683 ], [ -105.245989866744267, 20.679397503488211 ], [ -105.246528855914733, 20.679397503488211 ], [ -105.246528855914733, 20.679666998073447 ], [ -105.247067845085212, 20.679666998073447 ], [ -105.247067845085212, 20.680205987243919 ], [ -105.247606834255677, 20.680205987243919 ], [ -105.247606834255677, 20.681014470999624 ], [ -105.248415318011382, 20.681014470999624 ], [ -105.248415318011382, 20.681283965584861 ], [ -105.248684812596622, 20.681283965584861 ], [ -105.248684812596622, 20.681014470999624 ], [ -105.248954307181862, 20.681014470999624 ], [ -105.248954307181862, 20.681283965584861 ], [ -105.249223801767087, 20.681283965584861 ], [ -105.249223801767087, 20.681553460170097 ], [ -105.249493296352327, 20.681553460170097 ], [ -105.249493296352327, 20.681283965584861 ], [ -105.249762790937567, 20.681283965584861 ], [ -105.249762790937567, 20.680475481829152 ], [ -105.250032285522806, 20.680475481829152 ], [ -105.250032285522806, 20.681014470999624 ], [ -105.250301780108032, 20.681014470999624 ], [ -105.250301780108032, 20.680744976414388 ], [ -105.250840769278511, 20.680744976414388 ], [ -105.250840769278511, 20.680475481829152 ], [ -105.251110263863737, 20.680475481829152 ], [ -105.251110263863737, 20.679936492658683 ], [ -105.251379758448977, 20.679936492658683 ], [ -105.251379758448977, 20.679666998073447 ], [ -105.251649253034216, 20.679666998073447 ], [ -105.251649253034216, 20.679397503488211 ], [ -105.251918747619456, 20.679397503488211 ], [ -105.251918747619456, 20.679128008902975 ], [ -105.251649253034216, 20.679128008902975 ], [ -105.251649253034216, 20.678858514317739 ], [ -105.251379758448977, 20.678858514317739 ], [ -105.251379758448977, 20.678589019732502 ], [ -105.249762790937567, 20.678589019732502 ], [ -105.249762790937567, 20.678858514317739 ], [ -105.249493296352327, 20.678858514317739 ], [ -105.249493296352327, 20.678319525147266 ], [ -105.249223801767087, 20.678319525147266 ], [ -105.249223801767087, 20.67805003056203 ], [ -105.250032285522806, 20.67805003056203 ], [ -105.250032285522806, 20.677241546806325 ], [ -105.250571274693272, 20.677241546806325 ], [ -105.250571274693272, 20.676972052221089 ], [ -105.250840769278511, 20.676972052221089 ], [ -105.250840769278511, 20.677241546806325 ], [ -105.251379758448977, 20.677241546806325 ], [ -105.251379758448977, 20.676972052221089 ], [ -105.251918747619456, 20.676972052221089 ], [ -105.251918747619456, 20.677241546806325 ], [ -105.252188242204682, 20.677241546806325 ], [ -105.252188242204682, 20.677511041391558 ], [ -105.251918747619456, 20.677511041391558 ], [ -105.251918747619456, 20.677780535976794 ], [ -105.251379758448977, 20.677780535976794 ], [ -105.251379758448977, 20.678319525147266 ], [ -105.251918747619456, 20.678319525147266 ], [ -105.251918747619456, 20.678858514317739 ], [ -105.252727231375161, 20.678858514317739 ], [ -105.252727231375161, 20.678589019732502 ], [ -105.252996725960401, 20.678589019732502 ], [ -105.252996725960401, 20.678319525147266 ], [ -105.253266220545626, 20.678319525147266 ], [ -105.253266220545626, 20.67805003056203 ], [ -105.253535715130866, 20.67805003056203 ], [ -105.253535715130866, 20.677780535976794 ], [ -105.254074704301331, 20.677780535976794 ], [ -105.254074704301331, 20.677511041391558 ], [ -105.254344198886571, 20.677511041391558 ], [ -105.254344198886571, 20.677241546806325 ], [ -105.254613693471811, 20.677241546806325 ], [ -105.254613693471811, 20.676972052221089 ], [ -105.25488318805705, 20.676972052221089 ], [ -105.25488318805705, 20.676702557635853 ], [ -105.255152682642276, 20.676702557635853 ], [ -105.255152682642276, 20.676433063050617 ], [ -105.255422177227516, 20.676433063050617 ], [ -105.255422177227516, 20.67616356846538 ], [ -105.255961166397995, 20.67616356846538 ], [ -105.255961166397995, 20.675894073880144 ], [ -105.25650015556846, 20.675894073880144 ], [ -105.25650015556846, 20.675355084709672 ], [ -105.2567696501537, 20.675355084709672 ], [ -105.2567696501537, 20.675085590124436 ], [ -105.257308639324165, 20.675085590124436 ], [ -105.257308639324165, 20.6748160955392 ], [ -105.257847628494645, 20.6748160955392 ], [ -105.257847628494645, 20.675085590124436 ], [ -105.257578133909405, 20.675085590124436 ], [ -105.257578133909405, 20.675355084709672 ], [ -105.257308639324165, 20.675355084709672 ], [ -105.257308639324165, 20.675624579294908 ], [ -105.257039144738926, 20.675624579294908 ], [ -105.257039144738926, 20.67616356846538 ], [ -105.2567696501537, 20.67616356846538 ], [ -105.2567696501537, 20.676702557635853 ], [ -105.25650015556846, 20.676702557635853 ], [ -105.25650015556846, 20.677241546806325 ], [ -105.257039144738926, 20.677241546806325 ], [ -105.257039144738926, 20.676972052221089 ], [ -105.257308639324165, 20.676972052221089 ], [ -105.257308639324165, 20.677241546806325 ], [ -105.257578133909405, 20.677241546806325 ], [ -105.257578133909405, 20.677511041391558 ], [ -105.257308639324165, 20.677511041391558 ], [ -105.257308639324165, 20.677780535976794 ], [ -105.257039144738926, 20.677780535976794 ], [ -105.257039144738926, 20.67805003056203 ], [ -105.25650015556846, 20.67805003056203 ], [ -105.25650015556846, 20.678319525147266 ], [ -105.256230660983221, 20.678319525147266 ], [ -105.256230660983221, 20.678589019732502 ], [ -105.255961166397995, 20.678589019732502 ], [ -105.255961166397995, 20.679128008902975 ], [ -105.255422177227516, 20.679128008902975 ], [ -105.255422177227516, 20.679397503488211 ], [ -105.255152682642276, 20.679397503488211 ], [ -105.255152682642276, 20.679666998073447 ], [ -105.25488318805705, 20.679666998073447 ], [ -105.25488318805705, 20.679936492658683 ], [ -105.254613693471811, 20.679936492658683 ], [ -105.254613693471811, 20.680205987243919 ], [ -105.254074704301331, 20.680205987243919 ], [ -105.254074704301331, 20.680475481829152 ], [ -105.253805209716106, 20.680475481829152 ], [ -105.253805209716106, 20.680744976414388 ], [ -105.253535715130866, 20.680744976414388 ], [ -105.253535715130866, 20.681014470999624 ], [ -105.253266220545626, 20.681014470999624 ], [ -105.253266220545626, 20.681283965584861 ], [ -105.252996725960401, 20.681283965584861 ], [ -105.252996725960401, 20.681014470999624 ], [ -105.252727231375161, 20.681014470999624 ], [ -105.252727231375161, 20.680744976414388 ], [ -105.252996725960401, 20.680744976414388 ], [ -105.252996725960401, 20.680205987243919 ], [ -105.252727231375161, 20.680205987243919 ], [ -105.252727231375161, 20.679936492658683 ], [ -105.251918747619456, 20.679936492658683 ], [ -105.251918747619456, 20.680205987243919 ], [ -105.251379758448977, 20.680205987243919 ], [ -105.251379758448977, 20.680744976414388 ], [ -105.251110263863737, 20.680744976414388 ], [ -105.251110263863737, 20.681014470999624 ], [ -105.250840769278511, 20.681014470999624 ], [ -105.250840769278511, 20.681283965584861 ], [ -105.251110263863737, 20.681283965584861 ], [ -105.251110263863737, 20.681553460170097 ], [ -105.252188242204682, 20.681553460170097 ], [ -105.252188242204682, 20.681283965584861 ], [ -105.252727231375161, 20.681283965584861 ], [ -105.252727231375161, 20.681822954755333 ], [ -105.252457736789921, 20.681822954755333 ], [ -105.252457736789921, 20.682092449340569 ], [ -105.251918747619456, 20.682092449340569 ], [ -105.251918747619456, 20.682361943925805 ], [ -105.251649253034216, 20.682361943925805 ], [ -105.251649253034216, 20.682631438511041 ], [ -105.251110263863737, 20.682631438511041 ], [ -105.251110263863737, 20.683170427681514 ], [ -105.250840769278511, 20.683170427681514 ], [ -105.250840769278511, 20.683439922266746 ], [ -105.250571274693272, 20.683439922266746 ], [ -105.250571274693272, 20.683170427681514 ], [ -105.250301780108032, 20.683170427681514 ], [ -105.250301780108032, 20.683709416851983 ], [ -105.250032285522806, 20.683709416851983 ], [ -105.250032285522806, 20.683978911437219 ], [ -105.249762790937567, 20.683978911437219 ], [ -105.249762790937567, 20.684248406022455 ], [ -105.249493296352327, 20.684248406022455 ], [ -105.249493296352327, 20.684517900607691 ], [ -105.249223801767087, 20.684517900607691 ], [ -105.249223801767087, 20.684787395192927 ], [ -105.248954307181862, 20.684787395192927 ], [ -105.248954307181862, 20.685056889778163 ], [ -105.248415318011382, 20.685056889778163 ], [ -105.248415318011382, 20.685595878948636 ], [ -105.247876328840917, 20.685595878948636 ], [ -105.247876328840917, 20.685865373533872 ], [ -105.247606834255677, 20.685865373533872 ], [ -105.247606834255677, 20.686404362704344 ], [ -105.247067845085212, 20.686404362704344 ], [ -105.247067845085212, 20.686673857289577 ], [ -105.246798350499972, 20.686673857289577 ], [ -105.246798350499972, 20.686943351874813 ], [ -105.246259361329493, 20.686943351874813 ], [ -105.246259361329493, 20.687482341045285 ], [ -105.245450877573788, 20.687482341045285 ], [ -105.245450877573788, 20.688290824800994 ], [ -105.244911888403323, 20.688290824800994 ], [ -105.244911888403323, 20.68856031938623 ], [ -105.244372899232843, 20.68856031938623 ], [ -105.244372899232843, 20.689099308556703 ], [ -105.244103404647603, 20.689099308556703 ], [ -105.244103404647603, 20.689368803141939 ], [ -105.243294920891898, 20.689368803141939 ], [ -105.243294920891898, 20.689638297727171 ] ], [ [ -105.247876328840917, 20.684248406022455 ], [ -105.247876328840917, 20.683978911437219 ], [ -105.248684812596622, 20.683978911437219 ], [ -105.248684812596622, 20.683709416851983 ], [ -105.249223801767087, 20.683709416851983 ], [ -105.249223801767087, 20.683439922266746 ], [ -105.250032285522806, 20.683439922266746 ], [ -105.250032285522806, 20.682900933096278 ], [ -105.250571274693272, 20.682900933096278 ], [ -105.250571274693272, 20.682631438511041 ], [ -105.250840769278511, 20.682631438511041 ], [ -105.250840769278511, 20.682361943925805 ], [ -105.251110263863737, 20.682361943925805 ], [ -105.251110263863737, 20.682092449340569 ], [ -105.250840769278511, 20.682092449340569 ], [ -105.250840769278511, 20.681553460170097 ], [ -105.250032285522806, 20.681553460170097 ], [ -105.250032285522806, 20.681822954755333 ], [ -105.249762790937567, 20.681822954755333 ], [ -105.249762790937567, 20.682092449340569 ], [ -105.249493296352327, 20.682092449340569 ], [ -105.249493296352327, 20.682361943925805 ], [ -105.249223801767087, 20.682361943925805 ], [ -105.249223801767087, 20.682631438511041 ], [ -105.248954307181862, 20.682631438511041 ], [ -105.248954307181862, 20.682900933096278 ], [ -105.248415318011382, 20.682900933096278 ], [ -105.248415318011382, 20.683439922266746 ], [ -105.247876328840917, 20.683439922266746 ], [ -105.247876328840917, 20.683709416851983 ], [ -105.247606834255677, 20.683709416851983 ], [ -105.247606834255677, 20.684248406022455 ], [ -105.247876328840917, 20.684248406022455 ] ], [ [ -105.247067845085212, 20.683709416851983 ], [ -105.247067845085212, 20.683439922266746 ], [ -105.247606834255677, 20.683439922266746 ], [ -105.247606834255677, 20.682900933096278 ], [ -105.247337339670437, 20.682900933096278 ], [ -105.247337339670437, 20.682631438511041 ], [ -105.247067845085212, 20.682631438511041 ], [ -105.247067845085212, 20.682900933096278 ], [ -105.246798350499972, 20.682900933096278 ], [ -105.246798350499972, 20.683709416851983 ], [ -105.247067845085212, 20.683709416851983 ] ], [ [ -105.248954307181862, 20.682361943925805 ], [ -105.248954307181862, 20.682092449340569 ], [ -105.248684812596622, 20.682092449340569 ], [ -105.248684812596622, 20.682361943925805 ], [ -105.248954307181862, 20.682361943925805 ] ], [ [ -105.254074704301331, 20.679936492658683 ], [ -105.254074704301331, 20.679666998073447 ], [ -105.254344198886571, 20.679666998073447 ], [ -105.254344198886571, 20.679397503488211 ], [ -105.254613693471811, 20.679397503488211 ], [ -105.254613693471811, 20.679128008902975 ], [ -105.25488318805705, 20.679128008902975 ], [ -105.25488318805705, 20.678858514317739 ], [ -105.255152682642276, 20.678858514317739 ], [ -105.255152682642276, 20.678589019732502 ], [ -105.255422177227516, 20.678589019732502 ], [ -105.255422177227516, 20.67805003056203 ], [ -105.255691671812755, 20.67805003056203 ], [ -105.255691671812755, 20.677780535976794 ], [ -105.255961166397995, 20.677780535976794 ], [ -105.255961166397995, 20.676702557635853 ], [ -105.255422177227516, 20.676702557635853 ], [ -105.255422177227516, 20.677241546806325 ], [ -105.25488318805705, 20.677241546806325 ], [ -105.25488318805705, 20.677780535976794 ], [ -105.254613693471811, 20.677780535976794 ], [ -105.254613693471811, 20.67805003056203 ], [ -105.254074704301331, 20.67805003056203 ], [ -105.254074704301331, 20.678319525147266 ], [ -105.253805209716106, 20.678319525147266 ], [ -105.253805209716106, 20.678589019732502 ], [ -105.253535715130866, 20.678589019732502 ], [ -105.253535715130866, 20.678858514317739 ], [ -105.253266220545626, 20.678858514317739 ], [ -105.253266220545626, 20.679128008902975 ], [ -105.252727231375161, 20.679128008902975 ], [ -105.252727231375161, 20.679397503488211 ], [ -105.252996725960401, 20.679397503488211 ], [ -105.252996725960401, 20.679666998073447 ], [ -105.253266220545626, 20.679666998073447 ], [ -105.253266220545626, 20.679936492658683 ], [ -105.254074704301331, 20.679936492658683 ] ], [ [ -105.255691671812755, 20.678858514317739 ], [ -105.255691671812755, 20.678589019732502 ], [ -105.255422177227516, 20.678589019732502 ], [ -105.255422177227516, 20.678858514317739 ], [ -105.255691671812755, 20.678858514317739 ] ], [ [ -105.256230660983221, 20.676702557635853 ], [ -105.256230660983221, 20.676433063050617 ], [ -105.255961166397995, 20.676433063050617 ], [ -105.255961166397995, 20.676702557635853 ], [ -105.256230660983221, 20.676702557635853 ] ] ] ] } },
{ "type": "Feature", "properties": { "ZONA_MET": "Puerto_Vallarta", "INTENSIDAD": "Intensa", "T_PROM_POL": 4.0, "T_MIN_CIUD": 2.0, "DIF_TERMIC": 1.0 }, "geometry": { "type": "MultiPolygon", "coordinates": [ [ [ [ -105.25811712307987, 20.6748160955392 ], [ -105.257308639324165, 20.6748160955392 ], [ -105.257308639324165, 20.674546600953963 ], [ -105.257578133909405, 20.674546600953963 ], [ -105.257578133909405, 20.674277106368731 ], [ -105.25811712307987, 20.674277106368731 ], [ -105.25811712307987, 20.673738117198258 ], [ -105.25838661766511, 20.673738117198258 ], [ -105.25838661766511, 20.673468622613022 ], [ -105.25865611225035, 20.673468622613022 ], [ -105.25865611225035, 20.673199128027786 ], [ -105.258925606835589, 20.673199128027786 ], [ -105.258925606835589, 20.673738117198258 ], [ -105.25865611225035, 20.673738117198258 ], [ -105.25865611225035, 20.674007611783495 ], [ -105.25838661766511, 20.674007611783495 ], [ -105.25838661766511, 20.674546600953963 ], [ -105.25811712307987, 20.674546600953963 ], [ -105.25811712307987, 20.6748160955392 ] ] ] ] } },
{ "type": "Feature", "properties": { "ZONA_MET": "Puerto_Vallarta", "INTENSIDAD": "Extrema", "T_PROM_POL": 4.0, "T_MIN_CIUD": 2.0, "DIF_TERMIC": 1.0 }, "geometry": { "type": "MultiPolygon", "coordinates": [ [ [ [ -105.259464596006055, 20.675624579294908 ], [ -105.25865611225035, 20.675624579294908 ], [ -105.25865611225035, 20.675355084709672 ], [ -105.258925606835589, 20.675355084709672 ], [ -105.258925606835589, 20.674546600953963 ], [ -105.259195101420815, 20.674546600953963 ], [ -105.259195101420815, 20.673738117198258 ], [ -105.258925606835589, 20.673738117198258 ], [ -105.258925606835589, 20.673199128027786 ], [ -105.259195101420815, 20.673199128027786 ], [ -105.259195101420815, 20.67292963344255 ], [ -105.26027307976176, 20.67292963344255 ], [ -105.26027307976176, 20.673199128027786 ], [ -105.26000358517652, 20.673199128027786 ], [ -105.26000358517652, 20.673738117198258 ], [ -105.259734090591294, 20.673738117198258 ], [ -105.259734090591294, 20.674546600953963 ], [ -105.26027307976176, 20.674546600953963 ], [ -105.26027307976176, 20.674277106368731 ], [ -105.260542574346999, 20.674277106368731 ], [ -105.260542574346999, 20.674007611783495 ], [ -105.260812068932239, 20.674007611783495 ], [ -105.260812068932239, 20.673738117198258 ], [ -105.261081563517465, 20.673738117198258 ], [ -105.261081563517465, 20.673468622613022 ], [ -105.261620552687944, 20.673468622613022 ], [ -105.261620552687944, 20.673738117198258 ], [ -105.261351058102704, 20.673738117198258 ], [ -105.261351058102704, 20.674277106368731 ], [ -105.260812068932239, 20.674277106368731 ], [ -105.260812068932239, 20.674546600953963 ], [ -105.260542574346999, 20.674546600953963 ], [ -105.260542574346999, 20.6748160955392 ], [ -105.26027307976176, 20.6748160955392 ], [ -105.26027307976176, 20.675085590124436 ], [ -105.259734090591294, 20.675085590124436 ], [ -105.259734090591294, 20.675355084709672 ], [ -105.259464596006055, 20.675355084709672 ], [ -105.259464596006055, 20.675624579294908 ] ] ] ] } },
{ "type": "Feature", "properties": { "ZONA_MET": "Puerto_Vallarta", "INTENSIDAD": "Intensa", "T_PROM_POL": 4.0, "T_MIN_CIUD": 2.0, "DIF_TERMIC": 1.0 }, "geometry": { "type": "MultiPolygon", "coordinates": [ [ [ [ -105.251110263863737, 20.673199128027786 ], [ -105.250840769278511, 20.673199128027786 ], [ -105.250840769278511, 20.672660138857314 ], [ -105.250571274693272, 20.672660138857314 ], [ -105.250571274693272, 20.672121149686841 ], [ -105.250840769278511, 20.672121149686841 ], [ -105.250840769278511, 20.671851655101605 ], [ -105.250301780108032, 20.671851655101605 ], [ -105.250301780108032, 20.671312665931136 ], [ -105.250840769278511, 20.671312665931136 ], [ -105.250840769278511, 20.671582160516369 ], [ -105.251110263863737, 20.671582160516369 ], [ -105.251110263863737, 20.671851655101605 ], [ -105.251379758448977, 20.671851655101605 ], [ -105.251379758448977, 20.672121149686841 ], [ -105.251918747619456, 20.672121149686841 ], [ -105.251918747619456, 20.67292963344255 ], [ -105.251110263863737, 20.67292963344255 ], [ -105.251110263863737, 20.673199128027786 ] ] ] ] } },
{ "type": "Feature", "properties": { "ZONA_MET": "Puerto_Vallarta", "INTENSIDAD": "Intensa", "T_PROM_POL": 4.0, "T_MIN_CIUD": 2.0, "DIF_TERMIC": 1.0 }, "geometry": { "type": "MultiPolygon", "coordinates": [ [ [ [ -105.263507014784594, 20.672390644272078 ], [ -105.262968025614128, 20.672390644272078 ], [ -105.262968025614128, 20.671851655101605 ], [ -105.263237520199354, 20.671851655101605 ], [ -105.263237520199354, 20.671582160516369 ], [ -105.263776509369833, 20.671582160516369 ], [ -105.263776509369833, 20.6710431713459 ], [ -105.264046003955059, 20.6710431713459 ], [ -105.264046003955059, 20.670773676760664 ], [ -105.264315498540299, 20.670773676760664 ], [ -105.264315498540299, 20.670234687590192 ], [ -105.264046003955059, 20.670234687590192 ], [ -105.264046003955059, 20.669965193004955 ], [ -105.263507014784594, 20.669965193004955 ], [ -105.263507014784594, 20.669695698419719 ], [ -105.264584993125538, 20.669695698419719 ], [ -105.264584993125538, 20.670504182175428 ], [ -105.264854487710778, 20.670504182175428 ], [ -105.264854487710778, 20.6710431713459 ], [ -105.264584993125538, 20.6710431713459 ], [ -105.264584993125538, 20.671582160516369 ], [ -105.264046003955059, 20.671582160516369 ], [ -105.264046003955059, 20.671851655101605 ], [ -105.263776509369833, 20.671851655101605 ], [ -105.263776509369833, 20.672121149686841 ], [ -105.263507014784594, 20.672121149686841 ], [ -105.263507014784594, 20.672390644272078 ] ] ] ] } },
{ "type": "Feature", "properties": { "ZONA_MET": "Puerto_Vallarta", "INTENSIDAD": "Intensa", "T_PROM_POL": 4.0, "T_MIN_CIUD": 2.0, "DIF_TERMIC": 1.0 }, "geometry": { "type": "MultiPolygon", "coordinates": [ [ [ [ -105.227933729533461, 20.667270247152597 ], [ -105.226855751192517, 20.667270247152597 ], [ -105.226855751192517, 20.666731257982125 ], [ -105.226316762022037, 20.666731257982125 ], [ -105.226316762022037, 20.66565327964118 ], [ -105.226855751192517, 20.66565327964118 ], [ -105.226855751192517, 20.665383785055944 ], [ -105.226586256607277, 20.665383785055944 ], [ -105.226586256607277, 20.665114290470711 ], [ -105.227125245777756, 20.665114290470711 ], [ -105.227125245777756, 20.665383785055944 ], [ -105.227394740362982, 20.665383785055944 ], [ -105.227394740362982, 20.665922774226416 ], [ -105.227664234948222, 20.665922774226416 ], [ -105.227664234948222, 20.666192268811653 ], [ -105.227394740362982, 20.666192268811653 ], [ -105.227394740362982, 20.666731257982125 ], [ -105.227933729533461, 20.666731257982125 ], [ -105.227933729533461, 20.667270247152597 ] ] ] ] } },
{ "type": "Feature", "properties": { "ZONA_MET": "Puerto_Vallarta", "INTENSIDAD": "Intensa", "T_PROM_POL": 4.0, "T_MIN_CIUD": 2.0, "DIF_TERMIC": 1.0 }, "geometry": { "type": "MultiPolygon", "coordinates": [ [ [ [ -105.204757195203172, 20.660263387936464 ], [ -105.204218206032706, 20.660263387936464 ], [ -105.204218206032706, 20.659454904180755 ], [ -105.204487700617932, 20.659454904180755 ], [ -105.204487700617932, 20.659185409595523 ], [ -105.206104668129356, 20.659185409595523 ], [ -105.206104668129356, 20.659993893351228 ], [ -105.205565678958877, 20.659993893351228 ], [ -105.205565678958877, 20.659454904180755 ], [ -105.205026689788411, 20.659454904180755 ], [ -105.205026689788411, 20.659724398765992 ], [ -105.205296184373651, 20.659724398765992 ], [ -105.205296184373651, 20.659993893351228 ], [ -105.204757195203172, 20.659993893351228 ], [ -105.204757195203172, 20.660263387936464 ] ] ] ] } },
{ "type": "Feature", "properties": { "ZONA_MET": "Puerto_Vallarta", "INTENSIDAD": "Extrema", "T_PROM_POL": 4.0, "T_MIN_CIUD": 2.0, "DIF_TERMIC": 1.0 }, "geometry": { "type": "MultiPolygon", "coordinates": [ [ [ [ -105.238174523772415, 20.656759958328397 ], [ -105.237905029187189, 20.656759958328397 ], [ -105.237905029187189, 20.656490463743161 ], [ -105.237635534601949, 20.656490463743161 ], [ -105.237635534601949, 20.65541248540222 ], [ -105.238444018357654, 20.65541248540222 ], [ -105.238444018357654, 20.656490463743161 ], [ -105.238174523772415, 20.656490463743161 ], [ -105.238174523772415, 20.656759958328397 ] ] ] ] } },
{ "type": "Feature", "properties": { "ZONA_MET": "Puerto_Vallarta", "INTENSIDAD": "Intensa", "T_PROM_POL": 4.0, "T_MIN_CIUD": 2.0, "DIF_TERMIC": 1.0 }, "geometry": { "type": "MultiPolygon", "coordinates": [ [ [ [ -105.238444018357654, 20.658376925839814 ], [ -105.238174523772415, 20.658376925839814 ], [ -105.238174523772415, 20.657568442084106 ], [ -105.238444018357654, 20.657568442084106 ], [ -105.238444018357654, 20.656759958328397 ], [ -105.238174523772415, 20.656759958328397 ], [ -105.238174523772415, 20.656490463743161 ], [ -105.238444018357654, 20.656490463743161 ], [ -105.238444018357654, 20.65541248540222 ], [ -105.237635534601949, 20.65541248540222 ], [ -105.237635534601949, 20.656220969157928 ], [ -105.237096545431484, 20.656220969157928 ], [ -105.237096545431484, 20.655681979987456 ], [ -105.23736604001671, 20.655681979987456 ], [ -105.23736604001671, 20.655142990816984 ], [ -105.237905029187189, 20.655142990816984 ], [ -105.237905029187189, 20.654873496231748 ], [ -105.238174523772415, 20.654873496231748 ], [ -105.238174523772415, 20.655142990816984 ], [ -105.238444018357654, 20.655142990816984 ], [ -105.238444018357654, 20.654873496231748 ], [ -105.238713512942894, 20.654873496231748 ], [ -105.238713512942894, 20.655142990816984 ], [ -105.239791491283839, 20.655142990816984 ], [ -105.239791491283839, 20.656490463743161 ], [ -105.239252502113359, 20.656490463743161 ], [ -105.239252502113359, 20.657029452913633 ], [ -105.238713512942894, 20.657029452913633 ], [ -105.238713512942894, 20.65729894749887 ], [ -105.238983007528134, 20.65729894749887 ], [ -105.238983007528134, 20.657837936669342 ], [ -105.238713512942894, 20.657837936669342 ], [ -105.238713512942894, 20.658107431254578 ], [ -105.238444018357654, 20.658107431254578 ], [ -105.238444018357654, 20.658376925839814 ] ], [ [ -105.239252502113359, 20.655681979987456 ], [ -105.239252502113359, 20.65541248540222 ], [ -105.238713512942894, 20.65541248540222 ], [ -105.238713512942894, 20.655681979987456 ], [ -105.239252502113359, 20.655681979987456 ] ] ] ] } },
{ "type": "Feature", "properties": { "ZONA_MET": "Puerto_Vallarta", "INTENSIDAD": "Intensa", "T_PROM_POL": 4.0, "T_MIN_CIUD": 2.0, "DIF_TERMIC": 1.0 }, "geometry": { "type": "MultiPolygon", "coordinates": [ [ [ [ -105.220118386561623, 20.656220969157928 ], [ -105.219848891976383, 20.656220969157928 ], [ -105.219848891976383, 20.655951474572692 ], [ -105.219309902805904, 20.655951474572692 ], [ -105.219309902805904, 20.655681979987456 ], [ -105.219040408220678, 20.655681979987456 ], [ -105.219040408220678, 20.65541248540222 ], [ -105.218770913635439, 20.65541248540222 ], [ -105.218770913635439, 20.654873496231748 ], [ -105.218231924464973, 20.654873496231748 ], [ -105.218231924464973, 20.654334507061275 ], [ -105.218770913635439, 20.654334507061275 ], [ -105.218770913635439, 20.654604001646511 ], [ -105.219040408220678, 20.654604001646511 ], [ -105.219040408220678, 20.654873496231748 ], [ -105.220118386561623, 20.654873496231748 ], [ -105.220118386561623, 20.656220969157928 ] ] ] ] } },
{ "type": "Feature", "properties": { "ZONA_MET": "Puerto_Vallarta", "INTENSIDAD": "Intensa", "T_PROM_POL": 4.0, "T_MIN_CIUD": 2.0, "DIF_TERMIC": 1.0 }, "geometry": { "type": "MultiPolygon", "coordinates": [ [ [ [ -105.226047267436812, 20.652987034135098 ], [ -105.225508278266332, 20.652987034135098 ], [ -105.225508278266332, 20.652448044964625 ], [ -105.225777772851572, 20.652448044964625 ], [ -105.225777772851572, 20.652178550379389 ], [ -105.225238783681093, 20.652178550379389 ], [ -105.225238783681093, 20.651909055794153 ], [ -105.225777772851572, 20.651909055794153 ], [ -105.225777772851572, 20.651100572038445 ], [ -105.225508278266332, 20.651100572038445 ], [ -105.225508278266332, 20.650831077453208 ], [ -105.226047267436812, 20.650831077453208 ], [ -105.226047267436812, 20.651639561208917 ], [ -105.226316762022037, 20.651639561208917 ], [ -105.226316762022037, 20.652448044964625 ], [ -105.226047267436812, 20.652448044964625 ], [ -105.226047267436812, 20.652987034135098 ] ] ] ] } },
{ "type": "Feature", "properties": { "ZONA_MET": "Puerto_Vallarta", "INTENSIDAD": "Intensa", "T_PROM_POL": 4.0, "T_MIN_CIUD": 2.0, "DIF_TERMIC": 1.0 }, "geometry": { "type": "MultiPolygon", "coordinates": [ [ [ [ -105.217692935294494, 20.654604001646511 ], [ -105.217423440709254, 20.654604001646511 ], [ -105.217423440709254, 20.654065012476039 ], [ -105.216884451538789, 20.654065012476039 ], [ -105.216884451538789, 20.653526023305567 ], [ -105.216614956953549, 20.653526023305567 ], [ -105.216614956953549, 20.65325652872033 ], [ -105.216345462368309, 20.65325652872033 ], [ -105.216345462368309, 20.652987034135098 ], [ -105.216075967783084, 20.652987034135098 ], [ -105.216075967783084, 20.651370066623681 ], [ -105.216884451538789, 20.651370066623681 ], [ -105.216884451538789, 20.651100572038445 ], [ -105.217692935294494, 20.651100572038445 ], [ -105.217692935294494, 20.650831077453208 ], [ -105.217962429879734, 20.650831077453208 ], [ -105.217962429879734, 20.651370066623681 ], [ -105.218501419050199, 20.651370066623681 ], [ -105.218501419050199, 20.651100572038445 ], [ -105.218231924464973, 20.651100572038445 ], [ -105.218231924464973, 20.650831077453208 ], [ -105.220118386561623, 20.650831077453208 ], [ -105.220118386561623, 20.652178550379389 ], [ -105.219848891976383, 20.652178550379389 ], [ -105.219848891976383, 20.652448044964625 ], [ -105.220118386561623, 20.652448044964625 ], [ -105.220118386561623, 20.652987034135098 ], [ -105.219040408220678, 20.652987034135098 ], [ -105.219040408220678, 20.654065012476039 ], [ -105.218231924464973, 20.654065012476039 ], [ -105.218231924464973, 20.654334507061275 ], [ -105.217692935294494, 20.654334507061275 ], [ -105.217692935294494, 20.654604001646511 ] ], [ [ -105.219040408220678, 20.652987034135098 ], [ -105.219040408220678, 20.651909055794153 ], [ -105.217962429879734, 20.651909055794153 ], [ -105.217962429879734, 20.652987034135098 ], [ -105.219040408220678, 20.652987034135098 ] ] ] ] } },
{ "type": "Feature", "properties": { "ZONA_MET": "Puerto_Vallarta", "INTENSIDAD": "Extrema", "T_PROM_POL": 4.0, "T_MIN_CIUD": 2.0, "DIF_TERMIC": 1.0 }, "geometry": { "type": "MultiPolygon", "coordinates": [ [ [ [ -105.219309902805904, 20.649214109941795 ], [ -105.218231924464973, 20.649214109941795 ], [ -105.218231924464973, 20.648675120771323 ], [ -105.217962429879734, 20.648675120771323 ], [ -105.217962429879734, 20.648405626186086 ], [ -105.217692935294494, 20.648405626186086 ], [ -105.217692935294494, 20.64813613160085 ], [ -105.217962429879734, 20.64813613160085 ], [ -105.217962429879734, 20.647327647845142 ], [ -105.218231924464973, 20.647327647845142 ], [ -105.218231924464973, 20.647058153259909 ], [ -105.218501419050199, 20.647058153259909 ], [ -105.218501419050199, 20.646519164089437 ], [ -105.219309902805904, 20.646519164089437 ], [ -105.219309902805904, 20.647058153259909 ], [ -105.219040408220678, 20.647058153259909 ], [ -105.219040408220678, 20.647327647845142 ], [ -105.219579397391144, 20.647327647845142 ], [ -105.219579397391144, 20.64813613160085 ], [ -105.219309902805904, 20.64813613160085 ], [ -105.219309902805904, 20.649214109941795 ] ] ] ] } },
{ "type": "Feature", "properties": { "ZONA_MET": "Puerto_Vallarta", "INTENSIDAD": "Extrema", "T_PROM_POL": 4.0, "T_MIN_CIUD": 2.0, "DIF_TERMIC": 1.0 }, "geometry": { "type": "MultiPolygon", "coordinates": [ [ [ [ -105.219848891976383, 20.645980174918964 ], [ -105.217962429879734, 20.645980174918964 ], [ -105.217962429879734, 20.645710680333728 ], [ -105.217423440709254, 20.645710680333728 ], [ -105.217423440709254, 20.645441185748492 ], [ -105.216884451538789, 20.645441185748492 ], [ -105.216884451538789, 20.64490219657802 ], [ -105.216345462368309, 20.64490219657802 ], [ -105.216345462368309, 20.644632701992784 ], [ -105.216884451538789, 20.644632701992784 ], [ -105.216884451538789, 20.644363207407547 ], [ -105.218231924464973, 20.644363207407547 ], [ -105.218231924464973, 20.645171691163256 ], [ -105.218501419050199, 20.645171691163256 ], [ -105.218501419050199, 20.645441185748492 ], [ -105.219579397391144, 20.645441185748492 ], [ -105.219579397391144, 20.645710680333728 ], [ -105.219848891976383, 20.645710680333728 ], [ -105.219848891976383, 20.645980174918964 ] ] ] ] } },
{ "type": "Feature", "properties": { "ZONA_MET": "Puerto_Vallarta", "INTENSIDAD": "Intensa", "T_PROM_POL": 4.0, "T_MIN_CIUD": 2.0, "DIF_TERMIC": 1.0 }, "geometry": { "type": "MultiPolygon", "coordinates": [ [ [ [ -105.219579397391144, 20.649214109941795 ], [ -105.219309902805904, 20.649214109941795 ], [ -105.219309902805904, 20.64813613160085 ], [ -105.219579397391144, 20.64813613160085 ], [ -105.219579397391144, 20.647327647845142 ], [ -105.219040408220678, 20.647327647845142 ], [ -105.219040408220678, 20.647058153259909 ], [ -105.219579397391144, 20.647058153259909 ], [ -105.219579397391144, 20.646519164089437 ], [ -105.219309902805904, 20.646519164089437 ], [ -105.219309902805904, 20.646249669504201 ], [ -105.218501419050199, 20.646249669504201 ], [ -105.218501419050199, 20.647058153259909 ], [ -105.218231924464973, 20.647058153259909 ], [ -105.218231924464973, 20.647327647845142 ], [ -105.217962429879734, 20.647327647845142 ], [ -105.217962429879734, 20.64813613160085 ], [ -105.217692935294494, 20.64813613160085 ], [ -105.217692935294494, 20.647058153259909 ], [ -105.217962429879734, 20.647058153259909 ], [ -105.217962429879734, 20.646788658674673 ], [ -105.218231924464973, 20.646788658674673 ], [ -105.218231924464973, 20.646519164089437 ], [ -105.217423440709254, 20.646519164089437 ], [ -105.217423440709254, 20.646249669504201 ], [ -105.216345462368309, 20.646249669504201 ], [ -105.216345462368309, 20.645710680333728 ], [ -105.216075967783084, 20.645710680333728 ], [ -105.216075967783084, 20.645980174918964 ], [ -105.215806473197844, 20.645980174918964 ], [ -105.215806473197844, 20.645710680333728 ], [ -105.215536978612604, 20.645710680333728 ], [ -105.215536978612604, 20.64490219657802 ], [ -105.215267484027379, 20.64490219657802 ], [ -105.215267484027379, 20.644363207407547 ], [ -105.215536978612604, 20.644363207407547 ], [ -105.215536978612604, 20.643824218237079 ], [ -105.218231924464973, 20.643824218237079 ], [ -105.218231924464973, 20.644093712822315 ], [ -105.218501419050199, 20.644093712822315 ], [ -105.218501419050199, 20.644363207407547 ], [ -105.219040408220678, 20.644363207407547 ], [ -105.219040408220678, 20.64490219657802 ], [ -105.219579397391144, 20.64490219657802 ], [ -105.219579397391144, 20.645171691163256 ], [ -105.220387881146848, 20.645171691163256 ], [ -105.220387881146848, 20.645441185748492 ], [ -105.220657375732088, 20.645441185748492 ], [ -105.220657375732088, 20.645980174918964 ], [ -105.220118386561623, 20.645980174918964 ], [ -105.220118386561623, 20.647058153259909 ], [ -105.219848891976383, 20.647058153259909 ], [ -105.219848891976383, 20.647866637015614 ], [ -105.220118386561623, 20.647866637015614 ], [ -105.220118386561623, 20.64813613160085 ], [ -105.219848891976383, 20.64813613160085 ], [ -105.219848891976383, 20.648944615356559 ], [ -105.219579397391144, 20.648944615356559 ], [ -105.219579397391144, 20.649214109941795 ] ], [ [ -105.219848891976383, 20.645980174918964 ], [ -105.219848891976383, 20.645710680333728 ], [ -105.219579397391144, 20.645710680333728 ], [ -105.219579397391144, 20.645441185748492 ], [ -105.218501419050199, 20.645441185748492 ], [ -105.218501419050199, 20.645171691163256 ], [ -105.218231924464973, 20.645171691163256 ], [ -105.218231924464973, 20.644363207407547 ], [ -105.216884451538789, 20.644363207407547 ], [ -105.216884451538789, 20.644632701992784 ], [ -105.216345462368309, 20.644632701992784 ], [ -105.216345462368309, 20.64490219657802 ], [ -105.216884451538789, 20.64490219657802 ], [ -105.216884451538789, 20.645441185748492 ], [ -105.217423440709254, 20.645441185748492 ], [ -105.217423440709254, 20.645710680333728 ], [ -105.217962429879734, 20.645710680333728 ], [ -105.217962429879734, 20.645980174918964 ], [ -105.219848891976383, 20.645980174918964 ] ], [ [ -105.216884451538789, 20.645710680333728 ], [ -105.216884451538789, 20.645441185748492 ], [ -105.216614956953549, 20.645441185748492 ], [ -105.216614956953549, 20.645710680333728 ], [ -105.216884451538789, 20.645710680333728 ] ], [ [ -105.216345462368309, 20.645171691163256 ], [ -105.216345462368309, 20.64490219657802 ], [ -105.216075967783084, 20.64490219657802 ], [ -105.216075967783084, 20.645171691163256 ], [ -105.216345462368309, 20.645171691163256 ] ] ] ] } },
{ "type": "Feature", "properties": { "ZONA_MET": "Puerto_Vallarta", "INTENSIDAD": "Extrema", "T_PROM_POL": 4.0, "T_MIN_CIUD": 2.0, "DIF_TERMIC": 1.0 }, "geometry": { "type": "MultiPolygon", "coordinates": [ [ [ [ -105.233054126652945, 20.642746239896134 ], [ -105.232515137482466, 20.642746239896134 ], [ -105.232515137482466, 20.642476745310898 ], [ -105.231976148312, 20.642476745310898 ], [ -105.231976148312, 20.64112927238472 ], [ -105.232515137482466, 20.64112927238472 ], [ -105.232515137482466, 20.640859777799484 ], [ -105.233323621238171, 20.640859777799484 ], [ -105.233323621238171, 20.642207250725662 ], [ -105.233054126652945, 20.642207250725662 ], [ -105.233054126652945, 20.642746239896134 ] ], [ [ -105.232515137482466, 20.642207250725662 ], [ -105.232515137482466, 20.641937756140425 ], [ -105.232245642897226, 20.641937756140425 ], [ -105.232245642897226, 20.642207250725662 ], [ -105.232515137482466, 20.642207250725662 ] ] ] ] } },
{ "type": "Feature", "properties": { "ZONA_MET": "Puerto_Vallarta", "INTENSIDAD": "Intensa", "T_PROM_POL": 4.0, "T_MIN_CIUD": 2.0, "DIF_TERMIC": 1.0 }, "geometry": { "type": "MultiPolygon", "coordinates": [ [ [ [ -105.23359311582341, 20.641668261555189 ], [ -105.233323621238171, 20.641668261555189 ], [ -105.233323621238171, 20.640859777799484 ], [ -105.232515137482466, 20.640859777799484 ], [ -105.232515137482466, 20.64112927238472 ], [ -105.232245642897226, 20.64112927238472 ], [ -105.232245642897226, 20.640590283214248 ], [ -105.232515137482466, 20.640590283214248 ], [ -105.232515137482466, 20.640320788629012 ], [ -105.23359311582341, 20.640320788629012 ], [ -105.23359311582341, 20.641668261555189 ] ] ] ] } }
]
}
