{
"type": "FeatureCollection",
"name": "UHI_Tapachula",
"crs": { "type": "name", "properties": { "name": "urn:ogc:def:crs:OGC:1.3:CRS84" } },
"features": [
{ "type": "Feature", "properties": { "ZONA_MET": "Tapachula", "INTENSIDAD": "Intensa", "T_PROM_POL": 4.0, "T_MIN_CIUD": 3.0, "DIF_TERMIC": 1.0 }, "geometry": { "type": "MultiPolygon", "coordinates": [ [ [ [ -92.255003385449811, 14.938893343379233 ], [ -92.254733890864571, 14.938893343379233 ], [ -92.254733890864571, 14.937006881282581 ], [ -92.255272880035037, 14.937006881282581 ], [ -92.255272880035037, 14.937276375867818 ], [ -92.255542374620276, 14.937276375867818 ], [ -92.255542374620276, 14.937815365038288 ], [ -92.255272880035037, 14.937815365038288 ], [ -92.255272880035037, 14.938084859623524 ], [ -92.255542374620276, 14.938084859623524 ], [ -92.255542374620276, 14.93835435420876 ], [ -92.255272880035037, 14.93835435420876 ], [ -92.255272880035037, 14.938623848793997 ], [ -92.255003385449811, 14.938623848793997 ], [ -92.255003385449811, 14.938893343379233 ] ] ] ] } },
{ "type": "Feature", "properties": { "ZONA_MET": "Tapachula", "INTENSIDAD": "Intensa", "T_PROM_POL": 4.0, "T_MIN_CIUD": 3.0, "DIF_TERMIC": 1.0 }, "geometry": { "type": "MultiPolygon", "coordinates": [ [ [ [ -92.363879197885097, 14.922454173679846 ], [ -92.362801219544153, 14.922454173679846 ], [ -92.362801219544153, 14.92218467909461 ], [ -92.362531724958913, 14.92218467909461 ], [ -92.362531724958913, 14.921376195338901 ], [ -92.362801219544153, 14.921376195338901 ], [ -92.362801219544153, 14.921106700753665 ], [ -92.363070714129393, 14.921106700753665 ], [ -92.363070714129393, 14.921915184509373 ], [ -92.363340208714618, 14.921915184509373 ], [ -92.363340208714618, 14.921645689924137 ], [ -92.363609703299858, 14.921645689924137 ], [ -92.363609703299858, 14.921915184509373 ], [ -92.363879197885097, 14.921915184509373 ], [ -92.363879197885097, 14.922454173679846 ] ] ] ] } },
{ "type": "Feature", "properties": { "ZONA_MET": "Tapachula", "INTENSIDAD": "Intensa", "T_PROM_POL": 4.0, "T_MIN_CIUD": 3.0, "DIF_TERMIC": 1.0 }, "geometry": { "type": "MultiPolygon", "coordinates": [ [ [ [ -92.379509883828774, 14.921645689924137 ], [ -92.37843190548783, 14.921645689924137 ], [ -92.37843190548783, 14.921376195338901 ], [ -92.37816241090259, 14.921376195338901 ], [ -92.37816241090259, 14.92083720616843 ], [ -92.37843190548783, 14.92083720616843 ], [ -92.37843190548783, 14.920567711583194 ], [ -92.379509883828774, 14.920567711583194 ], [ -92.379509883828774, 14.92083720616843 ], [ -92.378970894658295, 14.92083720616843 ], [ -92.378970894658295, 14.921106700753665 ], [ -92.379509883828774, 14.921106700753665 ], [ -92.379509883828774, 14.921645689924137 ] ] ] ] } },
{ "type": "Feature", "properties": { "ZONA_MET": "Tapachula", "INTENSIDAD": "Intensa", "T_PROM_POL": 4.0, "T_MIN_CIUD": 3.0, "DIF_TERMIC": 1.0 }, "geometry": { "type": "MultiPolygon", "coordinates": [ [ [ [ -92.377084432561645, 14.921645689924137 ], [ -92.37681493797642, 14.921645689924137 ], [ -92.37681493797642, 14.921376195338901 ], [ -92.37654544339118, 14.921376195338901 ], [ -92.37654544339118, 14.921106700753665 ], [ -92.37681493797642, 14.921106700753665 ], [ -92.37681493797642, 14.920567711583194 ], [ -92.37654544339118, 14.920567711583194 ], [ -92.37654544339118, 14.920028722412722 ], [ -92.37627594880594, 14.920028722412722 ], [ -92.37627594880594, 14.919759227827486 ], [ -92.37654544339118, 14.919759227827486 ], [ -92.37654544339118, 14.919489733242251 ], [ -92.37681493797642, 14.919489733242251 ], [ -92.37681493797642, 14.919759227827486 ], [ -92.377084432561645, 14.919759227827486 ], [ -92.377084432561645, 14.920298216997958 ], [ -92.377353927146885, 14.920298216997958 ], [ -92.377353927146885, 14.920567711583194 ], [ -92.377892916317364, 14.920567711583194 ], [ -92.377892916317364, 14.92083720616843 ], [ -92.377353927146885, 14.92083720616843 ], [ -92.377353927146885, 14.921376195338901 ], [ -92.377084432561645, 14.921376195338901 ], [ -92.377084432561645, 14.921645689924137 ] ] ] ] } },
{ "type": "Feature", "properties": { "ZONA_MET": "Tapachula", "INTENSIDAD": "Intensa", "T_PROM_POL": 4.0, "T_MIN_CIUD": 3.0, "DIF_TERMIC": 1.0 }, "geometry": { "type": "MultiPolygon", "coordinates": [ [ [ [ -92.262010244665944, 14.920298216997958 ], [ -92.261471255495465, 14.920298216997958 ], [ -92.261471255495465, 14.920028722412722 ], [ -92.260932266325, 14.920028722412722 ], [ -92.260932266325, 14.920298216997958 ], [ -92.26039327715452, 14.920298216997958 ], [ -92.26039327715452, 14.920028722412722 ], [ -92.260123782569295, 14.920028722412722 ], [ -92.260123782569295, 14.919759227827486 ], [ -92.260932266325, 14.919759227827486 ], [ -92.260932266325, 14.919489733242251 ], [ -92.261471255495465, 14.919489733242251 ], [ -92.261471255495465, 14.919220238657015 ], [ -92.260932266325, 14.919220238657015 ], [ -92.260932266325, 14.918950744071779 ], [ -92.262010244665944, 14.918950744071779 ], [ -92.262010244665944, 14.918681249486543 ], [ -92.26254923383641, 14.918681249486543 ], [ -92.26254923383641, 14.919489733242251 ], [ -92.26227973925117, 14.919489733242251 ], [ -92.26227973925117, 14.920028722412722 ], [ -92.262010244665944, 14.920028722412722 ], [ -92.262010244665944, 14.920298216997958 ] ] ] ] } },
{ "type": "Feature", "properties": { "ZONA_MET": "Tapachula", "INTENSIDAD": "Intensa", "T_PROM_POL": 4.0, "T_MIN_CIUD": 3.0, "DIF_TERMIC": 1.0 }, "geometry": { "type": "MultiPolygon", "coordinates": [ [ [ [ -92.270364576808248, 14.918950744071779 ], [ -92.269825587637783, 14.918950744071779 ], [ -92.269825587637783, 14.91814226031607 ], [ -92.269556093052543, 14.91814226031607 ], [ -92.269556093052543, 14.9176032711456 ], [ -92.269825587637783, 14.9176032711456 ], [ -92.269825587637783, 14.916794787389891 ], [ -92.270095082223023, 14.916794787389891 ], [ -92.270095082223023, 14.916255798219421 ], [ -92.270364576808248, 14.916255798219421 ], [ -92.270364576808248, 14.915986303634185 ], [ -92.270903565978728, 14.915986303634185 ], [ -92.270903565978728, 14.916255798219421 ], [ -92.271712049734433, 14.916255798219421 ], [ -92.271712049734433, 14.916794787389891 ], [ -92.271442555149193, 14.916794787389891 ], [ -92.271442555149193, 14.917333776560364 ], [ -92.271173060563953, 14.917333776560364 ], [ -92.271173060563953, 14.9176032711456 ], [ -92.270903565978728, 14.9176032711456 ], [ -92.270903565978728, 14.918411754901307 ], [ -92.270364576808248, 14.918411754901307 ], [ -92.270364576808248, 14.918950744071779 ] ], [ [ -92.270903565978728, 14.917333776560364 ], [ -92.270903565978728, 14.917064281975128 ], [ -92.271173060563953, 14.917064281975128 ], [ -92.271173060563953, 14.916794787389891 ], [ -92.270903565978728, 14.916794787389891 ], [ -92.270903565978728, 14.916525292804657 ], [ -92.270364576808248, 14.916525292804657 ], [ -92.270364576808248, 14.917333776560364 ], [ -92.270903565978728, 14.917333776560364 ] ] ] ] } },
{ "type": "Feature", "properties": { "ZONA_MET": "Tapachula", "INTENSIDAD": "Intensa", "T_PROM_POL": 4.0, "T_MIN_CIUD": 3.0, "DIF_TERMIC": 1.0 }, "geometry": { "type": "MultiPolygon", "coordinates": [ [ [ [ -92.266861147200188, 14.918950744071779 ], [ -92.266322158029709, 14.918950744071779 ], [ -92.266322158029709, 14.918681249486543 ], [ -92.265783168859244, 14.918681249486543 ], [ -92.265783168859244, 14.918411754901307 ], [ -92.266052663444484, 14.918411754901307 ], [ -92.266052663444484, 14.91814226031607 ], [ -92.265783168859244, 14.91814226031607 ], [ -92.265783168859244, 14.917872765730836 ], [ -92.265244179688764, 14.917872765730836 ], [ -92.265244179688764, 14.91814226031607 ], [ -92.264705190518299, 14.91814226031607 ], [ -92.264705190518299, 14.917872765730836 ], [ -92.263896706762594, 14.917872765730836 ], [ -92.263896706762594, 14.917333776560364 ], [ -92.264166201347834, 14.917333776560364 ], [ -92.264166201347834, 14.917064281975128 ], [ -92.263896706762594, 14.917064281975128 ], [ -92.263896706762594, 14.916525292804657 ], [ -92.264435695933059, 14.916525292804657 ], [ -92.264435695933059, 14.916794787389891 ], [ -92.264974685103539, 14.916794787389891 ], [ -92.264974685103539, 14.916525292804657 ], [ -92.265244179688764, 14.916525292804657 ], [ -92.265244179688764, 14.915986303634185 ], [ -92.265783168859244, 14.915986303634185 ], [ -92.265783168859244, 14.915716809048948 ], [ -92.266322158029709, 14.915716809048948 ], [ -92.266322158029709, 14.915986303634185 ], [ -92.267400136370654, 14.915986303634185 ], [ -92.267400136370654, 14.916794787389891 ], [ -92.267130641785428, 14.916794787389891 ], [ -92.267130641785428, 14.917064281975128 ], [ -92.267669630955893, 14.917064281975128 ], [ -92.267669630955893, 14.916794787389891 ], [ -92.267939125541133, 14.916794787389891 ], [ -92.267939125541133, 14.9176032711456 ], [ -92.267669630955893, 14.9176032711456 ], [ -92.267669630955893, 14.917872765730836 ], [ -92.267400136370654, 14.917872765730836 ], [ -92.267400136370654, 14.918681249486543 ], [ -92.266861147200188, 14.918681249486543 ], [ -92.266861147200188, 14.918950744071779 ] ], [ [ -92.266591652614949, 14.91814226031607 ], [ -92.266591652614949, 14.917872765730836 ], [ -92.266052663444484, 14.917872765730836 ], [ -92.266052663444484, 14.91814226031607 ], [ -92.266591652614949, 14.91814226031607 ] ], [ [ -92.267130641785428, 14.917872765730836 ], [ -92.267130641785428, 14.9176032711456 ], [ -92.266591652614949, 14.9176032711456 ], [ -92.266591652614949, 14.917872765730836 ], [ -92.267130641785428, 14.917872765730836 ] ], [ [ -92.267400136370654, 14.9176032711456 ], [ -92.267400136370654, 14.917333776560364 ], [ -92.267130641785428, 14.917333776560364 ], [ -92.267130641785428, 14.9176032711456 ], [ -92.267400136370654, 14.9176032711456 ] ], [ [ -92.266322158029709, 14.917064281975128 ], [ -92.266322158029709, 14.916794787389891 ], [ -92.266052663444484, 14.916794787389891 ], [ -92.266052663444484, 14.917064281975128 ], [ -92.266322158029709, 14.917064281975128 ] ] ] ] } },
{ "type": "Feature", "properties": { "ZONA_MET": "Tapachula", "INTENSIDAD": "Intensa", "T_PROM_POL": 4.0, "T_MIN_CIUD": 3.0, "DIF_TERMIC": 1.0 }, "geometry": { "type": "MultiPolygon", "coordinates": [ [ [ [ -92.26227973925117, 14.917333776560364 ], [ -92.261740750080705, 14.917333776560364 ], [ -92.261740750080705, 14.917064281975128 ], [ -92.262010244665944, 14.917064281975128 ], [ -92.262010244665944, 14.916525292804657 ], [ -92.261471255495465, 14.916525292804657 ], [ -92.261471255495465, 14.916794787389891 ], [ -92.261201760910239, 14.916794787389891 ], [ -92.261201760910239, 14.916525292804657 ], [ -92.260932266325, 14.916525292804657 ], [ -92.260932266325, 14.916255798219421 ], [ -92.26066277173976, 14.916255798219421 ], [ -92.26066277173976, 14.915986303634185 ], [ -92.259854287984055, 14.915986303634185 ], [ -92.259854287984055, 14.915716809048948 ], [ -92.259315298813576, 14.915716809048948 ], [ -92.259315298813576, 14.915447314463712 ], [ -92.25904580422835, 14.915447314463712 ], [ -92.25904580422835, 14.914908325293242 ], [ -92.259315298813576, 14.914908325293242 ], [ -92.259315298813576, 14.915177819878476 ], [ -92.259584793398815, 14.915177819878476 ], [ -92.259584793398815, 14.914638830708006 ], [ -92.26039327715452, 14.914638830708006 ], [ -92.26039327715452, 14.914908325293242 ], [ -92.260932266325, 14.914908325293242 ], [ -92.260932266325, 14.914099841537533 ], [ -92.261201760910239, 14.914099841537533 ], [ -92.261201760910239, 14.913830346952297 ], [ -92.261740750080705, 14.913830346952297 ], [ -92.261740750080705, 14.914099841537533 ], [ -92.262010244665944, 14.914099841537533 ], [ -92.262010244665944, 14.914369336122769 ], [ -92.26227973925117, 14.914369336122769 ], [ -92.26227973925117, 14.915177819878476 ], [ -92.26254923383641, 14.915177819878476 ], [ -92.26254923383641, 14.916255798219421 ], [ -92.26227973925117, 14.916255798219421 ], [ -92.26227973925117, 14.916525292804657 ], [ -92.26254923383641, 14.916525292804657 ], [ -92.26254923383641, 14.916794787389891 ], [ -92.26227973925117, 14.916794787389891 ], [ -92.26227973925117, 14.917333776560364 ] ], [ [ -92.26227973925117, 14.915716809048948 ], [ -92.26227973925117, 14.915447314463712 ], [ -92.262010244665944, 14.915447314463712 ], [ -92.262010244665944, 14.915716809048948 ], [ -92.26227973925117, 14.915716809048948 ] ], [ [ -92.261201760910239, 14.915177819878476 ], [ -92.261201760910239, 14.914908325293242 ], [ -92.260932266325, 14.914908325293242 ], [ -92.260932266325, 14.915177819878476 ], [ -92.261201760910239, 14.915177819878476 ] ] ] ] } },
{ "type": "Feature", "properties": { "ZONA_MET": "Tapachula", "INTENSIDAD": "Intensa", "T_PROM_POL": 4.0, "T_MIN_CIUD": 3.0, "DIF_TERMIC": 1.0 }, "geometry": { "type": "MultiPolygon", "coordinates": [ [ [ [ -92.25877630964311, 14.913291357781826 ], [ -92.257698331302166, 14.913291357781826 ], [ -92.257698331302166, 14.91302186319659 ], [ -92.257428836716926, 14.91302186319659 ], [ -92.257428836716926, 14.912752368611354 ], [ -92.257698331302166, 14.912752368611354 ], [ -92.257698331302166, 14.912213379440882 ], [ -92.257967825887405, 14.912213379440882 ], [ -92.257967825887405, 14.911674390270411 ], [ -92.258506815057871, 14.911674390270411 ], [ -92.258506815057871, 14.911404895685175 ], [ -92.25904580422835, 14.911404895685175 ], [ -92.25904580422835, 14.911943884855647 ], [ -92.258237320472631, 14.911943884855647 ], [ -92.258237320472631, 14.912482874026118 ], [ -92.25904580422835, 14.912482874026118 ], [ -92.25904580422835, 14.912752368611354 ], [ -92.25877630964311, 14.912752368611354 ], [ -92.25877630964311, 14.913291357781826 ] ] ] ] } },
{ "type": "Feature", "properties": { "ZONA_MET": "Tapachula", "INTENSIDAD": "Intensa", "T_PROM_POL": 4.0, "T_MIN_CIUD": 3.0, "DIF_TERMIC": 1.0 }, "geometry": { "type": "MultiPolygon", "coordinates": [ [ [ [ -92.253116923353161, 14.912752368611354 ], [ -92.252847428767922, 14.912752368611354 ], [ -92.252847428767922, 14.912213379440882 ], [ -92.252577934182682, 14.912213379440882 ], [ -92.252577934182682, 14.911943884855647 ], [ -92.252308439597442, 14.911943884855647 ], [ -92.252308439597442, 14.912213379440882 ], [ -92.252038945012217, 14.912213379440882 ], [ -92.252038945012217, 14.911943884855647 ], [ -92.251769450426977, 14.911943884855647 ], [ -92.251769450426977, 14.911674390270411 ], [ -92.252038945012217, 14.911674390270411 ], [ -92.252038945012217, 14.911404895685175 ], [ -92.252308439597442, 14.911404895685175 ], [ -92.252308439597442, 14.911135401099939 ], [ -92.252577934182682, 14.911135401099939 ], [ -92.252577934182682, 14.910865906514703 ], [ -92.252847428767922, 14.910865906514703 ], [ -92.252847428767922, 14.911943884855647 ], [ -92.253116923353161, 14.911943884855647 ], [ -92.253116923353161, 14.912752368611354 ] ] ] ] } },
{ "type": "Feature", "properties": { "ZONA_MET": "Tapachula", "INTENSIDAD": "Intensa", "T_PROM_POL": 4.0, "T_MIN_CIUD": 3.0, "DIF_TERMIC": 1.0 }, "geometry": { "type": "MultiPolygon", "coordinates": [ [ [ [ -92.290037681530464, 14.906553993150929 ], [ -92.288690208604294, 14.906553993150929 ], [ -92.288690208604294, 14.906284498565693 ], [ -92.288151219433814, 14.906284498565693 ], [ -92.288151219433814, 14.906015003980457 ], [ -92.290037681530464, 14.906015003980457 ], [ -92.290037681530464, 14.906553993150929 ] ] ] ] } },
{ "type": "Feature", "properties": { "ZONA_MET": "Tapachula", "INTENSIDAD": "Intensa", "T_PROM_POL": 4.0, "T_MIN_CIUD": 3.0, "DIF_TERMIC": 1.0 }, "geometry": { "type": "MultiPolygon", "coordinates": [ [ [ [ -92.263357717592115, 14.912213379440882 ], [ -92.263088223006889, 14.912213379440882 ], [ -92.263088223006889, 14.911674390270411 ], [ -92.262818728421649, 14.911674390270411 ], [ -92.262818728421649, 14.911404895685175 ], [ -92.26227973925117, 14.911404895685175 ], [ -92.26227973925117, 14.911135401099939 ], [ -92.262818728421649, 14.911135401099939 ], [ -92.262818728421649, 14.910865906514703 ], [ -92.263088223006889, 14.910865906514703 ], [ -92.263088223006889, 14.910057422758996 ], [ -92.262818728421649, 14.910057422758996 ], [ -92.262818728421649, 14.90978792817376 ], [ -92.26254923383641, 14.90978792817376 ], [ -92.26254923383641, 14.910057422758996 ], [ -92.260932266325, 14.910057422758996 ], [ -92.260932266325, 14.910326917344232 ], [ -92.26066277173976, 14.910326917344232 ], [ -92.26066277173976, 14.910596411929466 ], [ -92.26039327715452, 14.910596411929466 ], [ -92.26039327715452, 14.911135401099939 ], [ -92.260123782569295, 14.911135401099939 ], [ -92.260123782569295, 14.90978792817376 ], [ -92.26039327715452, 14.90978792817376 ], [ -92.26039327715452, 14.909518433588524 ], [ -92.26066277173976, 14.909518433588524 ], [ -92.26066277173976, 14.90978792817376 ], [ -92.260932266325, 14.90978792817376 ], [ -92.260932266325, 14.909518433588524 ], [ -92.261201760910239, 14.909518433588524 ], [ -92.261201760910239, 14.908979444418051 ], [ -92.262010244665944, 14.908979444418051 ], [ -92.262010244665944, 14.909518433588524 ], [ -92.26227973925117, 14.909518433588524 ], [ -92.26227973925117, 14.908979444418051 ], [ -92.263088223006889, 14.908979444418051 ], [ -92.263088223006889, 14.909248939003287 ], [ -92.263357717592115, 14.909248939003287 ], [ -92.263357717592115, 14.909518433588524 ], [ -92.263627212177354, 14.909518433588524 ], [ -92.263627212177354, 14.907901466077108 ], [ -92.263896706762594, 14.907901466077108 ], [ -92.263896706762594, 14.907631971491872 ], [ -92.263627212177354, 14.907631971491872 ], [ -92.263627212177354, 14.907362476906638 ], [ -92.263896706762594, 14.907362476906638 ], [ -92.263896706762594, 14.907092982321402 ], [ -92.263627212177354, 14.907092982321402 ], [ -92.263627212177354, 14.906823487736165 ], [ -92.263088223006889, 14.906823487736165 ], [ -92.263088223006889, 14.906553993150929 ], [ -92.262818728421649, 14.906553993150929 ], [ -92.262818728421649, 14.906284498565693 ], [ -92.263357717592115, 14.906284498565693 ], [ -92.263357717592115, 14.905745509395222 ], [ -92.262818728421649, 14.905745509395222 ], [ -92.262818728421649, 14.905476014809986 ], [ -92.26254923383641, 14.905476014809986 ], [ -92.26254923383641, 14.904937025639514 ], [ -92.263088223006889, 14.904937025639514 ], [ -92.263088223006889, 14.904667531054278 ], [ -92.263357717592115, 14.904667531054278 ], [ -92.263357717592115, 14.90520652022475 ], [ -92.263896706762594, 14.90520652022475 ], [ -92.263896706762594, 14.904937025639514 ], [ -92.264435695933059, 14.904937025639514 ], [ -92.264435695933059, 14.905476014809986 ], [ -92.264705190518299, 14.905476014809986 ], [ -92.264705190518299, 14.906015003980457 ], [ -92.263896706762594, 14.906015003980457 ], [ -92.263896706762594, 14.906553993150929 ], [ -92.264166201347834, 14.906553993150929 ], [ -92.264166201347834, 14.906284498565693 ], [ -92.264974685103539, 14.906284498565693 ], [ -92.264974685103539, 14.906553993150929 ], [ -92.264705190518299, 14.906553993150929 ], [ -92.264705190518299, 14.906823487736165 ], [ -92.265244179688764, 14.906823487736165 ], [ -92.265244179688764, 14.907362476906638 ], [ -92.265513674274004, 14.907362476906638 ], [ -92.265513674274004, 14.907092982321402 ], [ -92.266052663444484, 14.907092982321402 ], [ -92.266052663444484, 14.907631971491872 ], [ -92.266322158029709, 14.907631971491872 ], [ -92.266322158029709, 14.907901466077108 ], [ -92.266861147200188, 14.907901466077108 ], [ -92.266861147200188, 14.908979444418051 ], [ -92.266322158029709, 14.908979444418051 ], [ -92.266322158029709, 14.909518433588524 ], [ -92.265783168859244, 14.909518433588524 ], [ -92.265783168859244, 14.910326917344232 ], [ -92.266052663444484, 14.910326917344232 ], [ -92.266052663444484, 14.910865906514703 ], [ -92.266591652614949, 14.910865906514703 ], [ -92.266591652614949, 14.911404895685175 ], [ -92.265783168859244, 14.911404895685175 ], [ -92.265783168859244, 14.911674390270411 ], [ -92.264705190518299, 14.911674390270411 ], [ -92.264705190518299, 14.911404895685175 ], [ -92.264166201347834, 14.911404895685175 ], [ -92.264166201347834, 14.911135401099939 ], [ -92.264435695933059, 14.911135401099939 ], [ -92.264435695933059, 14.910865906514703 ], [ -92.264974685103539, 14.910865906514703 ], [ -92.264974685103539, 14.910596411929466 ], [ -92.265244179688764, 14.910596411929466 ], [ -92.265244179688764, 14.90978792817376 ], [ -92.264435695933059, 14.90978792817376 ], [ -92.264435695933059, 14.910326917344232 ], [ -92.264166201347834, 14.910326917344232 ], [ -92.264166201347834, 14.910865906514703 ], [ -92.263896706762594, 14.910865906514703 ], [ -92.263896706762594, 14.911674390270411 ], [ -92.263627212177354, 14.911674390270411 ], [ -92.263627212177354, 14.911943884855647 ], [ -92.263357717592115, 14.911943884855647 ], [ -92.263357717592115, 14.912213379440882 ] ], [ [ -92.263627212177354, 14.910057422758996 ], [ -92.263627212177354, 14.90978792817376 ], [ -92.263357717592115, 14.90978792817376 ], [ -92.263357717592115, 14.910057422758996 ], [ -92.263627212177354, 14.910057422758996 ] ], [ [ -92.263896706762594, 14.905745509395222 ], [ -92.263896706762594, 14.905476014809986 ], [ -92.263357717592115, 14.905476014809986 ], [ -92.263357717592115, 14.905745509395222 ], [ -92.263896706762594, 14.905745509395222 ] ] ] ] } },
{ "type": "Feature", "properties": { "ZONA_MET": "Tapachula", "INTENSIDAD": "Extrema", "T_PROM_POL": 4.0, "T_MIN_CIUD": 3.0, "DIF_TERMIC": 1.0 }, "geometry": { "type": "MultiPolygon", "coordinates": [ [ [ [ -92.247188042477973, 14.904128541883807 ], [ -92.246649053307493, 14.904128541883807 ], [ -92.246649053307493, 14.903859047298571 ], [ -92.246379558722253, 14.903859047298571 ], [ -92.246379558722253, 14.903589552713335 ], [ -92.246110064137028, 14.903589552713335 ], [ -92.246110064137028, 14.903050563542863 ], [ -92.246918547892733, 14.903050563542863 ], [ -92.246918547892733, 14.903320058128099 ], [ -92.247457537063198, 14.903320058128099 ], [ -92.247457537063198, 14.903859047298571 ], [ -92.247188042477973, 14.903859047298571 ], [ -92.247188042477973, 14.904128541883807 ] ] ] ] } },
{ "type": "Feature", "properties": { "ZONA_MET": "Tapachula", "INTENSIDAD": "Intensa", "T_PROM_POL": 4.0, "T_MIN_CIUD": 3.0, "DIF_TERMIC": 1.0 }, "geometry": { "type": "MultiPolygon", "coordinates": [ [ [ [ -92.261201760910239, 14.908170960662344 ], [ -92.26066277173976, 14.908170960662344 ], [ -92.26066277173976, 14.907362476906638 ], [ -92.26039327715452, 14.907362476906638 ], [ -92.26039327715452, 14.906553993150929 ], [ -92.260123782569295, 14.906553993150929 ], [ -92.260123782569295, 14.906015003980457 ], [ -92.259584793398815, 14.906015003980457 ], [ -92.259584793398815, 14.905745509395222 ], [ -92.259315298813576, 14.905745509395222 ], [ -92.259315298813576, 14.906015003980457 ], [ -92.258237320472631, 14.906015003980457 ], [ -92.258237320472631, 14.904937025639514 ], [ -92.258506815057871, 14.904937025639514 ], [ -92.258506815057871, 14.904667531054278 ], [ -92.25877630964311, 14.904667531054278 ], [ -92.25877630964311, 14.904398036469043 ], [ -92.25904580422835, 14.904398036469043 ], [ -92.25904580422835, 14.904128541883807 ], [ -92.259315298813576, 14.904128541883807 ], [ -92.259315298813576, 14.903859047298571 ], [ -92.258506815057871, 14.903859047298571 ], [ -92.258506815057871, 14.903320058128099 ], [ -92.258237320472631, 14.903320058128099 ], [ -92.258237320472631, 14.903050563542863 ], [ -92.258506815057871, 14.903050563542863 ], [ -92.258506815057871, 14.902781068957628 ], [ -92.25904580422835, 14.902781068957628 ], [ -92.25904580422835, 14.902242079787156 ], [ -92.260123782569295, 14.902242079787156 ], [ -92.260123782569295, 14.902511574372392 ], [ -92.261740750080705, 14.902511574372392 ], [ -92.261740750080705, 14.902781068957628 ], [ -92.262010244665944, 14.902781068957628 ], [ -92.262010244665944, 14.903589552713335 ], [ -92.261740750080705, 14.903589552713335 ], [ -92.261740750080705, 14.903859047298571 ], [ -92.262010244665944, 14.903859047298571 ], [ -92.262010244665944, 14.904128541883807 ], [ -92.261740750080705, 14.904128541883807 ], [ -92.261740750080705, 14.904937025639514 ], [ -92.262010244665944, 14.904937025639514 ], [ -92.262010244665944, 14.905745509395222 ], [ -92.26227973925117, 14.905745509395222 ], [ -92.26227973925117, 14.906015003980457 ], [ -92.262818728421649, 14.906015003980457 ], [ -92.262818728421649, 14.906284498565693 ], [ -92.26254923383641, 14.906284498565693 ], [ -92.26254923383641, 14.906553993150929 ], [ -92.26227973925117, 14.906553993150929 ], [ -92.26227973925117, 14.906284498565693 ], [ -92.262010244665944, 14.906284498565693 ], [ -92.262010244665944, 14.906553993150929 ], [ -92.261740750080705, 14.906553993150929 ], [ -92.261740750080705, 14.907092982321402 ], [ -92.261471255495465, 14.907092982321402 ], [ -92.261471255495465, 14.907362476906638 ], [ -92.260932266325, 14.907362476906638 ], [ -92.260932266325, 14.907901466077108 ], [ -92.261201760910239, 14.907901466077108 ], [ -92.261201760910239, 14.908170960662344 ] ], [ [ -92.261471255495465, 14.906284498565693 ], [ -92.261471255495465, 14.906015003980457 ], [ -92.261201760910239, 14.906015003980457 ], [ -92.261201760910239, 14.906284498565693 ], [ -92.261471255495465, 14.906284498565693 ] ], [ [ -92.261740750080705, 14.906015003980457 ], [ -92.261740750080705, 14.905745509395222 ], [ -92.261471255495465, 14.905745509395222 ], [ -92.261471255495465, 14.906015003980457 ], [ -92.261740750080705, 14.906015003980457 ] ], [ [ -92.259854287984055, 14.905745509395222 ], [ -92.259854287984055, 14.905476014809986 ], [ -92.259584793398815, 14.905476014809986 ], [ -92.259584793398815, 14.905745509395222 ], [ -92.259854287984055, 14.905745509395222 ] ], [ [ -92.259854287984055, 14.90520652022475 ], [ -92.259854287984055, 14.904937025639514 ], [ -92.260123782569295, 14.904937025639514 ], [ -92.260123782569295, 14.904667531054278 ], [ -92.26039327715452, 14.904667531054278 ], [ -92.26039327715452, 14.904398036469043 ], [ -92.259854287984055, 14.904398036469043 ], [ -92.259854287984055, 14.904128541883807 ], [ -92.259584793398815, 14.904128541883807 ], [ -92.259584793398815, 14.904667531054278 ], [ -92.259315298813576, 14.904667531054278 ], [ -92.259315298813576, 14.90520652022475 ], [ -92.259854287984055, 14.90520652022475 ] ], [ [ -92.260932266325, 14.903589552713335 ], [ -92.260932266325, 14.903320058128099 ], [ -92.26066277173976, 14.903320058128099 ], [ -92.26066277173976, 14.903589552713335 ], [ -92.260932266325, 14.903589552713335 ] ], [ [ -92.261201760910239, 14.903050563542863 ], [ -92.261201760910239, 14.902781068957628 ], [ -92.260932266325, 14.902781068957628 ], [ -92.260932266325, 14.903050563542863 ], [ -92.261201760910239, 14.903050563542863 ] ], [ [ -92.259584793398815, 14.903050563542863 ], [ -92.259584793398815, 14.902781068957628 ], [ -92.25904580422835, 14.902781068957628 ], [ -92.25904580422835, 14.903050563542863 ], [ -92.259584793398815, 14.903050563542863 ] ] ] ] } },
{ "type": "Feature", "properties": { "ZONA_MET": "Tapachula", "INTENSIDAD": "Intensa", "T_PROM_POL": 4.0, "T_MIN_CIUD": 3.0, "DIF_TERMIC": 1.0 }, "geometry": { "type": "MultiPolygon", "coordinates": [ [ [ [ -92.260123782569295, 14.900086123105268 ], [ -92.259584793398815, 14.900086123105268 ], [ -92.259584793398815, 14.899816628520034 ], [ -92.259315298813576, 14.899816628520034 ], [ -92.259315298813576, 14.899277639349561 ], [ -92.25904580422835, 14.899277639349561 ], [ -92.25904580422835, 14.899008144764325 ], [ -92.260123782569295, 14.899008144764325 ], [ -92.260123782569295, 14.900086123105268 ] ] ] ] } },
{ "type": "Feature", "properties": { "ZONA_MET": "Tapachula", "INTENSIDAD": "Intensa", "T_PROM_POL": 4.0, "T_MIN_CIUD": 3.0, "DIF_TERMIC": 1.0 }, "geometry": { "type": "MultiPolygon", "coordinates": [ [ [ [ -92.269017103882078, 14.903050563542863 ], [ -92.268208620126359, 14.903050563542863 ], [ -92.268208620126359, 14.902781068957628 ], [ -92.267939125541133, 14.902781068957628 ], [ -92.267939125541133, 14.900894606860977 ], [ -92.267669630955893, 14.900894606860977 ], [ -92.267669630955893, 14.90062511227574 ], [ -92.267400136370654, 14.90062511227574 ], [ -92.267400136370654, 14.901164101446213 ], [ -92.266861147200188, 14.901164101446213 ], [ -92.266861147200188, 14.901703090616683 ], [ -92.266591652614949, 14.901703090616683 ], [ -92.266591652614949, 14.90197258520192 ], [ -92.266322158029709, 14.90197258520192 ], [ -92.266322158029709, 14.901703090616683 ], [ -92.266052663444484, 14.901703090616683 ], [ -92.266052663444484, 14.902242079787156 ], [ -92.265783168859244, 14.902242079787156 ], [ -92.265783168859244, 14.902511574372392 ], [ -92.264974685103539, 14.902511574372392 ], [ -92.264974685103539, 14.902242079787156 ], [ -92.264705190518299, 14.902242079787156 ], [ -92.264705190518299, 14.902511574372392 ], [ -92.263896706762594, 14.902511574372392 ], [ -92.263896706762594, 14.902242079787156 ], [ -92.263627212177354, 14.902242079787156 ], [ -92.263627212177354, 14.90197258520192 ], [ -92.263896706762594, 14.90197258520192 ], [ -92.263896706762594, 14.901703090616683 ], [ -92.264166201347834, 14.901703090616683 ], [ -92.264166201347834, 14.90062511227574 ], [ -92.263896706762594, 14.90062511227574 ], [ -92.263896706762594, 14.900086123105268 ], [ -92.263357717592115, 14.900086123105268 ], [ -92.263357717592115, 14.899547133934798 ], [ -92.262818728421649, 14.899547133934798 ], [ -92.262818728421649, 14.899008144764325 ], [ -92.26254923383641, 14.899008144764325 ], [ -92.26254923383641, 14.898738650179089 ], [ -92.26227973925117, 14.898738650179089 ], [ -92.26227973925117, 14.897930166423382 ], [ -92.26254923383641, 14.897930166423382 ], [ -92.26254923383641, 14.897660671838146 ], [ -92.262818728421649, 14.897660671838146 ], [ -92.262818728421649, 14.897121682667674 ], [ -92.263896706762594, 14.897121682667674 ], [ -92.263896706762594, 14.89739117725291 ], [ -92.264166201347834, 14.89739117725291 ], [ -92.264166201347834, 14.897660671838146 ], [ -92.264435695933059, 14.897660671838146 ], [ -92.264435695933059, 14.898199661008618 ], [ -92.264705190518299, 14.898199661008618 ], [ -92.264705190518299, 14.898469155593853 ], [ -92.264166201347834, 14.898469155593853 ], [ -92.264166201347834, 14.898738650179089 ], [ -92.264435695933059, 14.898738650179089 ], [ -92.264435695933059, 14.899277639349561 ], [ -92.264974685103539, 14.899277639349561 ], [ -92.264974685103539, 14.899816628520034 ], [ -92.266052663444484, 14.899816628520034 ], [ -92.266052663444484, 14.899277639349561 ], [ -92.266322158029709, 14.899277639349561 ], [ -92.266322158029709, 14.899008144764325 ], [ -92.267130641785428, 14.899008144764325 ], [ -92.267130641785428, 14.899277639349561 ], [ -92.267939125541133, 14.899277639349561 ], [ -92.267939125541133, 14.899547133934798 ], [ -92.268208620126359, 14.899547133934798 ], [ -92.268208620126359, 14.899008144764325 ], [ -92.268747609296838, 14.899008144764325 ], [ -92.268747609296838, 14.899277639349561 ], [ -92.269017103882078, 14.899277639349561 ], [ -92.269017103882078, 14.899547133934798 ], [ -92.269556093052543, 14.899547133934798 ], [ -92.269556093052543, 14.899816628520034 ], [ -92.270095082223023, 14.899816628520034 ], [ -92.270095082223023, 14.900086123105268 ], [ -92.270364576808248, 14.900086123105268 ], [ -92.270364576808248, 14.900355617690504 ], [ -92.270903565978728, 14.900355617690504 ], [ -92.270903565978728, 14.90062511227574 ], [ -92.271173060563953, 14.90062511227574 ], [ -92.271173060563953, 14.900894606860977 ], [ -92.271442555149193, 14.900894606860977 ], [ -92.271442555149193, 14.901164101446213 ], [ -92.271173060563953, 14.901164101446213 ], [ -92.271173060563953, 14.901433596031449 ], [ -92.270634071393488, 14.901433596031449 ], [ -92.270634071393488, 14.901703090616683 ], [ -92.269825587637783, 14.901703090616683 ], [ -92.269825587637783, 14.90197258520192 ], [ -92.269286598467303, 14.90197258520192 ], [ -92.269286598467303, 14.902242079787156 ], [ -92.269017103882078, 14.902242079787156 ], [ -92.269017103882078, 14.903050563542863 ] ], [ [ -92.269017103882078, 14.90197258520192 ], [ -92.269017103882078, 14.901703090616683 ], [ -92.268478114711598, 14.901703090616683 ], [ -92.268478114711598, 14.90197258520192 ], [ -92.269017103882078, 14.90197258520192 ] ], [ [ -92.269825587637783, 14.901703090616683 ], [ -92.269825587637783, 14.901164101446213 ], [ -92.269556093052543, 14.901164101446213 ], [ -92.269556093052543, 14.901433596031449 ], [ -92.269286598467303, 14.901433596031449 ], [ -92.269286598467303, 14.901703090616683 ], [ -92.269825587637783, 14.901703090616683 ] ], [ [ -92.266591652614949, 14.901433596031449 ], [ -92.266591652614949, 14.901164101446213 ], [ -92.266322158029709, 14.901164101446213 ], [ -92.266322158029709, 14.901433596031449 ], [ -92.266591652614949, 14.901433596031449 ] ], [ [ -92.270634071393488, 14.901164101446213 ], [ -92.270634071393488, 14.900894606860977 ], [ -92.270095082223023, 14.900894606860977 ], [ -92.270095082223023, 14.901164101446213 ], [ -92.270634071393488, 14.901164101446213 ] ], [ [ -92.266322158029709, 14.901164101446213 ], [ -92.266322158029709, 14.90062511227574 ], [ -92.266052663444484, 14.90062511227574 ], [ -92.266052663444484, 14.901164101446213 ], [ -92.266322158029709, 14.901164101446213 ] ], [ [ -92.269825587637783, 14.90062511227574 ], [ -92.269825587637783, 14.900086123105268 ], [ -92.269286598467303, 14.900086123105268 ], [ -92.269286598467303, 14.900355617690504 ], [ -92.269556093052543, 14.900355617690504 ], [ -92.269556093052543, 14.90062511227574 ], [ -92.269825587637783, 14.90062511227574 ] ], [ [ -92.267939125541133, 14.899816628520034 ], [ -92.267939125541133, 14.899547133934798 ], [ -92.267400136370654, 14.899547133934798 ], [ -92.267400136370654, 14.899816628520034 ], [ -92.267939125541133, 14.899816628520034 ] ], [ [ -92.263627212177354, 14.899277639349561 ], [ -92.263627212177354, 14.899008144764325 ], [ -92.263357717592115, 14.899008144764325 ], [ -92.263357717592115, 14.899277639349561 ], [ -92.263627212177354, 14.899277639349561 ] ], [ [ -92.263088223006889, 14.898469155593853 ], [ -92.263088223006889, 14.898199661008618 ], [ -92.262818728421649, 14.898199661008618 ], [ -92.262818728421649, 14.898469155593853 ], [ -92.263088223006889, 14.898469155593853 ] ], [ [ -92.263627212177354, 14.897930166423382 ], [ -92.263627212177354, 14.897660671838146 ], [ -92.263357717592115, 14.897660671838146 ], [ -92.263357717592115, 14.897930166423382 ], [ -92.263627212177354, 14.897930166423382 ] ] ] ] } },
{ "type": "Feature", "properties": { "ZONA_MET": "Tapachula", "INTENSIDAD": "Extrema", "T_PROM_POL": 4.0, "T_MIN_CIUD": 3.0, "DIF_TERMIC": 1.0 }, "geometry": { "type": "MultiPolygon", "coordinates": [ [ [ [ -92.270364576808248, 14.899008144764325 ], [ -92.270095082223023, 14.899008144764325 ], [ -92.270095082223023, 14.898738650179089 ], [ -92.269825587637783, 14.898738650179089 ], [ -92.269825587637783, 14.898469155593853 ], [ -92.269556093052543, 14.898469155593853 ], [ -92.269556093052543, 14.897930166423382 ], [ -92.270095082223023, 14.897930166423382 ], [ -92.270095082223023, 14.89739117725291 ], [ -92.270634071393488, 14.89739117725291 ], [ -92.270634071393488, 14.897121682667674 ], [ -92.270903565978728, 14.897121682667674 ], [ -92.270903565978728, 14.897660671838146 ], [ -92.270364576808248, 14.897660671838146 ], [ -92.270364576808248, 14.898199661008618 ], [ -92.270095082223023, 14.898199661008618 ], [ -92.270095082223023, 14.898469155593853 ], [ -92.270634071393488, 14.898469155593853 ], [ -92.270634071393488, 14.898738650179089 ], [ -92.270364576808248, 14.898738650179089 ], [ -92.270364576808248, 14.899008144764325 ] ] ] ] } },
{ "type": "Feature", "properties": { "ZONA_MET": "Tapachula", "INTENSIDAD": "Intensa", "T_PROM_POL": 4.0, "T_MIN_CIUD": 3.0, "DIF_TERMIC": 1.0 }, "geometry": { "type": "MultiPolygon", "coordinates": [ [ [ [ -92.249882988330327, 14.90062511227574 ], [ -92.249074504574622, 14.90062511227574 ], [ -92.249074504574622, 14.900086123105268 ], [ -92.249343999159848, 14.900086123105268 ], [ -92.249343999159848, 14.899547133934798 ], [ -92.248805009989383, 14.899547133934798 ], [ -92.248805009989383, 14.899277639349561 ], [ -92.249343999159848, 14.899277639349561 ], [ -92.249343999159848, 14.899008144764325 ], [ -92.248535515404143, 14.899008144764325 ], [ -92.248535515404143, 14.898738650179089 ], [ -92.248266020818917, 14.898738650179089 ], [ -92.248266020818917, 14.898469155593853 ], [ -92.249343999159848, 14.898469155593853 ], [ -92.249343999159848, 14.898199661008618 ], [ -92.248535515404143, 14.898199661008618 ], [ -92.248535515404143, 14.897121682667674 ], [ -92.249074504574622, 14.897121682667674 ], [ -92.249074504574622, 14.896852188082439 ], [ -92.249613493745088, 14.896852188082439 ], [ -92.249613493745088, 14.897121682667674 ], [ -92.250152482915567, 14.897121682667674 ], [ -92.250152482915567, 14.89739117725291 ], [ -92.251230461256512, 14.89739117725291 ], [ -92.251230461256512, 14.897121682667674 ], [ -92.252038945012217, 14.897121682667674 ], [ -92.252038945012217, 14.897660671838146 ], [ -92.252308439597442, 14.897660671838146 ], [ -92.252308439597442, 14.897930166423382 ], [ -92.252038945012217, 14.897930166423382 ], [ -92.252038945012217, 14.898199661008618 ], [ -92.251769450426977, 14.898199661008618 ], [ -92.251769450426977, 14.897660671838146 ], [ -92.250691472086032, 14.897660671838146 ], [ -92.250691472086032, 14.897930166423382 ], [ -92.251499955841737, 14.897930166423382 ], [ -92.251499955841737, 14.898469155593853 ], [ -92.251230461256512, 14.898469155593853 ], [ -92.251230461256512, 14.898738650179089 ], [ -92.250960966671272, 14.898738650179089 ], [ -92.250960966671272, 14.898469155593853 ], [ -92.250691472086032, 14.898469155593853 ], [ -92.250691472086032, 14.898199661008618 ], [ -92.250421977500793, 14.898199661008618 ], [ -92.250421977500793, 14.897660671838146 ], [ -92.249882988330327, 14.897660671838146 ], [ -92.249882988330327, 14.897930166423382 ], [ -92.250152482915567, 14.897930166423382 ], [ -92.250152482915567, 14.898469155593853 ], [ -92.250421977500793, 14.898469155593853 ], [ -92.250421977500793, 14.899008144764325 ], [ -92.250960966671272, 14.899008144764325 ], [ -92.250960966671272, 14.899277639349561 ], [ -92.250691472086032, 14.899277639349561 ], [ -92.250691472086032, 14.899547133934798 ], [ -92.250152482915567, 14.899547133934798 ], [ -92.250152482915567, 14.899277639349561 ], [ -92.249882988330327, 14.899277639349561 ], [ -92.249882988330327, 14.899547133934798 ], [ -92.249613493745088, 14.899547133934798 ], [ -92.249613493745088, 14.899816628520034 ], [ -92.249882988330327, 14.899816628520034 ], [ -92.249882988330327, 14.900086123105268 ], [ -92.249613493745088, 14.900086123105268 ], [ -92.249613493745088, 14.900355617690504 ], [ -92.249882988330327, 14.900355617690504 ], [ -92.249882988330327, 14.90062511227574 ] ], [ [ -92.249882988330327, 14.899277639349561 ], [ -92.249882988330327, 14.899008144764325 ], [ -92.249613493745088, 14.899008144764325 ], [ -92.249613493745088, 14.899277639349561 ], [ -92.249882988330327, 14.899277639349561 ] ] ] ] } },
{ "type": "Feature", "properties": { "ZONA_MET": "Tapachula", "INTENSIDAD": "Intensa", "T_PROM_POL": 4.0, "T_MIN_CIUD": 3.0, "DIF_TERMIC": 1.0 }, "geometry": { "type": "MultiPolygon", "coordinates": [ [ [ [ -92.270903565978728, 14.900086123105268 ], [ -92.270364576808248, 14.900086123105268 ], [ -92.270364576808248, 14.899816628520034 ], [ -92.270095082223023, 14.899816628520034 ], [ -92.270095082223023, 14.899547133934798 ], [ -92.269825587637783, 14.899547133934798 ], [ -92.269825587637783, 14.899277639349561 ], [ -92.269286598467303, 14.899277639349561 ], [ -92.269286598467303, 14.899008144764325 ], [ -92.269556093052543, 14.899008144764325 ], [ -92.269556093052543, 14.898738650179089 ], [ -92.270095082223023, 14.898738650179089 ], [ -92.270095082223023, 14.899008144764325 ], [ -92.270364576808248, 14.899008144764325 ], [ -92.270364576808248, 14.898738650179089 ], [ -92.270634071393488, 14.898738650179089 ], [ -92.270634071393488, 14.899008144764325 ], [ -92.270903565978728, 14.899008144764325 ], [ -92.270903565978728, 14.898469155593853 ], [ -92.271173060563953, 14.898469155593853 ], [ -92.271173060563953, 14.897660671838146 ], [ -92.270903565978728, 14.897660671838146 ], [ -92.270903565978728, 14.897121682667674 ], [ -92.271173060563953, 14.897121682667674 ], [ -92.271173060563953, 14.89739117725291 ], [ -92.271442555149193, 14.89739117725291 ], [ -92.271442555149193, 14.897660671838146 ], [ -92.271712049734433, 14.897660671838146 ], [ -92.271712049734433, 14.896852188082439 ], [ -92.272251038904898, 14.896852188082439 ], [ -92.272251038904898, 14.897121682667674 ], [ -92.272520533490137, 14.897121682667674 ], [ -92.272520533490137, 14.89739117725291 ], [ -92.272251038904898, 14.89739117725291 ], [ -92.272251038904898, 14.897660671838146 ], [ -92.272520533490137, 14.897660671838146 ], [ -92.272520533490137, 14.897930166423382 ], [ -92.271981544319672, 14.897930166423382 ], [ -92.271981544319672, 14.898199661008618 ], [ -92.272251038904898, 14.898199661008618 ], [ -92.272251038904898, 14.898469155593853 ], [ -92.271712049734433, 14.898469155593853 ], [ -92.271712049734433, 14.898738650179089 ], [ -92.271442555149193, 14.898738650179089 ], [ -92.271442555149193, 14.899277639349561 ], [ -92.270903565978728, 14.899277639349561 ], [ -92.270903565978728, 14.900086123105268 ] ] ] ] } },
{ "type": "Feature", "properties": { "ZONA_MET": "Tapachula", "INTENSIDAD": "Intensa", "T_PROM_POL": 4.0, "T_MIN_CIUD": 3.0, "DIF_TERMIC": 1.0 }, "geometry": { "type": "MultiPolygon", "coordinates": [ [ [ [ -92.269017103882078, 14.898738650179089 ], [ -92.268747609296838, 14.898738650179089 ], [ -92.268747609296838, 14.898199661008618 ], [ -92.269017103882078, 14.898199661008618 ], [ -92.269017103882078, 14.897930166423382 ], [ -92.268747609296838, 14.897930166423382 ], [ -92.268747609296838, 14.897660671838146 ], [ -92.268478114711598, 14.897660671838146 ], [ -92.268478114711598, 14.896852188082439 ], [ -92.268747609296838, 14.896852188082439 ], [ -92.268747609296838, 14.896582693497203 ], [ -92.269286598467303, 14.896582693497203 ], [ -92.269286598467303, 14.896852188082439 ], [ -92.269556093052543, 14.896852188082439 ], [ -92.269556093052543, 14.897121682667674 ], [ -92.269825587637783, 14.897121682667674 ], [ -92.269825587637783, 14.89739117725291 ], [ -92.270095082223023, 14.89739117725291 ], [ -92.270095082223023, 14.897930166423382 ], [ -92.269556093052543, 14.897930166423382 ], [ -92.269556093052543, 14.898469155593853 ], [ -92.269017103882078, 14.898469155593853 ], [ -92.269017103882078, 14.898738650179089 ] ] ] ] } },
{ "type": "Feature", "properties": { "ZONA_MET": "Tapachula", "INTENSIDAD": "Intensa", "T_PROM_POL": 4.0, "T_MIN_CIUD": 3.0, "DIF_TERMIC": 1.0 }, "geometry": { "type": "MultiPolygon", "coordinates": [ [ [ [ -92.246918547892733, 14.897930166423382 ], [ -92.246110064137028, 14.897930166423382 ], [ -92.246110064137028, 14.89739117725291 ], [ -92.245571074966549, 14.89739117725291 ], [ -92.245571074966549, 14.897930166423382 ], [ -92.245301580381323, 14.897930166423382 ], [ -92.245301580381323, 14.897660671838146 ], [ -92.245032085796083, 14.897660671838146 ], [ -92.245032085796083, 14.897121682667674 ], [ -92.245571074966549, 14.897121682667674 ], [ -92.245571074966549, 14.896852188082439 ], [ -92.246110064137028, 14.896852188082439 ], [ -92.246110064137028, 14.896582693497203 ], [ -92.246649053307493, 14.896582693497203 ], [ -92.246649053307493, 14.896852188082439 ], [ -92.246918547892733, 14.896852188082439 ], [ -92.246918547892733, 14.896582693497203 ], [ -92.247727031648438, 14.896582693497203 ], [ -92.247727031648438, 14.897121682667674 ], [ -92.247457537063198, 14.897121682667674 ], [ -92.247457537063198, 14.896852188082439 ], [ -92.247188042477973, 14.896852188082439 ], [ -92.247188042477973, 14.897121682667674 ], [ -92.246918547892733, 14.897121682667674 ], [ -92.246918547892733, 14.89739117725291 ], [ -92.246649053307493, 14.89739117725291 ], [ -92.246649053307493, 14.897660671838146 ], [ -92.246918547892733, 14.897660671838146 ], [ -92.246918547892733, 14.897930166423382 ] ] ] ] } },
{ "type": "Feature", "properties": { "ZONA_MET": "Tapachula", "INTENSIDAD": "Intensa", "T_PROM_POL": 4.0, "T_MIN_CIUD": 3.0, "DIF_TERMIC": 1.0 }, "geometry": { "type": "MultiPolygon", "coordinates": [ [ [ [ -92.26039327715452, 14.894426736815316 ], [ -92.259315298813576, 14.894426736815316 ], [ -92.259315298813576, 14.894157242230079 ], [ -92.25904580422835, 14.894157242230079 ], [ -92.25904580422835, 14.894426736815316 ], [ -92.25877630964311, 14.894426736815316 ], [ -92.25877630964311, 14.894157242230079 ], [ -92.258237320472631, 14.894157242230079 ], [ -92.258237320472631, 14.893887747644845 ], [ -92.257967825887405, 14.893887747644845 ], [ -92.257967825887405, 14.893618253059609 ], [ -92.258506815057871, 14.893618253059609 ], [ -92.258506815057871, 14.893348758474373 ], [ -92.25877630964311, 14.893348758474373 ], [ -92.25877630964311, 14.893079263889136 ], [ -92.259854287984055, 14.893079263889136 ], [ -92.259854287984055, 14.893348758474373 ], [ -92.260123782569295, 14.893348758474373 ], [ -92.260123782569295, 14.893887747644845 ], [ -92.26039327715452, 14.893887747644845 ], [ -92.26039327715452, 14.893348758474373 ], [ -92.26066277173976, 14.893348758474373 ], [ -92.26066277173976, 14.893618253059609 ], [ -92.260932266325, 14.893618253059609 ], [ -92.260932266325, 14.894157242230079 ], [ -92.26039327715452, 14.894157242230079 ], [ -92.26039327715452, 14.894426736815316 ] ] ] ] } },
{ "type": "Feature", "properties": { "ZONA_MET": "Tapachula", "INTENSIDAD": "Intensa", "T_PROM_POL": 4.0, "T_MIN_CIUD": 3.0, "DIF_TERMIC": 1.0 }, "geometry": { "type": "MultiPolygon", "coordinates": [ [ [ [ -92.276832446853916, 14.894426736815316 ], [ -92.276562952268677, 14.894426736815316 ], [ -92.276562952268677, 14.893887747644845 ], [ -92.276832446853916, 14.893887747644845 ], [ -92.276832446853916, 14.893618253059609 ], [ -92.277101941439142, 14.893618253059609 ], [ -92.277101941439142, 14.893348758474373 ], [ -92.276832446853916, 14.893348758474373 ], [ -92.276832446853916, 14.893079263889136 ], [ -92.276562952268677, 14.893079263889136 ], [ -92.276562952268677, 14.892540274718664 ], [ -92.276832446853916, 14.892540274718664 ], [ -92.276832446853916, 14.8928097693039 ], [ -92.277101941439142, 14.8928097693039 ], [ -92.277101941439142, 14.89227078013343 ], [ -92.277371436024382, 14.89227078013343 ], [ -92.277371436024382, 14.893887747644845 ], [ -92.277101941439142, 14.893887747644845 ], [ -92.277101941439142, 14.894157242230079 ], [ -92.276832446853916, 14.894157242230079 ], [ -92.276832446853916, 14.894426736815316 ] ] ] ] } },
{ "type": "Feature", "properties": { "ZONA_MET": "Tapachula", "INTENSIDAD": "Extrema", "T_PROM_POL": 4.0, "T_MIN_CIUD": 3.0, "DIF_TERMIC": 1.0 }, "geometry": { "type": "MultiPolygon", "coordinates": [ [ [ [ -92.276023963098211, 14.895235220571024 ], [ -92.275215479342492, 14.895235220571024 ], [ -92.275215479342492, 14.894965725985788 ], [ -92.274137501001547, 14.894965725985788 ], [ -92.274137501001547, 14.894696231400552 ], [ -92.273868006416322, 14.894696231400552 ], [ -92.273868006416322, 14.894426736815316 ], [ -92.274945984757267, 14.894426736815316 ], [ -92.274945984757267, 14.893887747644845 ], [ -92.275215479342492, 14.893887747644845 ], [ -92.275215479342492, 14.893348758474373 ], [ -92.274945984757267, 14.893348758474373 ], [ -92.274945984757267, 14.893079263889136 ], [ -92.275484973927732, 14.893079263889136 ], [ -92.275484973927732, 14.8928097693039 ], [ -92.275215479342492, 14.8928097693039 ], [ -92.275215479342492, 14.892001285548194 ], [ -92.275484973927732, 14.892001285548194 ], [ -92.275484973927732, 14.891731790962957 ], [ -92.276023963098211, 14.891731790962957 ], [ -92.276023963098211, 14.892001285548194 ], [ -92.276293457683437, 14.892001285548194 ], [ -92.276293457683437, 14.89227078013343 ], [ -92.276562952268677, 14.89227078013343 ], [ -92.276562952268677, 14.893079263889136 ], [ -92.276293457683437, 14.893079263889136 ], [ -92.276293457683437, 14.893348758474373 ], [ -92.275754468512972, 14.893348758474373 ], [ -92.275754468512972, 14.893618253059609 ], [ -92.276023963098211, 14.893618253059609 ], [ -92.276023963098211, 14.894426736815316 ], [ -92.275754468512972, 14.894426736815316 ], [ -92.275754468512972, 14.894696231400552 ], [ -92.275484973927732, 14.894696231400552 ], [ -92.275484973927732, 14.894965725985788 ], [ -92.276023963098211, 14.894965725985788 ], [ -92.276023963098211, 14.895235220571024 ] ] ] ] } },
{ "type": "Feature", "properties": { "ZONA_MET": "Tapachula", "INTENSIDAD": "Intensa", "T_PROM_POL": 4.0, "T_MIN_CIUD": 3.0, "DIF_TERMIC": 1.0 }, "geometry": { "type": "MultiPolygon", "coordinates": [ [ [ [ -92.26066277173976, 14.893079263889136 ], [ -92.260123782569295, 14.893079263889136 ], [ -92.260123782569295, 14.891192801792485 ], [ -92.260932266325, 14.891192801792485 ], [ -92.260932266325, 14.89227078013343 ], [ -92.26066277173976, 14.89227078013343 ], [ -92.26066277173976, 14.892540274718664 ], [ -92.26039327715452, 14.892540274718664 ], [ -92.26039327715452, 14.8928097693039 ], [ -92.26066277173976, 14.8928097693039 ], [ -92.26066277173976, 14.893079263889136 ] ], [ [ -92.26066277173976, 14.892001285548194 ], [ -92.26066277173976, 14.891731790962957 ], [ -92.26039327715452, 14.891731790962957 ], [ -92.26039327715452, 14.892001285548194 ], [ -92.26066277173976, 14.892001285548194 ] ] ] ] } },
{ "type": "Feature", "properties": { "ZONA_MET": "Tapachula", "INTENSIDAD": "Intensa", "T_PROM_POL": 4.0, "T_MIN_CIUD": 3.0, "DIF_TERMIC": 1.0 }, "geometry": { "type": "MultiPolygon", "coordinates": [ [ [ [ -92.252038945012217, 14.892001285548194 ], [ -92.251230461256512, 14.892001285548194 ], [ -92.251230461256512, 14.891731790962957 ], [ -92.251499955841737, 14.891731790962957 ], [ -92.251499955841737, 14.891192801792485 ], [ -92.252847428767922, 14.891192801792485 ], [ -92.252847428767922, 14.890114823451542 ], [ -92.253116923353161, 14.890114823451542 ], [ -92.253116923353161, 14.890384318036778 ], [ -92.253655912523627, 14.890384318036778 ], [ -92.253655912523627, 14.890653812622014 ], [ -92.253386417938387, 14.890653812622014 ], [ -92.253386417938387, 14.890923307207249 ], [ -92.253116923353161, 14.890923307207249 ], [ -92.253116923353161, 14.891462296377721 ], [ -92.252577934182682, 14.891462296377721 ], [ -92.252577934182682, 14.891731790962957 ], [ -92.252038945012217, 14.891731790962957 ], [ -92.252038945012217, 14.892001285548194 ] ] ] ] } },
{ "type": "Feature", "properties": { "ZONA_MET": "Tapachula", "INTENSIDAD": "Intensa", "T_PROM_POL": 4.0, "T_MIN_CIUD": 3.0, "DIF_TERMIC": 1.0 }, "geometry": { "type": "MultiPolygon", "coordinates": [ [ [ [ -92.249074504574622, 14.888228361354891 ], [ -92.248266020818917, 14.888228361354891 ], [ -92.248266020818917, 14.887419877599184 ], [ -92.248535515404143, 14.887419877599184 ], [ -92.248535515404143, 14.887150383013948 ], [ -92.248266020818917, 14.887150383013948 ], [ -92.248266020818917, 14.886611393843475 ], [ -92.247996526233678, 14.886611393843475 ], [ -92.247996526233678, 14.886341899258241 ], [ -92.248266020818917, 14.886341899258241 ], [ -92.248266020818917, 14.886072404673005 ], [ -92.247996526233678, 14.886072404673005 ], [ -92.247996526233678, 14.885802910087769 ], [ -92.247188042477973, 14.885802910087769 ], [ -92.247188042477973, 14.885263920917296 ], [ -92.247457537063198, 14.885263920917296 ], [ -92.247457537063198, 14.885533415502533 ], [ -92.248266020818917, 14.885533415502533 ], [ -92.248266020818917, 14.885802910087769 ], [ -92.248535515404143, 14.885802910087769 ], [ -92.248535515404143, 14.886072404673005 ], [ -92.248805009989383, 14.886072404673005 ], [ -92.248805009989383, 14.886341899258241 ], [ -92.248535515404143, 14.886341899258241 ], [ -92.248535515404143, 14.886611393843475 ], [ -92.248805009989383, 14.886611393843475 ], [ -92.248805009989383, 14.887150383013948 ], [ -92.249074504574622, 14.887150383013948 ], [ -92.249074504574622, 14.888228361354891 ] ] ] ] } },
{ "type": "Feature", "properties": { "ZONA_MET": "Tapachula", "INTENSIDAD": "Extrema", "T_PROM_POL": 4.0, "T_MIN_CIUD": 3.0, "DIF_TERMIC": 1.0 }, "geometry": { "type": "MultiPolygon", "coordinates": [ [ [ [ -92.296775046161372, 14.886072404673005 ], [ -92.296505551576132, 14.886072404673005 ], [ -92.296505551576132, 14.885802910087769 ], [ -92.296236056990892, 14.885802910087769 ], [ -92.296236056990892, 14.885263920917296 ], [ -92.296505551576132, 14.885263920917296 ], [ -92.296505551576132, 14.884185942576353 ], [ -92.296236056990892, 14.884185942576353 ], [ -92.296236056990892, 14.883646953405881 ], [ -92.295966562405653, 14.883646953405881 ], [ -92.295966562405653, 14.88310796423541 ], [ -92.296505551576132, 14.88310796423541 ], [ -92.296505551576132, 14.883916447991117 ], [ -92.296775046161372, 14.883916447991117 ], [ -92.296775046161372, 14.88445543716159 ], [ -92.297044540746597, 14.88445543716159 ], [ -92.297044540746597, 14.88499442633206 ], [ -92.296775046161372, 14.88499442633206 ], [ -92.296775046161372, 14.886072404673005 ] ] ] ] } },
{ "type": "Feature", "properties": { "ZONA_MET": "Tapachula", "INTENSIDAD": "Extrema", "T_PROM_POL": 4.0, "T_MIN_CIUD": 3.0, "DIF_TERMIC": 1.0 }, "geometry": { "type": "MultiPolygon", "coordinates": [ [ [ [ -92.291924143627114, 14.876370599604513 ], [ -92.291115659871409, 14.876370599604513 ], [ -92.291115659871409, 14.875831610434043 ], [ -92.291385154456648, 14.875831610434043 ], [ -92.291385154456648, 14.875023126678334 ], [ -92.292193638212353, 14.875023126678334 ], [ -92.292193638212353, 14.87529262126357 ], [ -92.292463132797593, 14.87529262126357 ], [ -92.292463132797593, 14.875831610434043 ], [ -92.292193638212353, 14.875831610434043 ], [ -92.292193638212353, 14.876101105019277 ], [ -92.291924143627114, 14.876101105019277 ], [ -92.291924143627114, 14.876370599604513 ] ] ] ] } },
{ "type": "Feature", "properties": { "ZONA_MET": "Tapachula", "INTENSIDAD": "Extrema", "T_PROM_POL": 4.0, "T_MIN_CIUD": 3.0, "DIF_TERMIC": 1.0 }, "geometry": { "type": "MultiPolygon", "coordinates": [ [ [ [ -92.284108800655275, 14.875831610434043 ], [ -92.28330031689957, 14.875831610434043 ], [ -92.28330031689957, 14.875562115848806 ], [ -92.283030822314331, 14.875562115848806 ], [ -92.283030822314331, 14.87529262126357 ], [ -92.282761327729105, 14.87529262126357 ], [ -92.282761327729105, 14.875023126678334 ], [ -92.282222338558626, 14.875023126678334 ], [ -92.282222338558626, 14.874753632093098 ], [ -92.28168334938816, 14.874753632093098 ], [ -92.28168334938816, 14.874484137507862 ], [ -92.281413854802921, 14.874484137507862 ], [ -92.281413854802921, 14.875023126678334 ], [ -92.281144360217681, 14.875023126678334 ], [ -92.281144360217681, 14.874753632093098 ], [ -92.280874865632455, 14.874753632093098 ], [ -92.280874865632455, 14.874484137507862 ], [ -92.280605371047216, 14.874484137507862 ], [ -92.280605371047216, 14.874214642922627 ], [ -92.280874865632455, 14.874214642922627 ], [ -92.280874865632455, 14.873675653752155 ], [ -92.281144360217681, 14.873675653752155 ], [ -92.281144360217681, 14.873406159166919 ], [ -92.28168334938816, 14.873406159166919 ], [ -92.28168334938816, 14.873675653752155 ], [ -92.282491833143865, 14.873675653752155 ], [ -92.282491833143865, 14.873945148337391 ], [ -92.283030822314331, 14.873945148337391 ], [ -92.283030822314331, 14.874214642922627 ], [ -92.28356981148481, 14.874214642922627 ], [ -92.28356981148481, 14.875023126678334 ], [ -92.28383930607005, 14.875023126678334 ], [ -92.28383930607005, 14.875562115848806 ], [ -92.284108800655275, 14.875562115848806 ], [ -92.284108800655275, 14.875831610434043 ] ] ] ] } },
{ "type": "Feature", "properties": { "ZONA_MET": "Tapachula", "INTENSIDAD": "Intensa", "T_PROM_POL": 4.0, "T_MIN_CIUD": 3.0, "DIF_TERMIC": 1.0 }, "geometry": { "type": "MultiPolygon", "coordinates": [ [ [ [ -92.286264757337165, 14.871789191655504 ], [ -92.285995262751925, 14.871789191655504 ], [ -92.285995262751925, 14.871519697070267 ], [ -92.285725768166699, 14.871519697070267 ], [ -92.285725768166699, 14.871250202485033 ], [ -92.285995262751925, 14.871250202485033 ], [ -92.285995262751925, 14.870980707899797 ], [ -92.285725768166699, 14.870980707899797 ], [ -92.285725768166699, 14.869902729558852 ], [ -92.286534251922404, 14.869902729558852 ], [ -92.286534251922404, 14.870711213314561 ], [ -92.286803746507644, 14.870711213314561 ], [ -92.286803746507644, 14.871250202485033 ], [ -92.286264757337165, 14.871250202485033 ], [ -92.286264757337165, 14.871789191655504 ] ] ] ] } },
{ "type": "Feature", "properties": { "ZONA_MET": "Tapachula", "INTENSIDAD": "Intensa", "T_PROM_POL": 4.0, "T_MIN_CIUD": 3.0, "DIF_TERMIC": 1.0 }, "geometry": { "type": "MultiPolygon", "coordinates": [ [ [ [ -92.311597248349344, 14.852655076103758 ], [ -92.311058259178864, 14.852655076103758 ], [ -92.311058259178864, 14.852385581518522 ], [ -92.310788764593624, 14.852385581518522 ], [ -92.310788764593624, 14.852116086933286 ], [ -92.311058259178864, 14.852116086933286 ], [ -92.311058259178864, 14.85184659234805 ], [ -92.311597248349344, 14.85184659234805 ], [ -92.311597248349344, 14.851577097762815 ], [ -92.311866742934569, 14.851577097762815 ], [ -92.311866742934569, 14.851038108592343 ], [ -92.312136237519809, 14.851038108592343 ], [ -92.312136237519809, 14.851307603177579 ], [ -92.312405732105049, 14.851307603177579 ], [ -92.312405732105049, 14.850229624836636 ], [ -92.312675226690274, 14.850229624836636 ], [ -92.312675226690274, 14.850499119421871 ], [ -92.312944721275514, 14.850499119421871 ], [ -92.312944721275514, 14.850768614007107 ], [ -92.313214215860754, 14.850768614007107 ], [ -92.313214215860754, 14.851307603177579 ], [ -92.312944721275514, 14.851307603177579 ], [ -92.312944721275514, 14.851577097762815 ], [ -92.312675226690274, 14.851577097762815 ], [ -92.312675226690274, 14.85184659234805 ], [ -92.312136237519809, 14.85184659234805 ], [ -92.312136237519809, 14.852116086933286 ], [ -92.311866742934569, 14.852116086933286 ], [ -92.311866742934569, 14.852385581518522 ], [ -92.311597248349344, 14.852385581518522 ], [ -92.311597248349344, 14.852655076103758 ] ] ] ] } },
{ "type": "Feature", "properties": { "ZONA_MET": "Tapachula", "INTENSIDAD": "Intensa", "T_PROM_POL": 4.0, "T_MIN_CIUD": 3.0, "DIF_TERMIC": 1.0 }, "geometry": { "type": "MultiPolygon", "coordinates": [ [ [ [ -92.194636598356979, 14.831903993040598 ], [ -92.193019630845555, 14.831903993040598 ], [ -92.193019630845555, 14.831095509284889 ], [ -92.193558620016034, 14.831095509284889 ], [ -92.193558620016034, 14.831634498455362 ], [ -92.193828114601274, 14.831634498455362 ], [ -92.193828114601274, 14.831365003870125 ], [ -92.194367103771739, 14.831365003870125 ], [ -92.194367103771739, 14.830826014699653 ], [ -92.194906092942219, 14.830826014699653 ], [ -92.194906092942219, 14.831634498455362 ], [ -92.194636598356979, 14.831634498455362 ], [ -92.194636598356979, 14.831903993040598 ] ] ] ] } },
{ "type": "Feature", "properties": { "ZONA_MET": "Tapachula", "INTENSIDAD": "Intensa", "T_PROM_POL": 4.0, "T_MIN_CIUD": 3.0, "DIF_TERMIC": 1.0 }, "geometry": { "type": "MultiPolygon", "coordinates": [ [ [ [ -92.433947790046417, 14.733807964014746 ], [ -92.433408800875938, 14.733807964014746 ], [ -92.433408800875938, 14.73353846942951 ], [ -92.433139306290713, 14.73353846942951 ], [ -92.433139306290713, 14.733268974844274 ], [ -92.432869811705473, 14.733268974844274 ], [ -92.432869811705473, 14.732460491088567 ], [ -92.433408800875938, 14.732460491088567 ], [ -92.433408800875938, 14.732190996503331 ], [ -92.433678295461178, 14.732190996503331 ], [ -92.433678295461178, 14.732460491088567 ], [ -92.434217284631657, 14.732460491088567 ], [ -92.434217284631657, 14.732190996503331 ], [ -92.434756273802122, 14.732190996503331 ], [ -92.434756273802122, 14.732460491088567 ], [ -92.435025768387362, 14.732460491088567 ], [ -92.435025768387362, 14.732999480259037 ], [ -92.434756273802122, 14.732999480259037 ], [ -92.434756273802122, 14.733268974844274 ], [ -92.433947790046417, 14.733268974844274 ], [ -92.433947790046417, 14.733807964014746 ] ], [ [ -92.433408800875938, 14.733268974844274 ], [ -92.433408800875938, 14.732729985673803 ], [ -92.433139306290713, 14.732729985673803 ], [ -92.433139306290713, 14.733268974844274 ], [ -92.433408800875938, 14.733268974844274 ] ], [ [ -92.434486779216883, 14.732999480259037 ], [ -92.434486779216883, 14.732460491088567 ], [ -92.434217284631657, 14.732460491088567 ], [ -92.434217284631657, 14.732999480259037 ], [ -92.434486779216883, 14.732999480259037 ] ] ] ] } },
{ "type": "Feature", "properties": { "ZONA_MET": "Tapachula", "INTENSIDAD": "Intensa", "T_PROM_POL": 4.0, "T_MIN_CIUD": 3.0, "DIF_TERMIC": 1.0 }, "geometry": { "type": "MultiPolygon", "coordinates": [ [ [ [ -92.430444360438344, 14.730304534406679 ], [ -92.430174865853118, 14.730304534406679 ], [ -92.430174865853118, 14.730035039821443 ], [ -92.429905371267878, 14.730035039821443 ], [ -92.429905371267878, 14.729765545236209 ], [ -92.429366382097413, 14.729765545236209 ], [ -92.429366382097413, 14.729496050650972 ], [ -92.429096887512173, 14.729496050650972 ], [ -92.429096887512173, 14.729226556065736 ], [ -92.429905371267878, 14.729226556065736 ], [ -92.429905371267878, 14.729496050650972 ], [ -92.430713855023583, 14.729496050650972 ], [ -92.430713855023583, 14.730035039821443 ], [ -92.430444360438344, 14.730035039821443 ], [ -92.430444360438344, 14.730304534406679 ] ] ] ] } },
{ "type": "Feature", "properties": { "ZONA_MET": "Tapachula", "INTENSIDAD": "Intensa", "T_PROM_POL": 4.0, "T_MIN_CIUD": 3.0, "DIF_TERMIC": 1.0 }, "geometry": { "type": "MultiPolygon", "coordinates": [ [ [ [ -92.428288403756468, 14.727879083139557 ], [ -92.427749414585989, 14.727879083139557 ], [ -92.427749414585989, 14.727609588554321 ], [ -92.427479920000749, 14.727609588554321 ], [ -92.427479920000749, 14.727340093969085 ], [ -92.427749414585989, 14.727340093969085 ], [ -92.427749414585989, 14.727070599383849 ], [ -92.428288403756468, 14.727070599383849 ], [ -92.428288403756468, 14.726531610213378 ], [ -92.428557898341694, 14.726531610213378 ], [ -92.428557898341694, 14.726262115628142 ], [ -92.429096887512173, 14.726262115628142 ], [ -92.429096887512173, 14.726801104798614 ], [ -92.429366382097413, 14.726801104798614 ], [ -92.429366382097413, 14.727070599383849 ], [ -92.429096887512173, 14.727070599383849 ], [ -92.429096887512173, 14.727340093969085 ], [ -92.428288403756468, 14.727340093969085 ], [ -92.428288403756468, 14.727879083139557 ] ] ] ] } },
{ "type": "Feature", "properties": { "ZONA_MET": "Tapachula", "INTENSIDAD": "Extrema", "T_PROM_POL": 4.0, "T_MIN_CIUD": 3.0, "DIF_TERMIC": 1.0 }, "geometry": { "type": "MultiPolygon", "coordinates": [ [ [ [ -92.429366382097413, 14.726262115628142 ], [ -92.428827392926934, 14.726262115628142 ], [ -92.428827392926934, 14.725992621042906 ], [ -92.428557898341694, 14.725992621042906 ], [ -92.428557898341694, 14.726262115628142 ], [ -92.428018909171229, 14.726262115628142 ], [ -92.428018909171229, 14.725992621042906 ], [ -92.427479920000749, 14.725992621042906 ], [ -92.427479920000749, 14.725184137287199 ], [ -92.427210425415524, 14.725184137287199 ], [ -92.427210425415524, 14.724914642701963 ], [ -92.426940930830284, 14.724914642701963 ], [ -92.426940930830284, 14.72437565353149 ], [ -92.427479920000749, 14.72437565353149 ], [ -92.427479920000749, 14.72383666436102 ], [ -92.428018909171229, 14.72383666436102 ], [ -92.428018909171229, 14.72437565353149 ], [ -92.427749414585989, 14.72437565353149 ], [ -92.427749414585989, 14.72572312645767 ], [ -92.428288403756468, 14.72572312645767 ], [ -92.428288403756468, 14.725453631872433 ], [ -92.428557898341694, 14.725453631872433 ], [ -92.428557898341694, 14.72572312645767 ], [ -92.429366382097413, 14.72572312645767 ], [ -92.429366382097413, 14.726262115628142 ] ] ] ] } },
{ "type": "Feature", "properties": { "ZONA_MET": "Tapachula", "INTENSIDAD": "Intensa", "T_PROM_POL": 4.0, "T_MIN_CIUD": 3.0, "DIF_TERMIC": 1.0 }, "geometry": { "type": "MultiPolygon", "coordinates": [ [ [ [ -92.427210425415524, 14.727070599383849 ], [ -92.426940930830284, 14.727070599383849 ], [ -92.426940930830284, 14.726801104798614 ], [ -92.426671436245044, 14.726801104798614 ], [ -92.426671436245044, 14.726531610213378 ], [ -92.426132447074579, 14.726531610213378 ], [ -92.426132447074579, 14.726262115628142 ], [ -92.425862952489339, 14.726262115628142 ], [ -92.425862952489339, 14.725992621042906 ], [ -92.4255934579041, 14.725992621042906 ], [ -92.4255934579041, 14.72572312645767 ], [ -92.425323963318874, 14.72572312645767 ], [ -92.425323963318874, 14.725453631872433 ], [ -92.425054468733634, 14.725453631872433 ], [ -92.425054468733634, 14.725184137287199 ], [ -92.424784974148395, 14.725184137287199 ], [ -92.424784974148395, 14.724914642701963 ], [ -92.425862952489339, 14.724914642701963 ], [ -92.425862952489339, 14.724645148116727 ], [ -92.425323963318874, 14.724645148116727 ], [ -92.425323963318874, 14.72383666436102 ], [ -92.426132447074579, 14.72383666436102 ], [ -92.426132447074579, 14.723028180605311 ], [ -92.425862952489339, 14.723028180605311 ], [ -92.425862952489339, 14.723297675190548 ], [ -92.4255934579041, 14.723297675190548 ], [ -92.4255934579041, 14.723567169775784 ], [ -92.424784974148395, 14.723567169775784 ], [ -92.424784974148395, 14.723297675190548 ], [ -92.425323963318874, 14.723297675190548 ], [ -92.425323963318874, 14.722758686020075 ], [ -92.425862952489339, 14.722758686020075 ], [ -92.425862952489339, 14.722219696849605 ], [ -92.426401941659819, 14.722219696849605 ], [ -92.426401941659819, 14.722489191434839 ], [ -92.426671436245044, 14.722489191434839 ], [ -92.426671436245044, 14.723297675190548 ], [ -92.426940930830284, 14.723297675190548 ], [ -92.426940930830284, 14.723567169775784 ], [ -92.426671436245044, 14.723567169775784 ], [ -92.426671436245044, 14.724106158946254 ], [ -92.426940930830284, 14.724106158946254 ], [ -92.426940930830284, 14.72383666436102 ], [ -92.427210425415524, 14.72383666436102 ], [ -92.427210425415524, 14.72437565353149 ], [ -92.426940930830284, 14.72437565353149 ], [ -92.426940930830284, 14.724914642701963 ], [ -92.426671436245044, 14.724914642701963 ], [ -92.426671436245044, 14.725184137287199 ], [ -92.426401941659819, 14.725184137287199 ], [ -92.426401941659819, 14.72572312645767 ], [ -92.426671436245044, 14.72572312645767 ], [ -92.426671436245044, 14.725453631872433 ], [ -92.427210425415524, 14.725453631872433 ], [ -92.427210425415524, 14.72572312645767 ], [ -92.426940930830284, 14.72572312645767 ], [ -92.426940930830284, 14.725992621042906 ], [ -92.427210425415524, 14.725992621042906 ], [ -92.427210425415524, 14.727070599383849 ] ] ] ] } },
{ "type": "Feature", "properties": { "ZONA_MET": "Tapachula", "INTENSIDAD": "Intensa", "T_PROM_POL": 4.0, "T_MIN_CIUD": 3.0, "DIF_TERMIC": 1.0 }, "geometry": { "type": "MultiPolygon", "coordinates": [ [ [ [ -92.426671436245044, 14.721680707679132 ], [ -92.426132447074579, 14.721680707679132 ], [ -92.426132447074579, 14.721411213093896 ], [ -92.425862952489339, 14.721411213093896 ], [ -92.425862952489339, 14.721680707679132 ], [ -92.4255934579041, 14.721680707679132 ], [ -92.4255934579041, 14.72114171850866 ], [ -92.425862952489339, 14.72114171850866 ], [ -92.425862952489339, 14.720333234752953 ], [ -92.426132447074579, 14.720333234752953 ], [ -92.426132447074579, 14.720872223923424 ], [ -92.426401941659819, 14.720872223923424 ], [ -92.426401941659819, 14.72114171850866 ], [ -92.426940930830284, 14.72114171850866 ], [ -92.426940930830284, 14.721411213093896 ], [ -92.426671436245044, 14.721411213093896 ], [ -92.426671436245044, 14.721680707679132 ] ] ] ] } },
{ "type": "Feature", "properties": { "ZONA_MET": "Tapachula", "INTENSIDAD": "Intensa", "T_PROM_POL": 4.0, "T_MIN_CIUD": 3.0, "DIF_TERMIC": 1.0 }, "geometry": { "type": "MultiPolygon", "coordinates": [ [ [ [ -92.424515479563155, 14.720872223923424 ], [ -92.423437501222224, 14.720872223923424 ], [ -92.423437501222224, 14.720602729338189 ], [ -92.423168006636985, 14.720602729338189 ], [ -92.423168006636985, 14.720872223923424 ], [ -92.42235952288128, 14.720872223923424 ], [ -92.42235952288128, 14.720602729338189 ], [ -92.422898512051745, 14.720602729338189 ], [ -92.422898512051745, 14.720333234752953 ], [ -92.422629017466505, 14.720333234752953 ], [ -92.422629017466505, 14.719794245582481 ], [ -92.422898512051745, 14.719794245582481 ], [ -92.422898512051745, 14.720063740167717 ], [ -92.423168006636985, 14.720063740167717 ], [ -92.423168006636985, 14.719794245582481 ], [ -92.423437501222224, 14.719794245582481 ], [ -92.423437501222224, 14.720063740167717 ], [ -92.424245984977929, 14.720063740167717 ], [ -92.424245984977929, 14.720602729338189 ], [ -92.424515479563155, 14.720602729338189 ], [ -92.424515479563155, 14.720872223923424 ] ] ] ] } },
{ "type": "Feature", "properties": { "ZONA_MET": "Tapachula", "INTENSIDAD": "Intensa", "T_PROM_POL": 4.0, "T_MIN_CIUD": 3.0, "DIF_TERMIC": 1.0 }, "geometry": { "type": "MultiPolygon", "coordinates": [ [ [ [ -92.4255934579041, 14.720872223923424 ], [ -92.425323963318874, 14.720872223923424 ], [ -92.425323963318874, 14.720333234752953 ], [ -92.425054468733634, 14.720333234752953 ], [ -92.425054468733634, 14.720602729338189 ], [ -92.424784974148395, 14.720602729338189 ], [ -92.424784974148395, 14.720063740167717 ], [ -92.425054468733634, 14.720063740167717 ], [ -92.425054468733634, 14.719794245582481 ], [ -92.4255934579041, 14.719794245582481 ], [ -92.4255934579041, 14.719524750997245 ], [ -92.425862952489339, 14.719524750997245 ], [ -92.425862952489339, 14.719794245582481 ], [ -92.426132447074579, 14.719794245582481 ], [ -92.426132447074579, 14.720063740167717 ], [ -92.425862952489339, 14.720063740167717 ], [ -92.425862952489339, 14.720333234752953 ], [ -92.4255934579041, 14.720333234752953 ], [ -92.4255934579041, 14.720872223923424 ] ] ] ] } },
{ "type": "Feature", "properties": { "ZONA_MET": "Tapachula", "INTENSIDAD": "Intensa", "T_PROM_POL": 4.0, "T_MIN_CIUD": 3.0, "DIF_TERMIC": 1.0 }, "geometry": { "type": "MultiPolygon", "coordinates": [ [ [ [ -92.421281544540335, 14.720872223923424 ], [ -92.420742555369856, 14.720872223923424 ], [ -92.420742555369856, 14.720602729338189 ], [ -92.42047306078463, 14.720602729338189 ], [ -92.42047306078463, 14.720333234752953 ], [ -92.42020356619939, 14.720333234752953 ], [ -92.42020356619939, 14.719794245582481 ], [ -92.42047306078463, 14.719794245582481 ], [ -92.42047306078463, 14.719524750997245 ], [ -92.420742555369856, 14.719524750997245 ], [ -92.420742555369856, 14.719794245582481 ], [ -92.421281544540335, 14.719794245582481 ], [ -92.421281544540335, 14.720063740167717 ], [ -92.421012049955095, 14.720063740167717 ], [ -92.421012049955095, 14.720333234752953 ], [ -92.421281544540335, 14.720333234752953 ], [ -92.421281544540335, 14.720872223923424 ] ] ] ] } },
{ "type": "Feature", "properties": { "ZONA_MET": "Tapachula", "INTENSIDAD": "Intensa", "T_PROM_POL": 4.0, "T_MIN_CIUD": 3.0, "DIF_TERMIC": 1.0 }, "geometry": { "type": "MultiPolygon", "coordinates": [ [ [ [ -92.423168006636985, 14.71925525641201 ], [ -92.421551039125561, 14.71925525641201 ], [ -92.421551039125561, 14.718985761826774 ], [ -92.421281544540335, 14.718985761826774 ], [ -92.421281544540335, 14.718177278071066 ], [ -92.421012049955095, 14.718177278071066 ], [ -92.421012049955095, 14.718446772656302 ], [ -92.420742555369856, 14.718446772656302 ], [ -92.420742555369856, 14.718177278071066 ], [ -92.42047306078463, 14.718177278071066 ], [ -92.42047306078463, 14.717907783485829 ], [ -92.42020356619939, 14.717907783485829 ], [ -92.42020356619939, 14.718177278071066 ], [ -92.418856093273206, 14.718177278071066 ], [ -92.418856093273206, 14.717907783485829 ], [ -92.419125587858446, 14.717907783485829 ], [ -92.419125587858446, 14.717638288900595 ], [ -92.419395082443685, 14.717638288900595 ], [ -92.419395082443685, 14.717907783485829 ], [ -92.419664577028911, 14.717907783485829 ], [ -92.419664577028911, 14.717638288900595 ], [ -92.419934071614151, 14.717638288900595 ], [ -92.419934071614151, 14.717368794315359 ], [ -92.419664577028911, 14.717368794315359 ], [ -92.419664577028911, 14.717099299730123 ], [ -92.419395082443685, 14.717099299730123 ], [ -92.419395082443685, 14.716829805144886 ], [ -92.418317104102741, 14.716829805144886 ], [ -92.418317104102741, 14.71656031055965 ], [ -92.418047609517501, 14.71656031055965 ], [ -92.418047609517501, 14.715751826803944 ], [ -92.418317104102741, 14.715751826803944 ], [ -92.418317104102741, 14.71602132138918 ], [ -92.419125587858446, 14.71602132138918 ], [ -92.419125587858446, 14.716290815974416 ], [ -92.419395082443685, 14.716290815974416 ], [ -92.419395082443685, 14.71656031055965 ], [ -92.419934071614151, 14.71656031055965 ], [ -92.419934071614151, 14.716290815974416 ], [ -92.42047306078463, 14.716290815974416 ], [ -92.42047306078463, 14.71602132138918 ], [ -92.42020356619939, 14.71602132138918 ], [ -92.42020356619939, 14.715751826803944 ], [ -92.42047306078463, 14.715751826803944 ], [ -92.42047306078463, 14.715212837633471 ], [ -92.420742555369856, 14.715212837633471 ], [ -92.420742555369856, 14.715751826803944 ], [ -92.421012049955095, 14.715751826803944 ], [ -92.421012049955095, 14.716290815974416 ], [ -92.42235952288128, 14.716290815974416 ], [ -92.42235952288128, 14.71656031055965 ], [ -92.4218205337108, 14.71656031055965 ], [ -92.4218205337108, 14.717368794315359 ], [ -92.422629017466505, 14.717368794315359 ], [ -92.422629017466505, 14.717638288900595 ], [ -92.422898512051745, 14.717638288900595 ], [ -92.422898512051745, 14.717907783485829 ], [ -92.422629017466505, 14.717907783485829 ], [ -92.422629017466505, 14.718177278071066 ], [ -92.423168006636985, 14.718177278071066 ], [ -92.423168006636985, 14.717638288900595 ], [ -92.423437501222224, 14.717638288900595 ], [ -92.423437501222224, 14.717368794315359 ], [ -92.42370699580745, 14.717368794315359 ], [ -92.42370699580745, 14.718446772656302 ], [ -92.423437501222224, 14.718446772656302 ], [ -92.423437501222224, 14.718716267241538 ], [ -92.422898512051745, 14.718716267241538 ], [ -92.422898512051745, 14.718985761826774 ], [ -92.423168006636985, 14.718985761826774 ], [ -92.423168006636985, 14.71925525641201 ] ], [ [ -92.42235952288128, 14.718985761826774 ], [ -92.42235952288128, 14.718716267241538 ], [ -92.422629017466505, 14.718716267241538 ], [ -92.422629017466505, 14.718446772656302 ], [ -92.42235952288128, 14.718446772656302 ], [ -92.42235952288128, 14.718177278071066 ], [ -92.4218205337108, 14.718177278071066 ], [ -92.4218205337108, 14.718446772656302 ], [ -92.42209002829604, 14.718446772656302 ], [ -92.42209002829604, 14.718985761826774 ], [ -92.42235952288128, 14.718985761826774 ] ], [ [ -92.4218205337108, 14.718177278071066 ], [ -92.4218205337108, 14.717907783485829 ], [ -92.421551039125561, 14.717907783485829 ], [ -92.421551039125561, 14.718177278071066 ], [ -92.4218205337108, 14.718177278071066 ] ], [ [ -92.420742555369856, 14.717638288900595 ], [ -92.420742555369856, 14.717099299730123 ], [ -92.42047306078463, 14.717099299730123 ], [ -92.42047306078463, 14.717638288900595 ], [ -92.420742555369856, 14.717638288900595 ] ], [ [ -92.420742555369856, 14.716829805144886 ], [ -92.420742555369856, 14.71656031055965 ], [ -92.42047306078463, 14.71656031055965 ], [ -92.42047306078463, 14.716829805144886 ], [ -92.420742555369856, 14.716829805144886 ] ] ] ] } },
{ "type": "Feature", "properties": { "ZONA_MET": "Tapachula", "INTENSIDAD": "Intensa", "T_PROM_POL": 4.0, "T_MIN_CIUD": 3.0, "DIF_TERMIC": 1.0 }, "geometry": { "type": "MultiPolygon", "coordinates": [ [ [ [ -92.418047609517501, 14.718177278071066 ], [ -92.417778114932261, 14.718177278071066 ], [ -92.417778114932261, 14.717099299730123 ], [ -92.417239125761796, 14.717099299730123 ], [ -92.417239125761796, 14.716829805144886 ], [ -92.416969631176556, 14.716829805144886 ], [ -92.416969631176556, 14.717099299730123 ], [ -92.416700136591317, 14.717099299730123 ], [ -92.416700136591317, 14.716829805144886 ], [ -92.416430642006091, 14.716829805144886 ], [ -92.416430642006091, 14.71602132138918 ], [ -92.415891652835612, 14.71602132138918 ], [ -92.415891652835612, 14.715482332218707 ], [ -92.416161147420851, 14.715482332218707 ], [ -92.416161147420851, 14.715751826803944 ], [ -92.416430642006091, 14.715751826803944 ], [ -92.416430642006091, 14.714943343048235 ], [ -92.416700136591317, 14.714943343048235 ], [ -92.416700136591317, 14.716290815974416 ], [ -92.417239125761796, 14.716290815974416 ], [ -92.417239125761796, 14.71656031055965 ], [ -92.417508620347036, 14.71656031055965 ], [ -92.417508620347036, 14.716829805144886 ], [ -92.418047609517501, 14.716829805144886 ], [ -92.418047609517501, 14.718177278071066 ] ] ] ] } },
{ "type": "Feature", "properties": { "ZONA_MET": "Tapachula", "INTENSIDAD": "Intensa", "T_PROM_POL": 4.0, "T_MIN_CIUD": 3.0, "DIF_TERMIC": 1.0 }, "geometry": { "type": "MultiPolygon", "coordinates": [ [ [ [ -92.419125587858446, 14.715751826803944 ], [ -92.418586598687966, 14.715751826803944 ], [ -92.418586598687966, 14.715482332218707 ], [ -92.418317104102741, 14.715482332218707 ], [ -92.418317104102741, 14.714943343048235 ], [ -92.418586598687966, 14.714943343048235 ], [ -92.418586598687966, 14.714673848463001 ], [ -92.418317104102741, 14.714673848463001 ], [ -92.418317104102741, 14.714404353877764 ], [ -92.417778114932261, 14.714404353877764 ], [ -92.417778114932261, 14.713865364707292 ], [ -92.418856093273206, 14.713865364707292 ], [ -92.418856093273206, 14.714134859292528 ], [ -92.419125587858446, 14.714134859292528 ], [ -92.419125587858446, 14.714673848463001 ], [ -92.419395082443685, 14.714673848463001 ], [ -92.419395082443685, 14.714943343048235 ], [ -92.419125587858446, 14.714943343048235 ], [ -92.419125587858446, 14.715751826803944 ] ] ] ] } },
{ "type": "Feature", "properties": { "ZONA_MET": "Tapachula", "INTENSIDAD": "Intensa", "T_PROM_POL": 4.0, "T_MIN_CIUD": 3.0, "DIF_TERMIC": 1.0 }, "geometry": { "type": "MultiPolygon", "coordinates": [ [ [ [ -92.417508620347036, 14.714404353877764 ], [ -92.417239125761796, 14.714404353877764 ], [ -92.417239125761796, 14.713595870122056 ], [ -92.416700136591317, 14.713595870122056 ], [ -92.416700136591317, 14.714404353877764 ], [ -92.415891652835612, 14.714404353877764 ], [ -92.415891652835612, 14.713595870122056 ], [ -92.416161147420851, 14.713595870122056 ], [ -92.416161147420851, 14.71332637553682 ], [ -92.415891652835612, 14.71332637553682 ], [ -92.415891652835612, 14.713056880951585 ], [ -92.416430642006091, 14.713056880951585 ], [ -92.416430642006091, 14.71332637553682 ], [ -92.416969631176556, 14.71332637553682 ], [ -92.416969631176556, 14.712787386366349 ], [ -92.416700136591317, 14.712787386366349 ], [ -92.416700136591317, 14.712517891781113 ], [ -92.417239125761796, 14.712517891781113 ], [ -92.417239125761796, 14.713056880951585 ], [ -92.417508620347036, 14.713056880951585 ], [ -92.417508620347036, 14.713595870122056 ], [ -92.417778114932261, 14.713595870122056 ], [ -92.417778114932261, 14.713865364707292 ], [ -92.417508620347036, 14.713865364707292 ], [ -92.417508620347036, 14.714404353877764 ] ] ] ] } },
{ "type": "Feature", "properties": { "ZONA_MET": "Tapachula", "INTENSIDAD": "Extrema", "T_PROM_POL": 4.0, "T_MIN_CIUD": 3.0, "DIF_TERMIC": 1.0 }, "geometry": { "type": "MultiPolygon", "coordinates": [ [ [ [ -92.400260966891935, 14.713595870122056 ], [ -92.39945248313623, 14.713595870122056 ], [ -92.39945248313623, 14.71332637553682 ], [ -92.39918298855099, 14.71332637553682 ], [ -92.39918298855099, 14.713056880951585 ], [ -92.39945248313623, 14.713056880951585 ], [ -92.39945248313623, 14.712517891781113 ], [ -92.39918298855099, 14.712517891781113 ], [ -92.39918298855099, 14.711978902610641 ], [ -92.39945248313623, 14.711978902610641 ], [ -92.39945248313623, 14.712248397195877 ], [ -92.400260966891935, 14.712248397195877 ], [ -92.400260966891935, 14.711978902610641 ], [ -92.4007999560624, 14.711978902610641 ], [ -92.4007999560624, 14.712248397195877 ], [ -92.400530461477175, 14.712248397195877 ], [ -92.400530461477175, 14.71332637553682 ], [ -92.400260966891935, 14.71332637553682 ], [ -92.400260966891935, 14.713595870122056 ] ], [ [ -92.400260966891935, 14.71332637553682 ], [ -92.400260966891935, 14.713056880951585 ], [ -92.399991472306695, 14.713056880951585 ], [ -92.399991472306695, 14.71332637553682 ], [ -92.400260966891935, 14.71332637553682 ] ] ] ] } },
{ "type": "Feature", "properties": { "ZONA_MET": "Tapachula", "INTENSIDAD": "Extrema", "T_PROM_POL": 4.0, "T_MIN_CIUD": 3.0, "DIF_TERMIC": 1.0 }, "geometry": { "type": "MultiPolygon", "coordinates": [ [ [ [ -92.394062591431506, 14.708744967587812 ], [ -92.393793096846267, 14.708744967587812 ], [ -92.393793096846267, 14.70820597841734 ], [ -92.393523602261041, 14.70820597841734 ], [ -92.393523602261041, 14.708475473002576 ], [ -92.393254107675801, 14.708475473002576 ], [ -92.393254107675801, 14.708744967587812 ], [ -92.392984613090562, 14.708744967587812 ], [ -92.392984613090562, 14.708475473002576 ], [ -92.392715118505336, 14.708475473002576 ], [ -92.392715118505336, 14.70820597841734 ], [ -92.392445623920096, 14.70820597841734 ], [ -92.392445623920096, 14.707936483832103 ], [ -92.393254107675801, 14.707936483832103 ], [ -92.393254107675801, 14.707397494661631 ], [ -92.393793096846267, 14.707397494661631 ], [ -92.393793096846267, 14.707666989246867 ], [ -92.394062591431506, 14.707666989246867 ], [ -92.394062591431506, 14.708744967587812 ] ] ] ] } },
{ "type": "Feature", "properties": { "ZONA_MET": "Tapachula", "INTENSIDAD": "Intensa", "T_PROM_POL": 4.0, "T_MIN_CIUD": 3.0, "DIF_TERMIC": 1.0 }, "geometry": { "type": "MultiPolygon", "coordinates": [ [ [ [ -92.396757537283861, 14.709553451343519 ], [ -92.396218548113396, 14.709553451343519 ], [ -92.396218548113396, 14.709014462173046 ], [ -92.396488042698635, 14.709014462173046 ], [ -92.396488042698635, 14.708475473002576 ], [ -92.396757537283861, 14.708475473002576 ], [ -92.396757537283861, 14.70820597841734 ], [ -92.396488042698635, 14.70820597841734 ], [ -92.396488042698635, 14.707397494661631 ], [ -92.396757537283861, 14.707397494661631 ], [ -92.396757537283861, 14.70685850549116 ], [ -92.39729652645434, 14.70685850549116 ], [ -92.39729652645434, 14.707397494661631 ], [ -92.397835515624806, 14.707397494661631 ], [ -92.397835515624806, 14.707936483832103 ], [ -92.398105010210045, 14.707936483832103 ], [ -92.398105010210045, 14.707666989246867 ], [ -92.398374504795285, 14.707666989246867 ], [ -92.398374504795285, 14.70820597841734 ], [ -92.398105010210045, 14.70820597841734 ], [ -92.398105010210045, 14.708744967587812 ], [ -92.39756602103958, 14.708744967587812 ], [ -92.39756602103958, 14.70820597841734 ], [ -92.397027031869101, 14.70820597841734 ], [ -92.397027031869101, 14.708744967587812 ], [ -92.396757537283861, 14.708744967587812 ], [ -92.396757537283861, 14.709553451343519 ] ], [ [ -92.397027031869101, 14.707666989246867 ], [ -92.397027031869101, 14.707397494661631 ], [ -92.396757537283861, 14.707397494661631 ], [ -92.396757537283861, 14.707666989246867 ], [ -92.397027031869101, 14.707666989246867 ] ] ] ] } },
{ "type": "Feature", "properties": { "ZONA_MET": "Tapachula", "INTENSIDAD": "Extrema", "T_PROM_POL": 4.0, "T_MIN_CIUD": 3.0, "DIF_TERMIC": 1.0 }, "geometry": { "type": "MultiPolygon", "coordinates": [ [ [ [ -92.396488042698635, 14.706589010905924 ], [ -92.395949053528156, 14.706589010905924 ], [ -92.395949053528156, 14.706050021735452 ], [ -92.395410064357691, 14.706050021735452 ], [ -92.395410064357691, 14.705780527150218 ], [ -92.39567955894293, 14.705780527150218 ], [ -92.39567955894293, 14.705241537979745 ], [ -92.396218548113396, 14.705241537979745 ], [ -92.396218548113396, 14.704972043394509 ], [ -92.396757537283861, 14.704972043394509 ], [ -92.396757537283861, 14.705241537979745 ], [ -92.398374504795285, 14.705241537979745 ], [ -92.398374504795285, 14.705511032564981 ], [ -92.397835515624806, 14.705511032564981 ], [ -92.397835515624806, 14.705780527150218 ], [ -92.39729652645434, 14.705780527150218 ], [ -92.39729652645434, 14.706050021735452 ], [ -92.397027031869101, 14.706050021735452 ], [ -92.397027031869101, 14.705780527150218 ], [ -92.396757537283861, 14.705780527150218 ], [ -92.396757537283861, 14.706050021735452 ], [ -92.396488042698635, 14.706050021735452 ], [ -92.396488042698635, 14.706589010905924 ] ] ] ] } },
{ "type": "Feature", "properties": { "ZONA_MET": "Tapachula", "INTENSIDAD": "Intensa", "T_PROM_POL": 4.0, "T_MIN_CIUD": 3.0, "DIF_TERMIC": 1.0 }, "geometry": { "type": "MultiPolygon", "coordinates": [ [ [ [ -92.412927212398017, 14.707936483832103 ], [ -92.412657717812777, 14.707936483832103 ], [ -92.412657717812777, 14.707666989246867 ], [ -92.412388223227552, 14.707666989246867 ], [ -92.412388223227552, 14.707397494661631 ], [ -92.411579739471833, 14.707397494661631 ], [ -92.411579739471833, 14.707128000076397 ], [ -92.411040750301368, 14.707128000076397 ], [ -92.411040750301368, 14.706589010905924 ], [ -92.410232266545663, 14.706589010905924 ], [ -92.410232266545663, 14.706319516320688 ], [ -92.409693277375183, 14.706319516320688 ], [ -92.409693277375183, 14.706589010905924 ], [ -92.409423782789958, 14.706589010905924 ], [ -92.409423782789958, 14.705780527150218 ], [ -92.408884793619478, 14.705780527150218 ], [ -92.408884793619478, 14.705511032564981 ], [ -92.408076309863773, 14.705511032564981 ], [ -92.408076309863773, 14.704433054224037 ], [ -92.407806815278533, 14.704433054224037 ], [ -92.407806815278533, 14.70362457046833 ], [ -92.408345804449013, 14.70362457046833 ], [ -92.408345804449013, 14.703894065053566 ], [ -92.408615299034238, 14.703894065053566 ], [ -92.408615299034238, 14.704433054224037 ], [ -92.408884793619478, 14.704433054224037 ], [ -92.408884793619478, 14.704702548809273 ], [ -92.409154288204718, 14.704702548809273 ], [ -92.409154288204718, 14.704972043394509 ], [ -92.409423782789958, 14.704972043394509 ], [ -92.409423782789958, 14.705241537979745 ], [ -92.409154288204718, 14.705241537979745 ], [ -92.409154288204718, 14.705511032564981 ], [ -92.409693277375183, 14.705511032564981 ], [ -92.409693277375183, 14.705780527150218 ], [ -92.410232266545663, 14.705780527150218 ], [ -92.410232266545663, 14.705241537979745 ], [ -92.410501761130902, 14.705241537979745 ], [ -92.410501761130902, 14.706050021735452 ], [ -92.411040750301368, 14.706050021735452 ], [ -92.411040750301368, 14.706319516320688 ], [ -92.411579739471833, 14.706319516320688 ], [ -92.411579739471833, 14.706589010905924 ], [ -92.412118728642312, 14.706589010905924 ], [ -92.412118728642312, 14.707128000076397 ], [ -92.412657717812777, 14.707128000076397 ], [ -92.412657717812777, 14.707397494661631 ], [ -92.412927212398017, 14.707397494661631 ], [ -92.412927212398017, 14.707936483832103 ] ], [ [ -92.408345804449013, 14.704433054224037 ], [ -92.408345804449013, 14.704163559638802 ], [ -92.408076309863773, 14.704163559638802 ], [ -92.408076309863773, 14.704433054224037 ], [ -92.408345804449013, 14.704433054224037 ] ] ] ] } },
{ "type": "Feature", "properties": { "ZONA_MET": "Tapachula", "INTENSIDAD": "Intensa", "T_PROM_POL": 4.0, "T_MIN_CIUD": 3.0, "DIF_TERMIC": 1.0 }, "geometry": { "type": "MultiPolygon", "coordinates": [ [ [ [ -92.401608439818119, 14.697156700422669 ], [ -92.399991472306695, 14.697156700422669 ], [ -92.399991472306695, 14.696617711252198 ], [ -92.39945248313623, 14.696617711252198 ], [ -92.39945248313623, 14.696078722081726 ], [ -92.399991472306695, 14.696078722081726 ], [ -92.399991472306695, 14.696348216666962 ], [ -92.400260966891935, 14.696348216666962 ], [ -92.400260966891935, 14.696617711252198 ], [ -92.400530461477175, 14.696617711252198 ], [ -92.400530461477175, 14.696887205837433 ], [ -92.401608439818119, 14.696887205837433 ], [ -92.401608439818119, 14.697156700422669 ] ] ] ] } },
{ "type": "Feature", "properties": { "ZONA_MET": "Tapachula", "INTENSIDAD": "Extrema", "T_PROM_POL": 5.0, "T_MIN_CIUD": 3.0, "DIF_TERMIC": 1.0 }, "geometry": { "type": "MultiPolygon", "coordinates": [ [ [ [ -92.390020172652967, 14.682873487405169 ], [ -92.389750678067742, 14.682873487405169 ], [ -92.389750678067742, 14.682065003649461 ], [ -92.389481183482502, 14.682065003649461 ], [ -92.389481183482502, 14.681795509064225 ], [ -92.389211688897262, 14.681795509064225 ], [ -92.389211688897262, 14.681256519893754 ], [ -92.389481183482502, 14.681256519893754 ], [ -92.389481183482502, 14.680987025308518 ], [ -92.389750678067742, 14.680987025308518 ], [ -92.389750678067742, 14.681256519893754 ], [ -92.390020172652967, 14.681256519893754 ], [ -92.390020172652967, 14.68152601447899 ], [ -92.389750678067742, 14.68152601447899 ], [ -92.389750678067742, 14.681795509064225 ], [ -92.390559161823447, 14.681795509064225 ], [ -92.390559161823447, 14.682065003649461 ], [ -92.390289667238207, 14.682065003649461 ], [ -92.390289667238207, 14.682603992819933 ], [ -92.390020172652967, 14.682603992819933 ], [ -92.390020172652967, 14.682873487405169 ] ] ] ] } },
{ "type": "Feature", "properties": { "ZONA_MET": "Tapachula", "INTENSIDAD": "Extrema", "T_PROM_POL": 4.0, "T_MIN_CIUD": 3.0, "DIF_TERMIC": 1.0 }, "geometry": { "type": "MultiPolygon", "coordinates": [ [ [ [ -92.387325226800613, 14.680178541552811 ], [ -92.387055732215373, 14.680178541552811 ], [ -92.387055732215373, 14.679639552382339 ], [ -92.386247248459668, 14.679639552382339 ], [ -92.386247248459668, 14.679370057797103 ], [ -92.386516743044908, 14.679370057797103 ], [ -92.386516743044908, 14.679100563211867 ], [ -92.387055732215373, 14.679100563211867 ], [ -92.387055732215373, 14.67883106862663 ], [ -92.387325226800613, 14.67883106862663 ], [ -92.387325226800613, 14.679100563211867 ], [ -92.387594721385852, 14.679100563211867 ], [ -92.387594721385852, 14.679909046967575 ], [ -92.387325226800613, 14.679909046967575 ], [ -92.387325226800613, 14.680178541552811 ] ] ] ] } }
]
}
