{
"type": "FeatureCollection",
"name": "UHI_Coatzacoalcos",
"crs": { "type": "name", "properties": { "name": "urn:ogc:def:crs:OGC:1.3:CRS84" } },
"features": [
{ "type": "Feature", "properties": { "ZONA_MET": "Coatzacoalcos", "INTENSIDAD": "Intensa", "T_PROM_POL": 4.0, "T_MIN_CIUD": 2.0, "DIF_TERMIC": 1.0 }, "geometry": { "type": "MultiPolygon", "coordinates": [ [ [ [ -94.378890211693587, 18.158006164021536 ], [ -94.378081727937882, 18.158006164021536 ], [ -94.378081727937882, 18.1577366694363 ], [ -94.378351222523108, 18.1577366694363 ], [ -94.378351222523108, 18.156658691095359 ], [ -94.379429200864053, 18.156658691095359 ], [ -94.379429200864053, 18.156928185680595 ], [ -94.379968190034532, 18.156928185680595 ], [ -94.379968190034532, 18.157197680265831 ], [ -94.379159706278827, 18.157197680265831 ], [ -94.379159706278827, 18.1577366694363 ], [ -94.378890211693587, 18.1577366694363 ], [ -94.378890211693587, 18.158006164021536 ] ] ] ] } },
{ "type": "Feature", "properties": { "ZONA_MET": "Coatzacoalcos", "INTENSIDAD": "Intensa", "T_PROM_POL": 4.0, "T_MIN_CIUD": 2.0, "DIF_TERMIC": 1.0 }, "geometry": { "type": "MultiPolygon", "coordinates": [ [ [ [ -94.396407359733914, 18.158814647777245 ], [ -94.396137865148674, 18.158814647777245 ], [ -94.396137865148674, 18.158006164021536 ], [ -94.394790392222504, 18.158006164021536 ], [ -94.394790392222504, 18.156658691095359 ], [ -94.395329381392969, 18.156658691095359 ], [ -94.395329381392969, 18.156389196510123 ], [ -94.395598875978209, 18.156389196510123 ], [ -94.395598875978209, 18.156658691095359 ], [ -94.395868370563448, 18.156658691095359 ], [ -94.395868370563448, 18.156928185680595 ], [ -94.396407359733914, 18.156928185680595 ], [ -94.396407359733914, 18.157197680265831 ], [ -94.396676854319153, 18.157197680265831 ], [ -94.396676854319153, 18.157467174851064 ], [ -94.396946348904393, 18.157467174851064 ], [ -94.396946348904393, 18.1577366694363 ], [ -94.397215843489619, 18.1577366694363 ], [ -94.397215843489619, 18.157467174851064 ], [ -94.397485338074858, 18.157467174851064 ], [ -94.397485338074858, 18.1577366694363 ], [ -94.397754832660098, 18.1577366694363 ], [ -94.397754832660098, 18.158006164021536 ], [ -94.398024327245324, 18.158006164021536 ], [ -94.398024327245324, 18.158275658606772 ], [ -94.397485338074858, 18.158275658606772 ], [ -94.397485338074858, 18.158006164021536 ], [ -94.397215843489619, 18.158006164021536 ], [ -94.397215843489619, 18.158275658606772 ], [ -94.396676854319153, 18.158275658606772 ], [ -94.396676854319153, 18.158545153192009 ], [ -94.396407359733914, 18.158545153192009 ], [ -94.396407359733914, 18.158814647777245 ] ], [ [ -94.396676854319153, 18.158006164021536 ], [ -94.396676854319153, 18.157467174851064 ], [ -94.396137865148674, 18.157467174851064 ], [ -94.396137865148674, 18.157197680265831 ], [ -94.395598875978209, 18.157197680265831 ], [ -94.395598875978209, 18.1577366694363 ], [ -94.396407359733914, 18.1577366694363 ], [ -94.396407359733914, 18.158006164021536 ], [ -94.396676854319153, 18.158006164021536 ] ] ] ] } },
{ "type": "Feature", "properties": { "ZONA_MET": "Coatzacoalcos", "INTENSIDAD": "Intensa", "T_PROM_POL": 4.0, "T_MIN_CIUD": 2.0, "DIF_TERMIC": 1.0 }, "geometry": { "type": "MultiPolygon", "coordinates": [ [ [ [ -94.557026132534489, 18.163935044896725 ], [ -94.556756637949249, 18.163935044896725 ], [ -94.556756637949249, 18.162857066555784 ], [ -94.555948154193544, 18.162857066555784 ], [ -94.555948154193544, 18.162587571970548 ], [ -94.555409165023079, 18.162587571970548 ], [ -94.555409165023079, 18.163396055726256 ], [ -94.555678659608304, 18.163396055726256 ], [ -94.555678659608304, 18.16312656114102 ], [ -94.555948154193544, 18.16312656114102 ], [ -94.555948154193544, 18.163935044896725 ], [ -94.555409165023079, 18.163935044896725 ], [ -94.555409165023079, 18.163665550311489 ], [ -94.555139670437839, 18.163665550311489 ], [ -94.555139670437839, 18.162857066555784 ], [ -94.554331186682134, 18.162857066555784 ], [ -94.554331186682134, 18.16312656114102 ], [ -94.554061692096894, 18.16312656114102 ], [ -94.554061692096894, 18.163935044896725 ], [ -94.553522702926429, 18.163935044896725 ], [ -94.553522702926429, 18.163396055726256 ], [ -94.553253208341189, 18.163396055726256 ], [ -94.553253208341189, 18.163935044896725 ], [ -94.55298371375595, 18.163935044896725 ], [ -94.55298371375595, 18.163665550311489 ], [ -94.55271421917071, 18.163665550311489 ], [ -94.55271421917071, 18.162857066555784 ], [ -94.552444724585484, 18.162857066555784 ], [ -94.552444724585484, 18.162587571970548 ], [ -94.55298371375595, 18.162587571970548 ], [ -94.55298371375595, 18.162857066555784 ], [ -94.554061692096894, 18.162857066555784 ], [ -94.554061692096894, 18.162318077385311 ], [ -94.554331186682134, 18.162318077385311 ], [ -94.554331186682134, 18.162048582800075 ], [ -94.554870175852599, 18.162048582800075 ], [ -94.554870175852599, 18.161240099044367 ], [ -94.554061692096894, 18.161240099044367 ], [ -94.554061692096894, 18.160970604459131 ], [ -94.553792197511655, 18.160970604459131 ], [ -94.553792197511655, 18.159892626118189 ], [ -94.554061692096894, 18.159892626118189 ], [ -94.554061692096894, 18.159084142362481 ], [ -94.554331186682134, 18.159084142362481 ], [ -94.554331186682134, 18.158006164021536 ], [ -94.555678659608304, 18.158006164021536 ], [ -94.555678659608304, 18.158275658606772 ], [ -94.555948154193544, 18.158275658606772 ], [ -94.555948154193544, 18.156119701924887 ], [ -94.557834616290194, 18.156119701924887 ], [ -94.557834616290194, 18.156658691095359 ], [ -94.557295627119728, 18.156658691095359 ], [ -94.557295627119728, 18.157197680265831 ], [ -94.557565121704954, 18.157197680265831 ], [ -94.557565121704954, 18.156928185680595 ], [ -94.557834616290194, 18.156928185680595 ], [ -94.557834616290194, 18.157467174851064 ], [ -94.557295627119728, 18.157467174851064 ], [ -94.557295627119728, 18.158006164021536 ], [ -94.556756637949249, 18.158006164021536 ], [ -94.556756637949249, 18.158545153192009 ], [ -94.557295627119728, 18.158545153192009 ], [ -94.557295627119728, 18.159084142362481 ], [ -94.558104110875433, 18.159084142362481 ], [ -94.558104110875433, 18.159623131532953 ], [ -94.559182089216378, 18.159623131532953 ], [ -94.559182089216378, 18.159892626118189 ], [ -94.557834616290194, 18.159892626118189 ], [ -94.557834616290194, 18.159623131532953 ], [ -94.557565121704954, 18.159623131532953 ], [ -94.557565121704954, 18.160162120703426 ], [ -94.557295627119728, 18.160162120703426 ], [ -94.557295627119728, 18.160431615288662 ], [ -94.555948154193544, 18.160431615288662 ], [ -94.555948154193544, 18.160162120703426 ], [ -94.555678659608304, 18.160162120703426 ], [ -94.555678659608304, 18.160431615288662 ], [ -94.555409165023079, 18.160431615288662 ], [ -94.555409165023079, 18.160701109873894 ], [ -94.555139670437839, 18.160701109873894 ], [ -94.555139670437839, 18.161509593629603 ], [ -94.555409165023079, 18.161509593629603 ], [ -94.555409165023079, 18.160970604459131 ], [ -94.555948154193544, 18.160970604459131 ], [ -94.555948154193544, 18.160701109873894 ], [ -94.556756637949249, 18.160701109873894 ], [ -94.556756637949249, 18.161509593629603 ], [ -94.557295627119728, 18.161509593629603 ], [ -94.557295627119728, 18.161779088214839 ], [ -94.557026132534489, 18.161779088214839 ], [ -94.557026132534489, 18.162857066555784 ], [ -94.557295627119728, 18.162857066555784 ], [ -94.557295627119728, 18.163396055726256 ], [ -94.557026132534489, 18.163396055726256 ], [ -94.557026132534489, 18.163935044896725 ] ], [ [ -94.556487143364023, 18.161779088214839 ], [ -94.556487143364023, 18.161509593629603 ], [ -94.556217648778784, 18.161509593629603 ], [ -94.556217648778784, 18.161779088214839 ], [ -94.556487143364023, 18.161779088214839 ] ], [ [ -94.556487143364023, 18.160162120703426 ], [ -94.556487143364023, 18.159623131532953 ], [ -94.557295627119728, 18.159623131532953 ], [ -94.557295627119728, 18.159084142362481 ], [ -94.557026132534489, 18.159084142362481 ], [ -94.557026132534489, 18.159353636947717 ], [ -94.556756637949249, 18.159353636947717 ], [ -94.556756637949249, 18.159084142362481 ], [ -94.556487143364023, 18.159084142362481 ], [ -94.556487143364023, 18.159353636947717 ], [ -94.555948154193544, 18.159353636947717 ], [ -94.555948154193544, 18.159892626118189 ], [ -94.556217648778784, 18.159892626118189 ], [ -94.556217648778784, 18.160162120703426 ], [ -94.556487143364023, 18.160162120703426 ] ], [ [ -94.555139670437839, 18.159353636947717 ], [ -94.555139670437839, 18.159084142362481 ], [ -94.55460068126736, 18.159084142362481 ], [ -94.55460068126736, 18.159353636947717 ], [ -94.555139670437839, 18.159353636947717 ] ], [ [ -94.556217648778784, 18.158814647777245 ], [ -94.556217648778784, 18.158545153192009 ], [ -94.555948154193544, 18.158545153192009 ], [ -94.555948154193544, 18.158814647777245 ], [ -94.556217648778784, 18.158814647777245 ] ], [ [ -94.555678659608304, 18.158814647777245 ], [ -94.555678659608304, 18.158545153192009 ], [ -94.555139670437839, 18.158545153192009 ], [ -94.555139670437839, 18.158814647777245 ], [ -94.555678659608304, 18.158814647777245 ] ], [ [ -94.556487143364023, 18.158275658606772 ], [ -94.556487143364023, 18.158006164021536 ], [ -94.556217648778784, 18.158006164021536 ], [ -94.556217648778784, 18.158275658606772 ], [ -94.556487143364023, 18.158275658606772 ] ] ] ] } },
{ "type": "Feature", "properties": { "ZONA_MET": "Coatzacoalcos", "INTENSIDAD": "Intensa", "T_PROM_POL": 4.0, "T_MIN_CIUD": 2.0, "DIF_TERMIC": 1.0 }, "geometry": { "type": "MultiPolygon", "coordinates": [ [ [ [ -94.400449778512453, 18.158545153192009 ], [ -94.399910789341988, 18.158545153192009 ], [ -94.399910789341988, 18.156658691095359 ], [ -94.400180283927213, 18.156658691095359 ], [ -94.400180283927213, 18.156389196510123 ], [ -94.399641294756748, 18.156389196510123 ], [ -94.399641294756748, 18.156658691095359 ], [ -94.399371800171508, 18.156658691095359 ], [ -94.399371800171508, 18.156119701924887 ], [ -94.399641294756748, 18.156119701924887 ], [ -94.399641294756748, 18.15585020733965 ], [ -94.400988767682918, 18.15585020733965 ], [ -94.400988767682918, 18.156119701924887 ], [ -94.401258262268158, 18.156119701924887 ], [ -94.401258262268158, 18.15585020733965 ], [ -94.401797251438637, 18.15585020733965 ], [ -94.401797251438637, 18.156389196510123 ], [ -94.400988767682918, 18.156389196510123 ], [ -94.400988767682918, 18.158006164021536 ], [ -94.400449778512453, 18.158006164021536 ], [ -94.400449778512453, 18.158545153192009 ] ], [ [ -94.400719273097693, 18.157197680265831 ], [ -94.400719273097693, 18.156928185680595 ], [ -94.400449778512453, 18.156928185680595 ], [ -94.400449778512453, 18.157197680265831 ], [ -94.400719273097693, 18.157197680265831 ] ] ] ] } },
{ "type": "Feature", "properties": { "ZONA_MET": "Coatzacoalcos", "INTENSIDAD": "Intensa", "T_PROM_POL": 4.0, "T_MIN_CIUD": 2.0, "DIF_TERMIC": 1.0 }, "geometry": { "type": "MultiPolygon", "coordinates": [ [ [ [ -94.396946348904393, 18.156928185680595 ], [ -94.396407359733914, 18.156928185680595 ], [ -94.396407359733914, 18.15585020733965 ], [ -94.397215843489619, 18.15585020733965 ], [ -94.397215843489619, 18.154772228998706 ], [ -94.398024327245324, 18.154772228998706 ], [ -94.398024327245324, 18.155311218169178 ], [ -94.397754832660098, 18.155311218169178 ], [ -94.397754832660098, 18.15585020733965 ], [ -94.397485338074858, 18.15585020733965 ], [ -94.397485338074858, 18.156119701924887 ], [ -94.397215843489619, 18.156119701924887 ], [ -94.397215843489619, 18.156389196510123 ], [ -94.396676854319153, 18.156389196510123 ], [ -94.396676854319153, 18.156658691095359 ], [ -94.396946348904393, 18.156658691095359 ], [ -94.396946348904393, 18.156928185680595 ] ] ] ] } },
{ "type": "Feature", "properties": { "ZONA_MET": "Coatzacoalcos", "INTENSIDAD": "Intensa", "T_PROM_POL": 4.0, "T_MIN_CIUD": 2.0, "DIF_TERMIC": 1.0 }, "geometry": { "type": "MultiPolygon", "coordinates": [ [ [ [ -94.39317342471108, 18.158006164021536 ], [ -94.392903930125854, 18.158006164021536 ], [ -94.392903930125854, 18.1577366694363 ], [ -94.392095446370135, 18.1577366694363 ], [ -94.392095446370135, 18.158006164021536 ], [ -94.391017468029204, 18.158006164021536 ], [ -94.391017468029204, 18.157197680265831 ], [ -94.390747973443965, 18.157197680265831 ], [ -94.390747973443965, 18.156928185680595 ], [ -94.392095446370135, 18.156928185680595 ], [ -94.392095446370135, 18.157197680265831 ], [ -94.392634435540614, 18.157197680265831 ], [ -94.392634435540614, 18.156389196510123 ], [ -94.392364940955375, 18.156389196510123 ], [ -94.392364940955375, 18.15585020733965 ], [ -94.391825951784909, 18.15585020733965 ], [ -94.391825951784909, 18.155580712754414 ], [ -94.392095446370135, 18.155580712754414 ], [ -94.392095446370135, 18.155311218169178 ], [ -94.392364940955375, 18.155311218169178 ], [ -94.392364940955375, 18.155041723583942 ], [ -94.392634435540614, 18.155041723583942 ], [ -94.392634435540614, 18.15450273441347 ], [ -94.392903930125854, 18.15450273441347 ], [ -94.392903930125854, 18.154233239828237 ], [ -94.39317342471108, 18.154233239828237 ], [ -94.39317342471108, 18.154772228998706 ], [ -94.393442919296319, 18.154772228998706 ], [ -94.393442919296319, 18.155041723583942 ], [ -94.393981908466799, 18.155041723583942 ], [ -94.393981908466799, 18.153963745243001 ], [ -94.394520897637264, 18.153963745243001 ], [ -94.394520897637264, 18.154233239828237 ], [ -94.395329381392969, 18.154233239828237 ], [ -94.395329381392969, 18.15450273441347 ], [ -94.395059886807729, 18.15450273441347 ], [ -94.395059886807729, 18.154772228998706 ], [ -94.394790392222504, 18.154772228998706 ], [ -94.394790392222504, 18.155311218169178 ], [ -94.395059886807729, 18.155311218169178 ], [ -94.395059886807729, 18.155580712754414 ], [ -94.395598875978209, 18.155580712754414 ], [ -94.395598875978209, 18.15585020733965 ], [ -94.394790392222504, 18.15585020733965 ], [ -94.394790392222504, 18.156119701924887 ], [ -94.394251403052024, 18.156119701924887 ], [ -94.394251403052024, 18.15585020733965 ], [ -94.393981908466799, 18.15585020733965 ], [ -94.393981908466799, 18.155580712754414 ], [ -94.393442919296319, 18.155580712754414 ], [ -94.393442919296319, 18.15585020733965 ], [ -94.39317342471108, 18.15585020733965 ], [ -94.39317342471108, 18.156119701924887 ], [ -94.393442919296319, 18.156119701924887 ], [ -94.393442919296319, 18.156658691095359 ], [ -94.39317342471108, 18.156658691095359 ], [ -94.39317342471108, 18.158006164021536 ] ], [ [ -94.39317342471108, 18.156658691095359 ], [ -94.39317342471108, 18.156389196510123 ], [ -94.392903930125854, 18.156389196510123 ], [ -94.392903930125854, 18.156658691095359 ], [ -94.39317342471108, 18.156658691095359 ] ], [ [ -94.394520897637264, 18.155580712754414 ], [ -94.394520897637264, 18.155041723583942 ], [ -94.394251403052024, 18.155041723583942 ], [ -94.394251403052024, 18.155580712754414 ], [ -94.394520897637264, 18.155580712754414 ] ], [ [ -94.39317342471108, 18.155311218169178 ], [ -94.39317342471108, 18.155041723583942 ], [ -94.392903930125854, 18.155041723583942 ], [ -94.392903930125854, 18.155311218169178 ], [ -94.39317342471108, 18.155311218169178 ] ] ] ] } },
{ "type": "Feature", "properties": { "ZONA_MET": "Coatzacoalcos", "INTENSIDAD": "Intensa", "T_PROM_POL": 4.0, "T_MIN_CIUD": 2.0, "DIF_TERMIC": 1.0 }, "geometry": { "type": "MultiPolygon", "coordinates": [ [ [ [ -94.557565121704954, 18.15450273441347 ], [ -94.556756637949249, 18.15450273441347 ], [ -94.556756637949249, 18.154233239828237 ], [ -94.556487143364023, 18.154233239828237 ], [ -94.556487143364023, 18.153963745243001 ], [ -94.556217648778784, 18.153963745243001 ], [ -94.556217648778784, 18.153155261487292 ], [ -94.556487143364023, 18.153155261487292 ], [ -94.556487143364023, 18.153424756072528 ], [ -94.557026132534489, 18.153424756072528 ], [ -94.557026132534489, 18.153694250657765 ], [ -94.556756637949249, 18.153694250657765 ], [ -94.556756637949249, 18.153963745243001 ], [ -94.557565121704954, 18.153963745243001 ], [ -94.557565121704954, 18.15450273441347 ] ] ] ] } },
{ "type": "Feature", "properties": { "ZONA_MET": "Coatzacoalcos", "INTENSIDAD": "Intensa", "T_PROM_POL": 4.0, "T_MIN_CIUD": 2.0, "DIF_TERMIC": 1.0 }, "geometry": { "type": "MultiPolygon", "coordinates": [ [ [ [ -94.39317342471108, 18.153155261487292 ], [ -94.392634435540614, 18.153155261487292 ], [ -94.392634435540614, 18.152346777731584 ], [ -94.392095446370135, 18.152346777731584 ], [ -94.392095446370135, 18.152077283146347 ], [ -94.392364940955375, 18.152077283146347 ], [ -94.392364940955375, 18.151807788561111 ], [ -94.392634435540614, 18.151807788561111 ], [ -94.392634435540614, 18.151538293975875 ], [ -94.392903930125854, 18.151538293975875 ], [ -94.392903930125854, 18.151807788561111 ], [ -94.39317342471108, 18.151807788561111 ], [ -94.39317342471108, 18.153155261487292 ] ] ] ] } },
{ "type": "Feature", "properties": { "ZONA_MET": "Coatzacoalcos", "INTENSIDAD": "Intensa", "T_PROM_POL": 4.0, "T_MIN_CIUD": 2.0, "DIF_TERMIC": 1.0 }, "geometry": { "type": "MultiPolygon", "coordinates": [ [ [ [ -94.391017468029204, 18.153155261487292 ], [ -94.390747973443965, 18.153155261487292 ], [ -94.390747973443965, 18.152885766902056 ], [ -94.390478478858725, 18.152885766902056 ], [ -94.390478478858725, 18.15261627231682 ], [ -94.38993948968826, 18.15261627231682 ], [ -94.38993948968826, 18.152346777731584 ], [ -94.390747973443965, 18.152346777731584 ], [ -94.390747973443965, 18.152077283146347 ], [ -94.391017468029204, 18.152077283146347 ], [ -94.391017468029204, 18.151807788561111 ], [ -94.391825951784909, 18.151807788561111 ], [ -94.391825951784909, 18.151538293975875 ], [ -94.39128696261443, 18.151538293975875 ], [ -94.39128696261443, 18.151268799390643 ], [ -94.392095446370135, 18.151268799390643 ], [ -94.392095446370135, 18.152077283146347 ], [ -94.39155645719967, 18.152077283146347 ], [ -94.39155645719967, 18.152346777731584 ], [ -94.391017468029204, 18.152346777731584 ], [ -94.391017468029204, 18.153155261487292 ] ] ] ] } },
{ "type": "Feature", "properties": { "ZONA_MET": "Coatzacoalcos", "INTENSIDAD": "Intensa", "T_PROM_POL": 4.0, "T_MIN_CIUD": 2.0, "DIF_TERMIC": 1.0 }, "geometry": { "type": "MultiPolygon", "coordinates": [ [ [ [ -94.554870175852599, 18.153963745243001 ], [ -94.55460068126736, 18.153963745243001 ], [ -94.55460068126736, 18.153694250657765 ], [ -94.554331186682134, 18.153694250657765 ], [ -94.554331186682134, 18.153424756072528 ], [ -94.554870175852599, 18.153424756072528 ], [ -94.554870175852599, 18.153155261487292 ], [ -94.553792197511655, 18.153155261487292 ], [ -94.553792197511655, 18.151807788561111 ], [ -94.554061692096894, 18.151807788561111 ], [ -94.554061692096894, 18.151268799390643 ], [ -94.554331186682134, 18.151268799390643 ], [ -94.554331186682134, 18.150999304805406 ], [ -94.553792197511655, 18.150999304805406 ], [ -94.553792197511655, 18.150460315634934 ], [ -94.554061692096894, 18.150460315634934 ], [ -94.554061692096894, 18.150190821049698 ], [ -94.554331186682134, 18.150190821049698 ], [ -94.554331186682134, 18.149921326464462 ], [ -94.554870175852599, 18.149921326464462 ], [ -94.554870175852599, 18.150190821049698 ], [ -94.555139670437839, 18.150190821049698 ], [ -94.555139670437839, 18.149921326464462 ], [ -94.555678659608304, 18.149921326464462 ], [ -94.555678659608304, 18.150190821049698 ], [ -94.555948154193544, 18.150190821049698 ], [ -94.555948154193544, 18.150999304805406 ], [ -94.555139670437839, 18.150999304805406 ], [ -94.555139670437839, 18.152077283146347 ], [ -94.555409165023079, 18.152077283146347 ], [ -94.555409165023079, 18.152885766902056 ], [ -94.555139670437839, 18.152885766902056 ], [ -94.555139670437839, 18.153694250657765 ], [ -94.554870175852599, 18.153694250657765 ], [ -94.554870175852599, 18.153963745243001 ] ], [ [ -94.555139670437839, 18.152885766902056 ], [ -94.555139670437839, 18.15261627231682 ], [ -94.554870175852599, 18.15261627231682 ], [ -94.554870175852599, 18.152885766902056 ], [ -94.555139670437839, 18.152885766902056 ] ], [ [ -94.55460068126736, 18.15261627231682 ], [ -94.55460068126736, 18.152346777731584 ], [ -94.554061692096894, 18.152346777731584 ], [ -94.554061692096894, 18.15261627231682 ], [ -94.55460068126736, 18.15261627231682 ] ] ] ] } },
{ "type": "Feature", "properties": { "ZONA_MET": "Coatzacoalcos", "INTENSIDAD": "Intensa", "T_PROM_POL": 4.0, "T_MIN_CIUD": 2.0, "DIF_TERMIC": 1.0 }, "geometry": { "type": "MultiPolygon", "coordinates": [ [ [ [ -94.545707359954577, 18.153424756072528 ], [ -94.545168370784111, 18.153424756072528 ], [ -94.545168370784111, 18.152885766902056 ], [ -94.544629381613646, 18.152885766902056 ], [ -94.544629381613646, 18.153155261487292 ], [ -94.544359887028406, 18.153155261487292 ], [ -94.544359887028406, 18.152885766902056 ], [ -94.544090392443167, 18.152885766902056 ], [ -94.544090392443167, 18.15261627231682 ], [ -94.543820897857927, 18.15261627231682 ], [ -94.543820897857927, 18.152346777731584 ], [ -94.543012414102222, 18.152346777731584 ], [ -94.543012414102222, 18.152885766902056 ], [ -94.542473424931757, 18.152885766902056 ], [ -94.542473424931757, 18.15261627231682 ], [ -94.542203930346517, 18.15261627231682 ], [ -94.542203930346517, 18.152885766902056 ], [ -94.541934435761277, 18.152885766902056 ], [ -94.541934435761277, 18.152077283146347 ], [ -94.542203930346517, 18.152077283146347 ], [ -94.542203930346517, 18.151807788561111 ], [ -94.541395446590812, 18.151807788561111 ], [ -94.541395446590812, 18.15261627231682 ], [ -94.541664941176052, 18.15261627231682 ], [ -94.541664941176052, 18.152885766902056 ], [ -94.540856457420333, 18.152885766902056 ], [ -94.540856457420333, 18.152077283146347 ], [ -94.540586962835107, 18.152077283146347 ], [ -94.540586962835107, 18.151807788561111 ], [ -94.540317468249867, 18.151807788561111 ], [ -94.540317468249867, 18.151538293975875 ], [ -94.540586962835107, 18.151538293975875 ], [ -94.540586962835107, 18.150190821049698 ], [ -94.540856457420333, 18.150190821049698 ], [ -94.540856457420333, 18.149921326464462 ], [ -94.542203930346517, 18.149921326464462 ], [ -94.542203930346517, 18.149382337293989 ], [ -94.542473424931757, 18.149382337293989 ], [ -94.542473424931757, 18.149112842708753 ], [ -94.543012414102222, 18.149112842708753 ], [ -94.543012414102222, 18.148573853538281 ], [ -94.543281908687462, 18.148573853538281 ], [ -94.543281908687462, 18.148843348123517 ], [ -94.544629381613646, 18.148843348123517 ], [ -94.544629381613646, 18.149112842708753 ], [ -94.544898876198872, 18.149112842708753 ], [ -94.544898876198872, 18.149921326464462 ], [ -94.544629381613646, 18.149921326464462 ], [ -94.544629381613646, 18.150190821049698 ], [ -94.545437865369351, 18.150190821049698 ], [ -94.545437865369351, 18.15072981022017 ], [ -94.545168370784111, 18.15072981022017 ], [ -94.545168370784111, 18.150999304805406 ], [ -94.545707359954577, 18.150999304805406 ], [ -94.545707359954577, 18.151538293975875 ], [ -94.545976854539816, 18.151538293975875 ], [ -94.545976854539816, 18.152885766902056 ], [ -94.545707359954577, 18.152885766902056 ], [ -94.545707359954577, 18.153424756072528 ] ], [ [ -94.544090392443167, 18.152077283146347 ], [ -94.544090392443167, 18.151538293975875 ], [ -94.544359887028406, 18.151538293975875 ], [ -94.544359887028406, 18.151268799390643 ], [ -94.544090392443167, 18.151268799390643 ], [ -94.544090392443167, 18.150999304805406 ], [ -94.543012414102222, 18.150999304805406 ], [ -94.543012414102222, 18.151538293975875 ], [ -94.543820897857927, 18.151538293975875 ], [ -94.543820897857927, 18.152077283146347 ], [ -94.544090392443167, 18.152077283146347 ] ], [ [ -94.541125952005572, 18.151807788561111 ], [ -94.541125952005572, 18.151538293975875 ], [ -94.540856457420333, 18.151538293975875 ], [ -94.540856457420333, 18.151807788561111 ], [ -94.541125952005572, 18.151807788561111 ] ], [ [ -94.542203930346517, 18.151538293975875 ], [ -94.542203930346517, 18.15072981022017 ], [ -94.541934435761277, 18.15072981022017 ], [ -94.541934435761277, 18.150999304805406 ], [ -94.541664941176052, 18.150999304805406 ], [ -94.541664941176052, 18.151268799390643 ], [ -94.541395446590812, 18.151268799390643 ], [ -94.541395446590812, 18.151538293975875 ], [ -94.542203930346517, 18.151538293975875 ] ], [ [ -94.544629381613646, 18.150460315634934 ], [ -94.544629381613646, 18.150190821049698 ], [ -94.544359887028406, 18.150190821049698 ], [ -94.544359887028406, 18.150460315634934 ], [ -94.544629381613646, 18.150460315634934 ] ] ] ] } },
{ "type": "Feature", "properties": { "ZONA_MET": "Coatzacoalcos", "INTENSIDAD": "Extrema", "T_PROM_POL": 4.0, "T_MIN_CIUD": 2.0, "DIF_TERMIC": 1.0 }, "geometry": { "type": "MultiPolygon", "coordinates": [ [ [ [ -94.542203930346517, 18.149921326464462 ], [ -94.540586962835107, 18.149921326464462 ], [ -94.540586962835107, 18.149651831879225 ], [ -94.540856457420333, 18.149651831879225 ], [ -94.540856457420333, 18.149112842708753 ], [ -94.540586962835107, 18.149112842708753 ], [ -94.540586962835107, 18.149382337293989 ], [ -94.540047973664628, 18.149382337293989 ], [ -94.540047973664628, 18.148843348123517 ], [ -94.541125952005572, 18.148843348123517 ], [ -94.541125952005572, 18.148304358953048 ], [ -94.541664941176052, 18.148304358953048 ], [ -94.541664941176052, 18.148573853538281 ], [ -94.542473424931757, 18.148573853538281 ], [ -94.542473424931757, 18.148843348123517 ], [ -94.542203930346517, 18.148843348123517 ], [ -94.542203930346517, 18.149112842708753 ], [ -94.542473424931757, 18.149112842708753 ], [ -94.542473424931757, 18.149382337293989 ], [ -94.542203930346517, 18.149382337293989 ], [ -94.542203930346517, 18.149921326464462 ] ] ] ] } },
{ "type": "Feature", "properties": { "ZONA_MET": "Coatzacoalcos", "INTENSIDAD": "Intensa", "T_PROM_POL": 4.0, "T_MIN_CIUD": 2.0, "DIF_TERMIC": 1.0 }, "geometry": { "type": "MultiPolygon", "coordinates": [ [ [ [ -94.546515843710296, 18.149112842708753 ], [ -94.546246349125056, 18.149112842708753 ], [ -94.546246349125056, 18.148573853538281 ], [ -94.545437865369351, 18.148573853538281 ], [ -94.545437865369351, 18.148304358953048 ], [ -94.545976854539816, 18.148304358953048 ], [ -94.545976854539816, 18.148034864367812 ], [ -94.546246349125056, 18.148034864367812 ], [ -94.546246349125056, 18.148304358953048 ], [ -94.546785338295521, 18.148304358953048 ], [ -94.546785338295521, 18.148034864367812 ], [ -94.547054832880761, 18.148034864367812 ], [ -94.547054832880761, 18.147765369782576 ], [ -94.54759382205124, 18.147765369782576 ], [ -94.54759382205124, 18.148304358953048 ], [ -94.547054832880761, 18.148304358953048 ], [ -94.547054832880761, 18.148843348123517 ], [ -94.546515843710296, 18.148843348123517 ], [ -94.546515843710296, 18.149112842708753 ] ] ] ] } },
{ "type": "Feature", "properties": { "ZONA_MET": "Coatzacoalcos", "INTENSIDAD": "Intensa", "T_PROM_POL": 4.0, "T_MIN_CIUD": 2.0, "DIF_TERMIC": 1.0 }, "geometry": { "type": "MultiPolygon", "coordinates": [ [ [ [ -94.542473424931757, 18.148573853538281 ], [ -94.541664941176052, 18.148573853538281 ], [ -94.541664941176052, 18.148304358953048 ], [ -94.541125952005572, 18.148304358953048 ], [ -94.541125952005572, 18.148034864367812 ], [ -94.540856457420333, 18.148034864367812 ], [ -94.540856457420333, 18.14749587519734 ], [ -94.541125952005572, 18.14749587519734 ], [ -94.541125952005572, 18.146687391441631 ], [ -94.541664941176052, 18.146687391441631 ], [ -94.541664941176052, 18.146417896856395 ], [ -94.542203930346517, 18.146417896856395 ], [ -94.542203930346517, 18.146687391441631 ], [ -94.542742919516982, 18.146687391441631 ], [ -94.542742919516982, 18.146956886026867 ], [ -94.543551403272701, 18.146956886026867 ], [ -94.543551403272701, 18.14749587519734 ], [ -94.543281908687462, 18.14749587519734 ], [ -94.543281908687462, 18.147765369782576 ], [ -94.542742919516982, 18.147765369782576 ], [ -94.542742919516982, 18.148034864367812 ], [ -94.542473424931757, 18.148034864367812 ], [ -94.542473424931757, 18.148573853538281 ] ], [ [ -94.541934435761277, 18.148034864367812 ], [ -94.541934435761277, 18.147765369782576 ], [ -94.541395446590812, 18.147765369782576 ], [ -94.541395446590812, 18.148034864367812 ], [ -94.541934435761277, 18.148034864367812 ] ], [ [ -94.542742919516982, 18.147765369782576 ], [ -94.542742919516982, 18.147226380612103 ], [ -94.542473424931757, 18.147226380612103 ], [ -94.542473424931757, 18.147765369782576 ], [ -94.542742919516982, 18.147765369782576 ] ] ] ] } },
{ "type": "Feature", "properties": { "ZONA_MET": "Coatzacoalcos", "INTENSIDAD": "Intensa", "T_PROM_POL": 4.0, "T_MIN_CIUD": 2.0, "DIF_TERMIC": 1.0 }, "geometry": { "type": "MultiPolygon", "coordinates": [ [ [ [ -94.417966926552779, 18.146956886026867 ], [ -94.417427937382314, 18.146956886026867 ], [ -94.417427937382314, 18.146687391441631 ], [ -94.416888948211835, 18.146687391441631 ], [ -94.416888948211835, 18.146417896856395 ], [ -94.416619453626609, 18.146417896856395 ], [ -94.416619453626609, 18.146687391441631 ], [ -94.416349959041369, 18.146687391441631 ], [ -94.416349959041369, 18.146148402271159 ], [ -94.418236421138019, 18.146148402271159 ], [ -94.418236421138019, 18.146687391441631 ], [ -94.417966926552779, 18.146687391441631 ], [ -94.417966926552779, 18.146956886026867 ] ] ] ] } },
{ "type": "Feature", "properties": { "ZONA_MET": "Coatzacoalcos", "INTENSIDAD": "Intensa", "T_PROM_POL": 4.0, "T_MIN_CIUD": 2.0, "DIF_TERMIC": 1.0 }, "geometry": { "type": "MultiPolygon", "coordinates": [ [ [ [ -94.540047973664628, 18.149651831879225 ], [ -94.539778479079388, 18.149651831879225 ], [ -94.539778479079388, 18.149112842708753 ], [ -94.539239489908923, 18.149112842708753 ], [ -94.539239489908923, 18.149651831879225 ], [ -94.538700500738457, 18.149651831879225 ], [ -94.538700500738457, 18.149112842708753 ], [ -94.538161511567978, 18.149112842708753 ], [ -94.538161511567978, 18.148843348123517 ], [ -94.537083533227033, 18.148843348123517 ], [ -94.537083533227033, 18.148304358953048 ], [ -94.537353027812273, 18.148304358953048 ], [ -94.537353027812273, 18.146956886026867 ], [ -94.537622522397513, 18.146956886026867 ], [ -94.537622522397513, 18.145878907685923 ], [ -94.538700500738457, 18.145878907685923 ], [ -94.538700500738457, 18.146148402271159 ], [ -94.539239489908923, 18.146148402271159 ], [ -94.539239489908923, 18.146417896856395 ], [ -94.540047973664628, 18.146417896856395 ], [ -94.540047973664628, 18.146687391441631 ], [ -94.540317468249867, 18.146687391441631 ], [ -94.540317468249867, 18.148034864367812 ], [ -94.540047973664628, 18.148034864367812 ], [ -94.540047973664628, 18.149651831879225 ] ], [ [ -94.539778479079388, 18.148843348123517 ], [ -94.539778479079388, 18.148573853538281 ], [ -94.539508984494162, 18.148573853538281 ], [ -94.539508984494162, 18.148843348123517 ], [ -94.539778479079388, 18.148843348123517 ] ], [ [ -94.538431006153218, 18.148843348123517 ], [ -94.538431006153218, 18.148304358953048 ], [ -94.539239489908923, 18.148304358953048 ], [ -94.539239489908923, 18.148034864367812 ], [ -94.539508984494162, 18.148034864367812 ], [ -94.539508984494162, 18.147765369782576 ], [ -94.539778479079388, 18.147765369782576 ], [ -94.539778479079388, 18.14749587519734 ], [ -94.540047973664628, 18.14749587519734 ], [ -94.540047973664628, 18.147226380612103 ], [ -94.539508984494162, 18.147226380612103 ], [ -94.539508984494162, 18.14749587519734 ], [ -94.539239489908923, 18.14749587519734 ], [ -94.539239489908923, 18.146687391441631 ], [ -94.538700500738457, 18.146687391441631 ], [ -94.538700500738457, 18.146956886026867 ], [ -94.538431006153218, 18.146956886026867 ], [ -94.538431006153218, 18.146687391441631 ], [ -94.538161511567978, 18.146687391441631 ], [ -94.538161511567978, 18.146956886026867 ], [ -94.537892016982738, 18.146956886026867 ], [ -94.537892016982738, 18.14749587519734 ], [ -94.537622522397513, 18.14749587519734 ], [ -94.537622522397513, 18.147765369782576 ], [ -94.537892016982738, 18.147765369782576 ], [ -94.537892016982738, 18.148034864367812 ], [ -94.538161511567978, 18.148034864367812 ], [ -94.538161511567978, 18.148843348123517 ], [ -94.538431006153218, 18.148843348123517 ] ], [ [ -94.538700500738457, 18.146417896856395 ], [ -94.538700500738457, 18.146148402271159 ], [ -94.538161511567978, 18.146148402271159 ], [ -94.538161511567978, 18.146417896856395 ], [ -94.538700500738457, 18.146417896856395 ] ] ] ] } },
{ "type": "Feature", "properties": { "ZONA_MET": "Coatzacoalcos", "INTENSIDAD": "Intensa", "T_PROM_POL": 4.0, "T_MIN_CIUD": 2.0, "DIF_TERMIC": 1.0 }, "geometry": { "type": "MultiPolygon", "coordinates": [ [ [ [ -94.501779742561141, 18.146417896856395 ], [ -94.500432269634956, 18.146417896856395 ], [ -94.500432269634956, 18.144800929344981 ], [ -94.500971258805436, 18.144800929344981 ], [ -94.500971258805436, 18.145070423930218 ], [ -94.501510247975901, 18.145070423930218 ], [ -94.501510247975901, 18.14533991851545 ], [ -94.501779742561141, 18.14533991851545 ], [ -94.501779742561141, 18.146417896856395 ] ], [ [ -94.501240753390661, 18.145878907685923 ], [ -94.501240753390661, 18.145609413100686 ], [ -94.500701764220196, 18.145609413100686 ], [ -94.500701764220196, 18.145878907685923 ], [ -94.501240753390661, 18.145878907685923 ] ] ] ] } },
{ "type": "Feature", "properties": { "ZONA_MET": "Coatzacoalcos", "INTENSIDAD": "Intensa", "T_PROM_POL": 4.0, "T_MIN_CIUD": 2.0, "DIF_TERMIC": 1.0 }, "geometry": { "type": "MultiPolygon", "coordinates": [ [ [ [ -94.512020536800094, 18.146417896856395 ], [ -94.511481547629629, 18.146417896856395 ], [ -94.511481547629629, 18.146148402271159 ], [ -94.511751042214868, 18.146148402271159 ], [ -94.511751042214868, 18.145878907685923 ], [ -94.511481547629629, 18.145878907685923 ], [ -94.511481547629629, 18.145070423930218 ], [ -94.511212053044389, 18.145070423930218 ], [ -94.511212053044389, 18.144800929344981 ], [ -94.511751042214868, 18.144800929344981 ], [ -94.511751042214868, 18.145070423930218 ], [ -94.512290031385334, 18.145070423930218 ], [ -94.512290031385334, 18.146148402271159 ], [ -94.512020536800094, 18.146148402271159 ], [ -94.512020536800094, 18.146417896856395 ] ] ] ] } },
{ "type": "Feature", "properties": { "ZONA_MET": "Coatzacoalcos", "INTENSIDAD": "Extrema", "T_PROM_POL": 4.0, "T_MIN_CIUD": 2.0, "DIF_TERMIC": 1.0 }, "geometry": { "type": "MultiPolygon", "coordinates": [ [ [ [ -94.510942558459163, 18.145878907685923 ], [ -94.510403569288684, 18.145878907685923 ], [ -94.510403569288684, 18.145609413100686 ], [ -94.510134074703444, 18.145609413100686 ], [ -94.510134074703444, 18.145070423930218 ], [ -94.509864580118219, 18.145070423930218 ], [ -94.509864580118219, 18.144800929344981 ], [ -94.510403569288684, 18.144800929344981 ], [ -94.510403569288684, 18.145070423930218 ], [ -94.511481547629629, 18.145070423930218 ], [ -94.511481547629629, 18.14533991851545 ], [ -94.511212053044389, 18.14533991851545 ], [ -94.511212053044389, 18.145609413100686 ], [ -94.510942558459163, 18.145609413100686 ], [ -94.510942558459163, 18.145878907685923 ] ], [ [ -94.510942558459163, 18.145609413100686 ], [ -94.510942558459163, 18.14533991851545 ], [ -94.510673063873924, 18.14533991851545 ], [ -94.510673063873924, 18.145609413100686 ], [ -94.510942558459163, 18.145609413100686 ] ] ] ] } },
{ "type": "Feature", "properties": { "ZONA_MET": "Coatzacoalcos", "INTENSIDAD": "Intensa", "T_PROM_POL": 4.0, "T_MIN_CIUD": 2.0, "DIF_TERMIC": 1.0 }, "geometry": { "type": "MultiPolygon", "coordinates": [ [ [ [ -94.428477215376986, 18.14533991851545 ], [ -94.427938226206507, 18.14533991851545 ], [ -94.427938226206507, 18.144800929344981 ], [ -94.428207720791747, 18.144800929344981 ], [ -94.428207720791747, 18.144531434759745 ], [ -94.428746709962212, 18.144531434759745 ], [ -94.428746709962212, 18.144261940174509 ], [ -94.429555193717931, 18.144261940174509 ], [ -94.429555193717931, 18.144531434759745 ], [ -94.429285699132691, 18.144531434759745 ], [ -94.429285699132691, 18.145070423930218 ], [ -94.429016204547452, 18.145070423930218 ], [ -94.429016204547452, 18.144800929344981 ], [ -94.428477215376986, 18.144800929344981 ], [ -94.428477215376986, 18.14533991851545 ] ] ] ] } },
{ "type": "Feature", "properties": { "ZONA_MET": "Coatzacoalcos", "INTENSIDAD": "Intensa", "T_PROM_POL": 4.0, "T_MIN_CIUD": 2.0, "DIF_TERMIC": 1.0 }, "geometry": { "type": "MultiPolygon", "coordinates": [ [ [ [ -94.472135338185197, 18.145609413100686 ], [ -94.471596349014717, 18.145609413100686 ], [ -94.471596349014717, 18.145070423930218 ], [ -94.471326854429492, 18.145070423930218 ], [ -94.471326854429492, 18.144800929344981 ], [ -94.471596349014717, 18.144800929344981 ], [ -94.471596349014717, 18.144261940174509 ], [ -94.471326854429492, 18.144261940174509 ], [ -94.471326854429492, 18.144531434759745 ], [ -94.471057359844252, 18.144531434759745 ], [ -94.471057359844252, 18.143992445589273 ], [ -94.471596349014717, 18.143992445589273 ], [ -94.471596349014717, 18.143453456418801 ], [ -94.471865843599957, 18.143453456418801 ], [ -94.471865843599957, 18.143722951004037 ], [ -94.472135338185197, 18.143722951004037 ], [ -94.472135338185197, 18.143453456418801 ], [ -94.472404832770422, 18.143453456418801 ], [ -94.472404832770422, 18.144261940174509 ], [ -94.472943821940902, 18.144261940174509 ], [ -94.472943821940902, 18.144800929344981 ], [ -94.472674327355662, 18.144800929344981 ], [ -94.472674327355662, 18.144531434759745 ], [ -94.472135338185197, 18.144531434759745 ], [ -94.472135338185197, 18.145609413100686 ] ] ] ] } },
{ "type": "Feature", "properties": { "ZONA_MET": "Coatzacoalcos", "INTENSIDAD": "Intensa", "T_PROM_POL": 4.0, "T_MIN_CIUD": 2.0, "DIF_TERMIC": 1.0 }, "geometry": { "type": "MultiPolygon", "coordinates": [ [ [ [ -94.474560789452312, 18.144261940174509 ], [ -94.474291294867086, 18.144261940174509 ], [ -94.474291294867086, 18.143992445589273 ], [ -94.473482811111367, 18.143992445589273 ], [ -94.473482811111367, 18.143722951004037 ], [ -94.473213316526142, 18.143722951004037 ], [ -94.473213316526142, 18.143453456418801 ], [ -94.472943821940902, 18.143453456418801 ], [ -94.472943821940902, 18.143722951004037 ], [ -94.472674327355662, 18.143722951004037 ], [ -94.472674327355662, 18.143183961833564 ], [ -94.472404832770422, 18.143183961833564 ], [ -94.472404832770422, 18.142914467248328 ], [ -94.473752305696607, 18.142914467248328 ], [ -94.473752305696607, 18.143722951004037 ], [ -94.474021800281847, 18.143722951004037 ], [ -94.474021800281847, 18.143183961833564 ], [ -94.474830284037552, 18.143183961833564 ], [ -94.474830284037552, 18.143453456418801 ], [ -94.474560789452312, 18.143453456418801 ], [ -94.474560789452312, 18.144261940174509 ] ], [ [ -94.473482811111367, 18.143453456418801 ], [ -94.473482811111367, 18.143183961833564 ], [ -94.473213316526142, 18.143183961833564 ], [ -94.473213316526142, 18.143453456418801 ], [ -94.473482811111367, 18.143453456418801 ] ] ] ] } },
{ "type": "Feature", "properties": { "ZONA_MET": "Coatzacoalcos", "INTENSIDAD": "Intensa", "T_PROM_POL": 4.0, "T_MIN_CIUD": 2.0, "DIF_TERMIC": 1.0 }, "geometry": { "type": "MultiPolygon", "coordinates": [ [ [ [ -94.365954471602265, 18.143722951004037 ], [ -94.365684977017025, 18.143722951004037 ], [ -94.365684977017025, 18.143183961833564 ], [ -94.36487649326132, 18.143183961833564 ], [ -94.36487649326132, 18.142644972663092 ], [ -94.364337504090841, 18.142644972663092 ], [ -94.364337504090841, 18.142375478077856 ], [ -94.36487649326132, 18.142375478077856 ], [ -94.36487649326132, 18.142105983492623 ], [ -94.366223966187505, 18.142105983492623 ], [ -94.366223966187505, 18.142644972663092 ], [ -94.365415482431786, 18.142644972663092 ], [ -94.365415482431786, 18.142914467248328 ], [ -94.365954471602265, 18.142914467248328 ], [ -94.365954471602265, 18.143722951004037 ] ] ] ] } },
{ "type": "Feature", "properties": { "ZONA_MET": "Coatzacoalcos", "INTENSIDAD": "Intensa", "T_PROM_POL": 4.0, "T_MIN_CIUD": 2.0, "DIF_TERMIC": 1.0 }, "geometry": { "type": "MultiPolygon", "coordinates": [ [ [ [ -94.475099778622791, 18.142914467248328 ], [ -94.474830284037552, 18.142914467248328 ], [ -94.474830284037552, 18.142644972663092 ], [ -94.474021800281847, 18.142644972663092 ], [ -94.474021800281847, 18.142914467248328 ], [ -94.473752305696607, 18.142914467248328 ], [ -94.473752305696607, 18.141836488907387 ], [ -94.474830284037552, 18.141836488907387 ], [ -94.474830284037552, 18.142375478077856 ], [ -94.475099778622791, 18.142375478077856 ], [ -94.475099778622791, 18.142914467248328 ] ] ] ] } },
{ "type": "Feature", "properties": { "ZONA_MET": "Coatzacoalcos", "INTENSIDAD": "Intensa", "T_PROM_POL": 4.0, "T_MIN_CIUD": 2.0, "DIF_TERMIC": 1.0 }, "geometry": { "type": "MultiPolygon", "coordinates": [ [ [ [ -94.364337504090841, 18.144261940174509 ], [ -94.363798514920376, 18.144261940174509 ], [ -94.363798514920376, 18.143722951004037 ], [ -94.363529020335136, 18.143722951004037 ], [ -94.363529020335136, 18.143992445589273 ], [ -94.36325952574991, 18.143992445589273 ], [ -94.36325952574991, 18.143453456418801 ], [ -94.363529020335136, 18.143453456418801 ], [ -94.363529020335136, 18.142644972663092 ], [ -94.363798514920376, 18.142644972663092 ], [ -94.363798514920376, 18.141836488907387 ], [ -94.364068009505615, 18.141836488907387 ], [ -94.364068009505615, 18.142644972663092 ], [ -94.364337504090841, 18.142644972663092 ], [ -94.364337504090841, 18.142914467248328 ], [ -94.364068009505615, 18.142914467248328 ], [ -94.364068009505615, 18.143183961833564 ], [ -94.364606998676081, 18.143183961833564 ], [ -94.364606998676081, 18.143453456418801 ], [ -94.364068009505615, 18.143453456418801 ], [ -94.364068009505615, 18.143722951004037 ], [ -94.364606998676081, 18.143722951004037 ], [ -94.364606998676081, 18.143992445589273 ], [ -94.364337504090841, 18.143992445589273 ], [ -94.364337504090841, 18.144261940174509 ] ] ] ] } },
{ "type": "Feature", "properties": { "ZONA_MET": "Coatzacoalcos", "INTENSIDAD": "Intensa", "T_PROM_POL": 4.0, "T_MIN_CIUD": 2.0, "DIF_TERMIC": 1.0 }, "geometry": { "type": "MultiPolygon", "coordinates": [ [ [ [ -94.488035518714113, 18.144531434759745 ], [ -94.487766024128874, 18.144531434759745 ], [ -94.487766024128874, 18.143722951004037 ], [ -94.487496529543634, 18.143722951004037 ], [ -94.487496529543634, 18.143183961833564 ], [ -94.487227034958394, 18.143183961833564 ], [ -94.487227034958394, 18.142105983492623 ], [ -94.486688045787929, 18.142105983492623 ], [ -94.486688045787929, 18.142375478077856 ], [ -94.486149056617464, 18.142375478077856 ], [ -94.486149056617464, 18.141836488907387 ], [ -94.487227034958394, 18.141836488907387 ], [ -94.487227034958394, 18.141566994322151 ], [ -94.488035518714113, 18.141566994322151 ], [ -94.488035518714113, 18.142914467248328 ], [ -94.487766024128874, 18.142914467248328 ], [ -94.487766024128874, 18.143183961833564 ], [ -94.488035518714113, 18.143183961833564 ], [ -94.488035518714113, 18.143992445589273 ], [ -94.488574507884579, 18.143992445589273 ], [ -94.488574507884579, 18.144261940174509 ], [ -94.488035518714113, 18.144261940174509 ], [ -94.488035518714113, 18.144531434759745 ] ], [ [ -94.487766024128874, 18.142914467248328 ], [ -94.487766024128874, 18.142644972663092 ], [ -94.487496529543634, 18.142644972663092 ], [ -94.487496529543634, 18.142914467248328 ], [ -94.487766024128874, 18.142914467248328 ] ] ] ] } },
{ "type": "Feature", "properties": { "ZONA_MET": "Coatzacoalcos", "INTENSIDAD": "Extrema", "T_PROM_POL": 4.0, "T_MIN_CIUD": 2.0, "DIF_TERMIC": 1.0 }, "geometry": { "type": "MultiPolygon", "coordinates": [ [ [ [ -94.473752305696607, 18.142914467248328 ], [ -94.472674327355662, 18.142914467248328 ], [ -94.472674327355662, 18.141836488907387 ], [ -94.472404832770422, 18.141836488907387 ], [ -94.472404832770422, 18.141297499736915 ], [ -94.472674327355662, 18.141297499736915 ], [ -94.472674327355662, 18.141566994322151 ], [ -94.473482811111367, 18.141566994322151 ], [ -94.473482811111367, 18.141836488907387 ], [ -94.473752305696607, 18.141836488907387 ], [ -94.473752305696607, 18.142914467248328 ] ] ] ] } },
{ "type": "Feature", "properties": { "ZONA_MET": "Coatzacoalcos", "INTENSIDAD": "Intensa", "T_PROM_POL": 4.0, "T_MIN_CIUD": 2.0, "DIF_TERMIC": 1.0 }, "geometry": { "type": "MultiPolygon", "coordinates": [ [ [ [ -94.513637504311518, 18.143992445589273 ], [ -94.513098515141039, 18.143992445589273 ], [ -94.513098515141039, 18.143722951004037 ], [ -94.512290031385334, 18.143722951004037 ], [ -94.512290031385334, 18.143992445589273 ], [ -94.510942558459163, 18.143992445589273 ], [ -94.510942558459163, 18.143722951004037 ], [ -94.511481547629629, 18.143722951004037 ], [ -94.511481547629629, 18.143453456418801 ], [ -94.511751042214868, 18.143453456418801 ], [ -94.511751042214868, 18.142375478077856 ], [ -94.511481547629629, 18.142375478077856 ], [ -94.511481547629629, 18.141836488907387 ], [ -94.511212053044389, 18.141836488907387 ], [ -94.511212053044389, 18.141566994322151 ], [ -94.510673063873924, 18.141566994322151 ], [ -94.510673063873924, 18.141297499736915 ], [ -94.511751042214868, 18.141297499736915 ], [ -94.511751042214868, 18.141836488907387 ], [ -94.512020536800094, 18.141836488907387 ], [ -94.512020536800094, 18.142375478077856 ], [ -94.512559525970573, 18.142375478077856 ], [ -94.512559525970573, 18.141836488907387 ], [ -94.512829020555813, 18.141836488907387 ], [ -94.512829020555813, 18.141566994322151 ], [ -94.513368009726278, 18.141566994322151 ], [ -94.513368009726278, 18.141836488907387 ], [ -94.513637504311518, 18.141836488907387 ], [ -94.513637504311518, 18.142105983492623 ], [ -94.513368009726278, 18.142105983492623 ], [ -94.513368009726278, 18.142914467248328 ], [ -94.513637504311518, 18.142914467248328 ], [ -94.513637504311518, 18.143992445589273 ] ], [ [ -94.513098515141039, 18.143453456418801 ], [ -94.513098515141039, 18.143183961833564 ], [ -94.512829020555813, 18.143183961833564 ], [ -94.512829020555813, 18.142914467248328 ], [ -94.512559525970573, 18.142914467248328 ], [ -94.512559525970573, 18.143183961833564 ], [ -94.512290031385334, 18.143183961833564 ], [ -94.512290031385334, 18.143453456418801 ], [ -94.513098515141039, 18.143453456418801 ] ], [ [ -94.513098515141039, 18.142375478077856 ], [ -94.513098515141039, 18.141836488907387 ], [ -94.512829020555813, 18.141836488907387 ], [ -94.512829020555813, 18.142375478077856 ], [ -94.513098515141039, 18.142375478077856 ] ] ] ] } },
{ "type": "Feature", "properties": { "ZONA_MET": "Coatzacoalcos", "INTENSIDAD": "Intensa", "T_PROM_POL": 4.0, "T_MIN_CIUD": 2.0, "DIF_TERMIC": 1.0 }, "geometry": { "type": "MultiPolygon", "coordinates": [ [ [ [ -94.372961330818399, 18.143992445589273 ], [ -94.372152847062694, 18.143992445589273 ], [ -94.372152847062694, 18.143722951004037 ], [ -94.372422341647919, 18.143722951004037 ], [ -94.372422341647919, 18.143453456418801 ], [ -94.372691836233159, 18.143453456418801 ], [ -94.372691836233159, 18.142914467248328 ], [ -94.368918912039859, 18.142914467248328 ], [ -94.368918912039859, 18.141836488907387 ], [ -94.369188406625099, 18.141836488907387 ], [ -94.369188406625099, 18.141566994322151 ], [ -94.369457901210325, 18.141566994322151 ], [ -94.369457901210325, 18.141028005151679 ], [ -94.369727395795564, 18.141028005151679 ], [ -94.369727395795564, 18.141297499736915 ], [ -94.370535879551269, 18.141297499736915 ], [ -94.370535879551269, 18.142375478077856 ], [ -94.370805374136509, 18.142375478077856 ], [ -94.370805374136509, 18.142105983492623 ], [ -94.371613857892214, 18.142105983492623 ], [ -94.371613857892214, 18.141836488907387 ], [ -94.371883352477454, 18.141836488907387 ], [ -94.371883352477454, 18.142105983492623 ], [ -94.372152847062694, 18.142105983492623 ], [ -94.372152847062694, 18.141836488907387 ], [ -94.372422341647919, 18.141836488907387 ], [ -94.372422341647919, 18.142105983492623 ], [ -94.372961330818399, 18.142105983492623 ], [ -94.372961330818399, 18.143992445589273 ] ] ] ] } },
{ "type": "Feature", "properties": { "ZONA_MET": "Coatzacoalcos", "INTENSIDAD": "Extrema", "T_PROM_POL": 4.0, "T_MIN_CIUD": 2.0, "DIF_TERMIC": 1.0 }, "geometry": { "type": "MultiPolygon", "coordinates": [ [ [ [ -94.468631908577123, 18.141836488907387 ], [ -94.468092919406658, 18.141836488907387 ], [ -94.468092919406658, 18.141297499736915 ], [ -94.467823424821418, 18.141297499736915 ], [ -94.467823424821418, 18.140758510566442 ], [ -94.468631908577123, 18.140758510566442 ], [ -94.468631908577123, 18.141028005151679 ], [ -94.468901403162363, 18.141028005151679 ], [ -94.468901403162363, 18.141566994322151 ], [ -94.468631908577123, 18.141566994322151 ], [ -94.468631908577123, 18.141836488907387 ] ] ] ] } },
{ "type": "Feature", "properties": { "ZONA_MET": "Coatzacoalcos", "INTENSIDAD": "Intensa", "T_PROM_POL": 4.0, "T_MIN_CIUD": 2.0, "DIF_TERMIC": 1.0 }, "geometry": { "type": "MultiPolygon", "coordinates": [ [ [ [ -94.520644363527651, 18.142375478077856 ], [ -94.520374868942412, 18.142375478077856 ], [ -94.520374868942412, 18.142105983492623 ], [ -94.520105374357172, 18.142105983492623 ], [ -94.520105374357172, 18.141566994322151 ], [ -94.520374868942412, 18.141566994322151 ], [ -94.520374868942412, 18.141028005151679 ], [ -94.520913858112877, 18.141028005151679 ], [ -94.520913858112877, 18.140758510566442 ], [ -94.521452847283356, 18.140758510566442 ], [ -94.521452847283356, 18.141028005151679 ], [ -94.521991836453822, 18.141028005151679 ], [ -94.521991836453822, 18.141297499736915 ], [ -94.521722341868596, 18.141297499736915 ], [ -94.521722341868596, 18.141566994322151 ], [ -94.520644363527651, 18.141566994322151 ], [ -94.520644363527651, 18.141836488907387 ], [ -94.520913858112877, 18.141836488907387 ], [ -94.520913858112877, 18.142105983492623 ], [ -94.520644363527651, 18.142105983492623 ], [ -94.520644363527651, 18.142375478077856 ] ] ] ] } },
{ "type": "Feature", "properties": { "ZONA_MET": "Coatzacoalcos", "INTENSIDAD": "Intensa", "T_PROM_POL": 4.0, "T_MIN_CIUD": 2.0, "DIF_TERMIC": 1.0 }, "geometry": { "type": "MultiPolygon", "coordinates": [ [ [ [ -94.36325952574991, 18.142105983492623 ], [ -94.362181547408966, 18.142105983492623 ], [ -94.362181547408966, 18.141836488907387 ], [ -94.362451041994191, 18.141836488907387 ], [ -94.362451041994191, 18.141566994322151 ], [ -94.362181547408966, 18.141566994322151 ], [ -94.362181547408966, 18.140758510566442 ], [ -94.362451041994191, 18.140758510566442 ], [ -94.362451041994191, 18.140489015981206 ], [ -94.362990031164671, 18.140489015981206 ], [ -94.362990031164671, 18.139950026810734 ], [ -94.36325952574991, 18.139950026810734 ], [ -94.36325952574991, 18.140489015981206 ], [ -94.363529020335136, 18.140489015981206 ], [ -94.363529020335136, 18.14021952139597 ], [ -94.363798514920376, 18.14021952139597 ], [ -94.363798514920376, 18.140489015981206 ], [ -94.364068009505615, 18.140489015981206 ], [ -94.364068009505615, 18.141297499736915 ], [ -94.363798514920376, 18.141297499736915 ], [ -94.363798514920376, 18.141028005151679 ], [ -94.363529020335136, 18.141028005151679 ], [ -94.363529020335136, 18.140758510566442 ], [ -94.362720536579431, 18.140758510566442 ], [ -94.362720536579431, 18.141297499736915 ], [ -94.362990031164671, 18.141297499736915 ], [ -94.362990031164671, 18.141566994322151 ], [ -94.36325952574991, 18.141566994322151 ], [ -94.36325952574991, 18.142105983492623 ] ] ] ] } },
{ "type": "Feature", "properties": { "ZONA_MET": "Coatzacoalcos", "INTENSIDAD": "Intensa", "T_PROM_POL": 4.0, "T_MIN_CIUD": 2.0, "DIF_TERMIC": 1.0 }, "geometry": { "type": "MultiPolygon", "coordinates": [ [ [ [ -94.472404832770422, 18.141028005151679 ], [ -94.471057359844252, 18.141028005151679 ], [ -94.471057359844252, 18.140758510566442 ], [ -94.470518370673773, 18.140758510566442 ], [ -94.470518370673773, 18.141028005151679 ], [ -94.470248876088547, 18.141028005151679 ], [ -94.470248876088547, 18.140489015981206 ], [ -94.470518370673773, 18.140489015981206 ], [ -94.470518370673773, 18.14021952139597 ], [ -94.470787865259013, 18.14021952139597 ], [ -94.470787865259013, 18.140489015981206 ], [ -94.471326854429492, 18.140489015981206 ], [ -94.471326854429492, 18.139950026810734 ], [ -94.472404832770422, 18.139950026810734 ], [ -94.472404832770422, 18.141028005151679 ] ] ] ] } },
{ "type": "Feature", "properties": { "ZONA_MET": "Coatzacoalcos", "INTENSIDAD": "Intensa", "T_PROM_POL": 4.0, "T_MIN_CIUD": 2.0, "DIF_TERMIC": 1.0 }, "geometry": { "type": "MultiPolygon", "coordinates": [ [ [ [ -94.419044904893724, 18.141297499736915 ], [ -94.418775410308498, 18.141297499736915 ], [ -94.418775410308498, 18.141028005151679 ], [ -94.418505915723259, 18.141028005151679 ], [ -94.418505915723259, 18.141297499736915 ], [ -94.418236421138019, 18.141297499736915 ], [ -94.418236421138019, 18.141028005151679 ], [ -94.417966926552779, 18.141028005151679 ], [ -94.417966926552779, 18.140489015981206 ], [ -94.418236421138019, 18.140489015981206 ], [ -94.418236421138019, 18.14021952139597 ], [ -94.417966926552779, 18.14021952139597 ], [ -94.417966926552779, 18.139950026810734 ], [ -94.418505915723259, 18.139950026810734 ], [ -94.418505915723259, 18.14021952139597 ], [ -94.418775410308498, 18.14021952139597 ], [ -94.418775410308498, 18.140489015981206 ], [ -94.419044904893724, 18.140489015981206 ], [ -94.419044904893724, 18.139950026810734 ], [ -94.420661872405148, 18.139950026810734 ], [ -94.420661872405148, 18.139680532225498 ], [ -94.421470356160853, 18.139680532225498 ], [ -94.421470356160853, 18.139411037640262 ], [ -94.421739850746093, 18.139411037640262 ], [ -94.421739850746093, 18.139680532225498 ], [ -94.422009345331318, 18.139680532225498 ], [ -94.422009345331318, 18.139950026810734 ], [ -94.421470356160853, 18.139950026810734 ], [ -94.421470356160853, 18.14021952139597 ], [ -94.419853388649429, 18.14021952139597 ], [ -94.419853388649429, 18.140489015981206 ], [ -94.419583894064203, 18.140489015981206 ], [ -94.419583894064203, 18.140758510566442 ], [ -94.419314399478964, 18.140758510566442 ], [ -94.419314399478964, 18.141028005151679 ], [ -94.419044904893724, 18.141028005151679 ], [ -94.419044904893724, 18.141297499736915 ] ] ] ] } },
{ "type": "Feature", "properties": { "ZONA_MET": "Coatzacoalcos", "INTENSIDAD": "Intensa", "T_PROM_POL": 4.0, "T_MIN_CIUD": 2.0, "DIF_TERMIC": 1.0 }, "geometry": { "type": "MultiPolygon", "coordinates": [ [ [ [ -94.473213316526142, 18.139950026810734 ], [ -94.472674327355662, 18.139950026810734 ], [ -94.472674327355662, 18.139680532225498 ], [ -94.471865843599957, 18.139680532225498 ], [ -94.471865843599957, 18.139411037640262 ], [ -94.471596349014717, 18.139411037640262 ], [ -94.471596349014717, 18.138872048469793 ], [ -94.471865843599957, 18.138872048469793 ], [ -94.471865843599957, 18.139141543055029 ], [ -94.472135338185197, 18.139141543055029 ], [ -94.472135338185197, 18.138872048469793 ], [ -94.472404832770422, 18.138872048469793 ], [ -94.472404832770422, 18.139411037640262 ], [ -94.472674327355662, 18.139411037640262 ], [ -94.472674327355662, 18.139141543055029 ], [ -94.472943821940902, 18.139141543055029 ], [ -94.472943821940902, 18.139680532225498 ], [ -94.473213316526142, 18.139680532225498 ], [ -94.473213316526142, 18.139950026810734 ] ] ] ] } },
{ "type": "Feature", "properties": { "ZONA_MET": "Coatzacoalcos", "INTENSIDAD": "Extrema", "T_PROM_POL": 4.0, "T_MIN_CIUD": 2.0, "DIF_TERMIC": 1.0 }, "geometry": { "type": "MultiPolygon", "coordinates": [ [ [ [ -94.419853388649429, 18.139950026810734 ], [ -94.419044904893724, 18.139950026810734 ], [ -94.419044904893724, 18.139411037640262 ], [ -94.418775410308498, 18.139411037640262 ], [ -94.418775410308498, 18.138872048469793 ], [ -94.419853388649429, 18.138872048469793 ], [ -94.419853388649429, 18.139141543055029 ], [ -94.420122883234669, 18.139141543055029 ], [ -94.420122883234669, 18.139411037640262 ], [ -94.419853388649429, 18.139411037640262 ], [ -94.419853388649429, 18.139950026810734 ] ] ] ] } },
{ "type": "Feature", "properties": { "ZONA_MET": "Coatzacoalcos", "INTENSIDAD": "Intensa", "T_PROM_POL": 4.0, "T_MIN_CIUD": 2.0, "DIF_TERMIC": 1.0 }, "geometry": { "type": "MultiPolygon", "coordinates": [ [ [ [ -94.434406096252175, 18.141566994322151 ], [ -94.433867107081696, 18.141566994322151 ], [ -94.433867107081696, 18.141028005151679 ], [ -94.43359761249647, 18.141028005151679 ], [ -94.43359761249647, 18.140489015981206 ], [ -94.434136601666935, 18.140489015981206 ], [ -94.434136601666935, 18.139950026810734 ], [ -94.434406096252175, 18.139950026810734 ], [ -94.434406096252175, 18.139141543055029 ], [ -94.433867107081696, 18.139141543055029 ], [ -94.433867107081696, 18.139680532225498 ], [ -94.43332811791123, 18.139680532225498 ], [ -94.43332811791123, 18.14021952139597 ], [ -94.433058623325991, 18.14021952139597 ], [ -94.433058623325991, 18.140758510566442 ], [ -94.432789128740751, 18.140758510566442 ], [ -94.432789128740751, 18.140489015981206 ], [ -94.432519634155526, 18.140489015981206 ], [ -94.432519634155526, 18.139950026810734 ], [ -94.432789128740751, 18.139950026810734 ], [ -94.432789128740751, 18.139411037640262 ], [ -94.432519634155526, 18.139411037640262 ], [ -94.432519634155526, 18.139141543055029 ], [ -94.432789128740751, 18.139141543055029 ], [ -94.432789128740751, 18.138872048469793 ], [ -94.43332811791123, 18.138872048469793 ], [ -94.43332811791123, 18.139141543055029 ], [ -94.433058623325991, 18.139141543055029 ], [ -94.433058623325991, 18.139411037640262 ], [ -94.43359761249647, 18.139411037640262 ], [ -94.43359761249647, 18.138872048469793 ], [ -94.434675590837401, 18.138872048469793 ], [ -94.434675590837401, 18.139141543055029 ], [ -94.43494508542264, 18.139141543055029 ], [ -94.43494508542264, 18.138872048469793 ], [ -94.43548407459312, 18.138872048469793 ], [ -94.43548407459312, 18.139141543055029 ], [ -94.435753569178345, 18.139141543055029 ], [ -94.435753569178345, 18.138872048469793 ], [ -94.436023063763585, 18.138872048469793 ], [ -94.436023063763585, 18.139411037640262 ], [ -94.43548407459312, 18.139411037640262 ], [ -94.43548407459312, 18.139680532225498 ], [ -94.43494508542264, 18.139680532225498 ], [ -94.43494508542264, 18.141028005151679 ], [ -94.434406096252175, 18.141028005151679 ], [ -94.434406096252175, 18.141566994322151 ] ] ] ] } },
{ "type": "Feature", "properties": { "ZONA_MET": "Coatzacoalcos", "INTENSIDAD": "Intensa", "T_PROM_POL": 4.0, "T_MIN_CIUD": 2.0, "DIF_TERMIC": 1.0 }, "geometry": { "type": "MultiPolygon", "coordinates": [ [ [ [ -94.367571439113675, 18.14021952139597 ], [ -94.367301944528435, 18.14021952139597 ], [ -94.367301944528435, 18.139680532225498 ], [ -94.36703244994321, 18.139680532225498 ], [ -94.36703244994321, 18.139411037640262 ], [ -94.36676295535797, 18.139411037640262 ], [ -94.36676295535797, 18.138602553884557 ], [ -94.368110428284155, 18.138602553884557 ], [ -94.368110428284155, 18.139141543055029 ], [ -94.367840933698915, 18.139141543055029 ], [ -94.367840933698915, 18.139680532225498 ], [ -94.368110428284155, 18.139680532225498 ], [ -94.368110428284155, 18.139950026810734 ], [ -94.367571439113675, 18.139950026810734 ], [ -94.367571439113675, 18.14021952139597 ] ], [ [ -94.367301944528435, 18.139411037640262 ], [ -94.367301944528435, 18.139141543055029 ], [ -94.367571439113675, 18.139141543055029 ], [ -94.367571439113675, 18.138872048469793 ], [ -94.36703244994321, 18.138872048469793 ], [ -94.36703244994321, 18.139411037640262 ], [ -94.367301944528435, 18.139411037640262 ] ] ] ] } },
{ "type": "Feature", "properties": { "ZONA_MET": "Coatzacoalcos", "INTENSIDAD": "Intensa", "T_PROM_POL": 4.0, "T_MIN_CIUD": 2.0, "DIF_TERMIC": 1.0 }, "geometry": { "type": "MultiPolygon", "coordinates": [ [ [ [ -94.418775410308498, 18.139411037640262 ], [ -94.418505915723259, 18.139411037640262 ], [ -94.418505915723259, 18.139141543055029 ], [ -94.417427937382314, 18.139141543055029 ], [ -94.417427937382314, 18.138872048469793 ], [ -94.417158442797074, 18.138872048469793 ], [ -94.417158442797074, 18.139141543055029 ], [ -94.416619453626609, 18.139141543055029 ], [ -94.416619453626609, 18.138872048469793 ], [ -94.41608046445613, 18.138872048469793 ], [ -94.41608046445613, 18.138063564714084 ], [ -94.416349959041369, 18.138063564714084 ], [ -94.416349959041369, 18.13833305929932 ], [ -94.417158442797074, 18.13833305929932 ], [ -94.417158442797074, 18.138602553884557 ], [ -94.418236421138019, 18.138602553884557 ], [ -94.418236421138019, 18.138872048469793 ], [ -94.418775410308498, 18.138872048469793 ], [ -94.418775410308498, 18.139411037640262 ] ] ] ] } },
{ "type": "Feature", "properties": { "ZONA_MET": "Coatzacoalcos", "INTENSIDAD": "Intensa", "T_PROM_POL": 4.0, "T_MIN_CIUD": 2.0, "DIF_TERMIC": 1.0 }, "geometry": { "type": "MultiPolygon", "coordinates": [ [ [ [ -94.516332450163873, 18.139141543055029 ], [ -94.514715482652463, 18.139141543055029 ], [ -94.514715482652463, 18.138872048469793 ], [ -94.514176493481983, 18.138872048469793 ], [ -94.514176493481983, 18.139141543055029 ], [ -94.513637504311518, 18.139141543055029 ], [ -94.513637504311518, 18.138872048469793 ], [ -94.513368009726278, 18.138872048469793 ], [ -94.513368009726278, 18.138602553884557 ], [ -94.513906998896758, 18.138602553884557 ], [ -94.513906998896758, 18.13833305929932 ], [ -94.514445988067223, 18.13833305929932 ], [ -94.514445988067223, 18.138602553884557 ], [ -94.514984977237688, 18.138602553884557 ], [ -94.514984977237688, 18.138872048469793 ], [ -94.515523966408168, 18.138872048469793 ], [ -94.515523966408168, 18.138063564714084 ], [ -94.515793460993407, 18.138063564714084 ], [ -94.515793460993407, 18.13833305929932 ], [ -94.516332450163873, 18.13833305929932 ], [ -94.516332450163873, 18.139141543055029 ] ] ] ] } },
{ "type": "Feature", "properties": { "ZONA_MET": "Coatzacoalcos", "INTENSIDAD": "Extrema", "T_PROM_POL": 4.0, "T_MIN_CIUD": 2.0, "DIF_TERMIC": 1.0 }, "geometry": { "type": "MultiPolygon", "coordinates": [ [ [ [ -94.368918912039859, 18.139141543055029 ], [ -94.368110428284155, 18.139141543055029 ], [ -94.368110428284155, 18.138063564714084 ], [ -94.368918912039859, 18.138063564714084 ], [ -94.368918912039859, 18.139141543055029 ] ] ] ] } },
{ "type": "Feature", "properties": { "ZONA_MET": "Coatzacoalcos", "INTENSIDAD": "Intensa", "T_PROM_POL": 4.0, "T_MIN_CIUD": 2.0, "DIF_TERMIC": 1.0 }, "geometry": { "type": "MultiPolygon", "coordinates": [ [ [ [ -94.422009345331318, 18.139141543055029 ], [ -94.421470356160853, 18.139141543055029 ], [ -94.421470356160853, 18.138602553884557 ], [ -94.421200861575613, 18.138602553884557 ], [ -94.421200861575613, 18.137794070128848 ], [ -94.422009345331318, 18.137794070128848 ], [ -94.422009345331318, 18.139141543055029 ] ] ] ] } },
{ "type": "Feature", "properties": { "ZONA_MET": "Coatzacoalcos", "INTENSIDAD": "Intensa", "T_PROM_POL": 4.0, "T_MIN_CIUD": 2.0, "DIF_TERMIC": 1.0 }, "geometry": { "type": "MultiPolygon", "coordinates": [ [ [ [ -94.48291512159463, 18.139411037640262 ], [ -94.48264562700939, 18.139411037640262 ], [ -94.48264562700939, 18.139141543055029 ], [ -94.48237613242415, 18.139141543055029 ], [ -94.48237613242415, 18.139411037640262 ], [ -94.482106637838925, 18.139411037640262 ], [ -94.482106637838925, 18.138872048469793 ], [ -94.481837143253685, 18.138872048469793 ], [ -94.481837143253685, 18.138602553884557 ], [ -94.481567648668445, 18.138602553884557 ], [ -94.481567648668445, 18.13833305929932 ], [ -94.481298154083206, 18.13833305929932 ], [ -94.481298154083206, 18.138063564714084 ], [ -94.48075916491274, 18.138063564714084 ], [ -94.48075916491274, 18.137794070128848 ], [ -94.48102865949798, 18.137794070128848 ], [ -94.48102865949798, 18.137524575543612 ], [ -94.481567648668445, 18.137524575543612 ], [ -94.481567648668445, 18.138063564714084 ], [ -94.482106637838925, 18.138063564714084 ], [ -94.482106637838925, 18.137524575543612 ], [ -94.481837143253685, 18.137524575543612 ], [ -94.481837143253685, 18.137255080958376 ], [ -94.482106637838925, 18.137255080958376 ], [ -94.482106637838925, 18.13698558637314 ], [ -94.48237613242415, 18.13698558637314 ], [ -94.48237613242415, 18.137255080958376 ], [ -94.48291512159463, 18.137255080958376 ], [ -94.48291512159463, 18.13698558637314 ], [ -94.483184616179869, 18.13698558637314 ], [ -94.483184616179869, 18.137794070128848 ], [ -94.483454110765095, 18.137794070128848 ], [ -94.483454110765095, 18.138063564714084 ], [ -94.48291512159463, 18.138063564714084 ], [ -94.48291512159463, 18.138602553884557 ], [ -94.483184616179869, 18.138602553884557 ], [ -94.483184616179869, 18.138872048469793 ], [ -94.48291512159463, 18.138872048469793 ], [ -94.48291512159463, 18.139411037640262 ] ] ] ] } },
{ "type": "Feature", "properties": { "ZONA_MET": "Coatzacoalcos", "INTENSIDAD": "Extrema", "T_PROM_POL": 4.0, "T_MIN_CIUD": 2.0, "DIF_TERMIC": 1.0 }, "geometry": { "type": "MultiPolygon", "coordinates": [ [ [ [ -94.416888948211835, 18.13833305929932 ], [ -94.416349959041369, 18.13833305929932 ], [ -94.416349959041369, 18.138063564714084 ], [ -94.41608046445613, 18.138063564714084 ], [ -94.41608046445613, 18.13698558637314 ], [ -94.416349959041369, 18.13698558637314 ], [ -94.416349959041369, 18.136716091787903 ], [ -94.41608046445613, 18.136716091787903 ], [ -94.41608046445613, 18.136177102617431 ], [ -94.416888948211835, 18.136177102617431 ], [ -94.416888948211835, 18.136716091787903 ], [ -94.416619453626609, 18.136716091787903 ], [ -94.416619453626609, 18.137794070128848 ], [ -94.416888948211835, 18.137794070128848 ], [ -94.416888948211835, 18.13833305929932 ] ] ] ] } },
{ "type": "Feature", "properties": { "ZONA_MET": "Coatzacoalcos", "INTENSIDAD": "Intensa", "T_PROM_POL": 4.0, "T_MIN_CIUD": 2.0, "DIF_TERMIC": 1.0 }, "geometry": { "type": "MultiPolygon", "coordinates": [ [ [ [ -94.498545807538306, 18.137524575543612 ], [ -94.498276312953067, 18.137524575543612 ], [ -94.498276312953067, 18.137255080958376 ], [ -94.498006818367841, 18.137255080958376 ], [ -94.498006818367841, 18.136716091787903 ], [ -94.497737323782601, 18.136716091787903 ], [ -94.497737323782601, 18.136177102617431 ], [ -94.498815302123546, 18.136177102617431 ], [ -94.498815302123546, 18.136446597202667 ], [ -94.498545807538306, 18.136446597202667 ], [ -94.498545807538306, 18.136716091787903 ], [ -94.498815302123546, 18.136716091787903 ], [ -94.498815302123546, 18.13698558637314 ], [ -94.498545807538306, 18.13698558637314 ], [ -94.498545807538306, 18.137524575543612 ] ] ] ] } },
{ "type": "Feature", "properties": { "ZONA_MET": "Coatzacoalcos", "INTENSIDAD": "Intensa", "T_PROM_POL": 4.0, "T_MIN_CIUD": 2.0, "DIF_TERMIC": 1.0 }, "geometry": { "type": "MultiPolygon", "coordinates": [ [ [ [ -94.431172161229341, 18.136716091787903 ], [ -94.430902666644101, 18.136716091787903 ], [ -94.430902666644101, 18.13509912427649 ], [ -94.431172161229341, 18.13509912427649 ], [ -94.431172161229341, 18.134829629691254 ], [ -94.431711150399806, 18.134829629691254 ], [ -94.431711150399806, 18.13509912427649 ], [ -94.432519634155526, 18.13509912427649 ], [ -94.432519634155526, 18.135907608032198 ], [ -94.431441655814581, 18.135907608032198 ], [ -94.431441655814581, 18.136177102617431 ], [ -94.431172161229341, 18.136177102617431 ], [ -94.431172161229341, 18.136716091787903 ] ], [ [ -94.432250139570286, 18.135638113446962 ], [ -94.432250139570286, 18.135368618861726 ], [ -94.431441655814581, 18.135368618861726 ], [ -94.431441655814581, 18.135638113446962 ], [ -94.432250139570286, 18.135638113446962 ] ] ] ] } },
{ "type": "Feature", "properties": { "ZONA_MET": "Coatzacoalcos", "INTENSIDAD": "Intensa", "T_PROM_POL": 4.0, "T_MIN_CIUD": 2.0, "DIF_TERMIC": 1.0 }, "geometry": { "type": "MultiPolygon", "coordinates": [ [ [ [ -94.431980644985046, 18.134021145935545 ], [ -94.430094182888396, 18.134021145935545 ], [ -94.430094182888396, 18.132943167594604 ], [ -94.430902666644101, 18.132943167594604 ], [ -94.430902666644101, 18.133212662179837 ], [ -94.431172161229341, 18.133212662179837 ], [ -94.431172161229341, 18.132943167594604 ], [ -94.431441655814581, 18.132943167594604 ], [ -94.431441655814581, 18.133482156765073 ], [ -94.431711150399806, 18.133482156765073 ], [ -94.431711150399806, 18.133751651350309 ], [ -94.431980644985046, 18.133751651350309 ], [ -94.431980644985046, 18.134021145935545 ] ] ] ] } },
{ "type": "Feature", "properties": { "ZONA_MET": "Coatzacoalcos", "INTENSIDAD": "Intensa", "T_PROM_POL": 4.0, "T_MIN_CIUD": 2.0, "DIF_TERMIC": 1.0 }, "geometry": { "type": "MultiPolygon", "coordinates": [ [ [ [ -94.436562052934065, 18.134021145935545 ], [ -94.436292558348825, 18.134021145935545 ], [ -94.436292558348825, 18.133482156765073 ], [ -94.436023063763585, 18.133482156765073 ], [ -94.436023063763585, 18.133751651350309 ], [ -94.43521458000788, 18.133751651350309 ], [ -94.43521458000788, 18.133482156765073 ], [ -94.43548407459312, 18.133482156765073 ], [ -94.43548407459312, 18.133212662179837 ], [ -94.43521458000788, 18.133212662179837 ], [ -94.43521458000788, 18.132673673009368 ], [ -94.435753569178345, 18.132673673009368 ], [ -94.435753569178345, 18.132943167594604 ], [ -94.436023063763585, 18.132943167594604 ], [ -94.436023063763585, 18.133212662179837 ], [ -94.436562052934065, 18.133212662179837 ], [ -94.436562052934065, 18.132943167594604 ], [ -94.437909525860235, 18.132943167594604 ], [ -94.437909525860235, 18.133212662179837 ], [ -94.43710104210453, 18.133212662179837 ], [ -94.43710104210453, 18.133482156765073 ], [ -94.43683154751929, 18.133482156765073 ], [ -94.43683154751929, 18.133751651350309 ], [ -94.436562052934065, 18.133751651350309 ], [ -94.436562052934065, 18.134021145935545 ] ] ] ] } },
{ "type": "Feature", "properties": { "ZONA_MET": "Coatzacoalcos", "INTENSIDAD": "Intensa", "T_PROM_POL": 4.0, "T_MIN_CIUD": 2.0, "DIF_TERMIC": 1.0 }, "geometry": { "type": "MultiPolygon", "coordinates": [ [ [ [ -94.43494508542264, 18.134021145935545 ], [ -94.434136601666935, 18.134021145935545 ], [ -94.434136601666935, 18.133751651350309 ], [ -94.433867107081696, 18.133751651350309 ], [ -94.433867107081696, 18.133212662179837 ], [ -94.434136601666935, 18.133212662179837 ], [ -94.434136601666935, 18.132943167594604 ], [ -94.433867107081696, 18.132943167594604 ], [ -94.433867107081696, 18.132673673009368 ], [ -94.434406096252175, 18.132673673009368 ], [ -94.434406096252175, 18.132134683838895 ], [ -94.434675590837401, 18.132134683838895 ], [ -94.434675590837401, 18.132673673009368 ], [ -94.43494508542264, 18.132673673009368 ], [ -94.43494508542264, 18.132943167594604 ], [ -94.434675590837401, 18.132943167594604 ], [ -94.434675590837401, 18.133212662179837 ], [ -94.434406096252175, 18.133212662179837 ], [ -94.434406096252175, 18.133751651350309 ], [ -94.43494508542264, 18.133751651350309 ], [ -94.43494508542264, 18.134021145935545 ] ] ] ] } },
{ "type": "Feature", "properties": { "ZONA_MET": "Coatzacoalcos", "INTENSIDAD": "Intensa", "T_PROM_POL": 4.0, "T_MIN_CIUD": 2.0, "DIF_TERMIC": 1.0 }, "geometry": { "type": "MultiPolygon", "coordinates": [ [ [ [ -94.422817829087023, 18.134829629691254 ], [ -94.422009345331318, 18.134829629691254 ], [ -94.422009345331318, 18.134021145935545 ], [ -94.421470356160853, 18.134021145935545 ], [ -94.421470356160853, 18.133751651350309 ], [ -94.420931366990374, 18.133751651350309 ], [ -94.420931366990374, 18.133482156765073 ], [ -94.421200861575613, 18.133482156765073 ], [ -94.421200861575613, 18.132404178424132 ], [ -94.421739850746093, 18.132404178424132 ], [ -94.421739850746093, 18.131595694668423 ], [ -94.422278839916558, 18.131595694668423 ], [ -94.422278839916558, 18.132673673009368 ], [ -94.422548334501798, 18.132673673009368 ], [ -94.422548334501798, 18.131595694668423 ], [ -94.422817829087023, 18.131595694668423 ], [ -94.422817829087023, 18.131056705497951 ], [ -94.423356818257503, 18.131056705497951 ], [ -94.423356818257503, 18.131326200083187 ], [ -94.423626312842742, 18.131326200083187 ], [ -94.423626312842742, 18.131865189253659 ], [ -94.423356818257503, 18.131865189253659 ], [ -94.423356818257503, 18.132404178424132 ], [ -94.423087323672263, 18.132404178424132 ], [ -94.423087323672263, 18.132943167594604 ], [ -94.422817829087023, 18.132943167594604 ], [ -94.422817829087023, 18.134829629691254 ] ] ] ] } },
{ "type": "Feature", "properties": { "ZONA_MET": "Coatzacoalcos", "INTENSIDAD": "Intensa", "T_PROM_POL": 4.0, "T_MIN_CIUD": 2.0, "DIF_TERMIC": 1.0 }, "geometry": { "type": "MultiPolygon", "coordinates": [ [ [ [ -94.436292558348825, 18.132673673009368 ], [ -94.436023063763585, 18.132673673009368 ], [ -94.436023063763585, 18.132404178424132 ], [ -94.43494508542264, 18.132404178424132 ], [ -94.43494508542264, 18.131865189253659 ], [ -94.43548407459312, 18.131865189253659 ], [ -94.43548407459312, 18.131595694668423 ], [ -94.43521458000788, 18.131595694668423 ], [ -94.43521458000788, 18.131326200083187 ], [ -94.43494508542264, 18.131326200083187 ], [ -94.43494508542264, 18.131056705497951 ], [ -94.43521458000788, 18.131056705497951 ], [ -94.43521458000788, 18.130517716327478 ], [ -94.43548407459312, 18.130517716327478 ], [ -94.43548407459312, 18.130787210912715 ], [ -94.435753569178345, 18.130787210912715 ], [ -94.435753569178345, 18.131326200083187 ], [ -94.436023063763585, 18.131326200083187 ], [ -94.436023063763585, 18.131595694668423 ], [ -94.436562052934065, 18.131595694668423 ], [ -94.436562052934065, 18.131326200083187 ], [ -94.43683154751929, 18.131326200083187 ], [ -94.43683154751929, 18.131056705497951 ], [ -94.43710104210453, 18.131056705497951 ], [ -94.43710104210453, 18.131326200083187 ], [ -94.43737053668977, 18.131326200083187 ], [ -94.43737053668977, 18.131595694668423 ], [ -94.43683154751929, 18.131595694668423 ], [ -94.43683154751929, 18.131865189253659 ], [ -94.436562052934065, 18.131865189253659 ], [ -94.436562052934065, 18.132404178424132 ], [ -94.436292558348825, 18.132404178424132 ], [ -94.436292558348825, 18.132673673009368 ] ] ] ] } },
{ "type": "Feature", "properties": { "ZONA_MET": "Coatzacoalcos", "INTENSIDAD": "Intensa", "T_PROM_POL": 4.0, "T_MIN_CIUD": 2.0, "DIF_TERMIC": 1.0 }, "geometry": { "type": "MultiPolygon", "coordinates": [ [ [ [ -94.421470356160853, 18.131595694668423 ], [ -94.420931366990374, 18.131595694668423 ], [ -94.420931366990374, 18.130517716327478 ], [ -94.421200861575613, 18.130517716327478 ], [ -94.421200861575613, 18.130248221742242 ], [ -94.421739850746093, 18.130248221742242 ], [ -94.421739850746093, 18.130517716327478 ], [ -94.422278839916558, 18.130517716327478 ], [ -94.422278839916558, 18.130248221742242 ], [ -94.423087323672263, 18.130248221742242 ], [ -94.423087323672263, 18.130517716327478 ], [ -94.422817829087023, 18.130517716327478 ], [ -94.422817829087023, 18.130787210912715 ], [ -94.421470356160853, 18.130787210912715 ], [ -94.421470356160853, 18.131595694668423 ] ] ] ] } },
{ "type": "Feature", "properties": { "ZONA_MET": "Coatzacoalcos", "INTENSIDAD": "Extrema", "T_PROM_POL": 4.0, "T_MIN_CIUD": 2.0, "DIF_TERMIC": 1.0 }, "geometry": { "type": "MultiPolygon", "coordinates": [ [ [ [ -94.436562052934065, 18.131595694668423 ], [ -94.436023063763585, 18.131595694668423 ], [ -94.436023063763585, 18.131326200083187 ], [ -94.435753569178345, 18.131326200083187 ], [ -94.435753569178345, 18.130787210912715 ], [ -94.43548407459312, 18.130787210912715 ], [ -94.43548407459312, 18.130517716327478 ], [ -94.43521458000788, 18.130517716327478 ], [ -94.43521458000788, 18.12997872715701 ], [ -94.43737053668977, 18.12997872715701 ], [ -94.43737053668977, 18.130787210912715 ], [ -94.43683154751929, 18.130787210912715 ], [ -94.43683154751929, 18.131326200083187 ], [ -94.436562052934065, 18.131326200083187 ], [ -94.436562052934065, 18.131595694668423 ] ] ] ] } },
{ "type": "Feature", "properties": { "ZONA_MET": "Coatzacoalcos", "INTENSIDAD": "Intensa", "T_PROM_POL": 4.0, "T_MIN_CIUD": 2.0, "DIF_TERMIC": 1.0 }, "geometry": { "type": "MultiPolygon", "coordinates": [ [ [ [ -94.440065482542124, 18.131326200083187 ], [ -94.439526493371659, 18.131326200083187 ], [ -94.439526493371659, 18.131056705497951 ], [ -94.439256998786419, 18.131056705497951 ], [ -94.439256998786419, 18.130517716327478 ], [ -94.438448515030714, 18.130517716327478 ], [ -94.438448515030714, 18.130248221742242 ], [ -94.438987504201179, 18.130248221742242 ], [ -94.438987504201179, 18.129709232571773 ], [ -94.439256998786419, 18.129709232571773 ], [ -94.439256998786419, 18.12997872715701 ], [ -94.439795987956884, 18.12997872715701 ], [ -94.439795987956884, 18.130517716327478 ], [ -94.440065482542124, 18.130517716327478 ], [ -94.440065482542124, 18.130787210912715 ], [ -94.439795987956884, 18.130787210912715 ], [ -94.439795987956884, 18.131056705497951 ], [ -94.440065482542124, 18.131056705497951 ], [ -94.440065482542124, 18.131326200083187 ] ] ] ] } },
{ "type": "Feature", "properties": { "ZONA_MET": "Coatzacoalcos", "INTENSIDAD": "Intensa", "T_PROM_POL": 4.0, "T_MIN_CIUD": 2.0, "DIF_TERMIC": 1.0 }, "geometry": { "type": "MultiPolygon", "coordinates": [ [ [ [ -94.441143460883069, 18.128092265060356 ], [ -94.440065482542124, 18.128092265060356 ], [ -94.440065482542124, 18.12782277047512 ], [ -94.440334977127364, 18.12782277047512 ], [ -94.440334977127364, 18.127553275889884 ], [ -94.440065482542124, 18.127553275889884 ], [ -94.440065482542124, 18.126475297548943 ], [ -94.441143460883069, 18.126475297548943 ], [ -94.441143460883069, 18.128092265060356 ] ] ] ] } },
{ "type": "Feature", "properties": { "ZONA_MET": "Coatzacoalcos", "INTENSIDAD": "Intensa", "T_PROM_POL": 4.0, "T_MIN_CIUD": 2.0, "DIF_TERMIC": 1.0 }, "geometry": { "type": "MultiPolygon", "coordinates": [ [ [ [ -94.388861511347315, 18.122971867940876 ], [ -94.388592016762075, 18.122971867940876 ], [ -94.388592016762075, 18.122432878770404 ], [ -94.388322522176836, 18.122432878770404 ], [ -94.388322522176836, 18.122163384185168 ], [ -94.388592016762075, 18.122163384185168 ], [ -94.388592016762075, 18.121893889599932 ], [ -94.388861511347315, 18.121893889599932 ], [ -94.388861511347315, 18.121624395014695 ], [ -94.389131005932541, 18.121624395014695 ], [ -94.389131005932541, 18.121893889599932 ], [ -94.38940050051778, 18.121893889599932 ], [ -94.38940050051778, 18.121354900429459 ], [ -94.389131005932541, 18.121354900429459 ], [ -94.389131005932541, 18.121085405844223 ], [ -94.38940050051778, 18.121085405844223 ], [ -94.38940050051778, 18.120546416673754 ], [ -94.38966999510302, 18.120546416673754 ], [ -94.38966999510302, 18.121354900429459 ], [ -94.38993948968826, 18.121354900429459 ], [ -94.38993948968826, 18.121624395014695 ], [ -94.390208984273485, 18.121624395014695 ], [ -94.390208984273485, 18.122432878770404 ], [ -94.390747973443965, 18.122432878770404 ], [ -94.390747973443965, 18.12270237335564 ], [ -94.38993948968826, 18.12270237335564 ], [ -94.38993948968826, 18.122432878770404 ], [ -94.389131005932541, 18.122432878770404 ], [ -94.389131005932541, 18.12270237335564 ], [ -94.388861511347315, 18.12270237335564 ], [ -94.388861511347315, 18.122971867940876 ] ], [ [ -94.389131005932541, 18.122432878770404 ], [ -94.389131005932541, 18.122163384185168 ], [ -94.388861511347315, 18.122163384185168 ], [ -94.388861511347315, 18.122432878770404 ], [ -94.389131005932541, 18.122432878770404 ] ] ] ] } },
{ "type": "Feature", "properties": { "ZONA_MET": "Coatzacoalcos", "INTENSIDAD": "Intensa", "T_PROM_POL": 4.0, "T_MIN_CIUD": 2.0, "DIF_TERMIC": 1.0 }, "geometry": { "type": "MultiPolygon", "coordinates": [ [ [ [ -94.399641294756748, 18.12081591125899 ], [ -94.399102305586268, 18.12081591125899 ], [ -94.399102305586268, 18.120276922088518 ], [ -94.398563316415803, 18.120276922088518 ], [ -94.398563316415803, 18.120546416673754 ], [ -94.398293821830563, 18.120546416673754 ], [ -94.398293821830563, 18.12081591125899 ], [ -94.398024327245324, 18.12081591125899 ], [ -94.398024327245324, 18.120276922088518 ], [ -94.398293821830563, 18.120276922088518 ], [ -94.398293821830563, 18.119737932918046 ], [ -94.398024327245324, 18.119737932918046 ], [ -94.398024327245324, 18.119198943747573 ], [ -94.398563316415803, 18.119198943747573 ], [ -94.398563316415803, 18.120007427503282 ], [ -94.399102305586268, 18.120007427503282 ], [ -94.399102305586268, 18.11946843833281 ], [ -94.399371800171508, 18.11946843833281 ], [ -94.399371800171508, 18.119198943747573 ], [ -94.399641294756748, 18.119198943747573 ], [ -94.399641294756748, 18.11946843833281 ], [ -94.399910789341988, 18.11946843833281 ], [ -94.399910789341988, 18.119737932918046 ], [ -94.399371800171508, 18.119737932918046 ], [ -94.399371800171508, 18.120007427503282 ], [ -94.399910789341988, 18.120007427503282 ], [ -94.399910789341988, 18.120276922088518 ], [ -94.399641294756748, 18.120276922088518 ], [ -94.399641294756748, 18.12081591125899 ] ] ] ] } },
{ "type": "Feature", "properties": { "ZONA_MET": "Coatzacoalcos", "INTENSIDAD": "Intensa", "T_PROM_POL": 4.0, "T_MIN_CIUD": 2.0, "DIF_TERMIC": 1.0 }, "geometry": { "type": "MultiPolygon", "coordinates": [ [ [ [ -94.448689309269668, 18.114078546628093 ], [ -94.448150320099202, 18.114078546628093 ], [ -94.448150320099202, 18.113000568287148 ], [ -94.448689309269668, 18.113000568287148 ], [ -94.448689309269668, 18.113270062872385 ], [ -94.448958803854907, 18.113270062872385 ], [ -94.448958803854907, 18.113000568287148 ], [ -94.449767287610612, 18.113000568287148 ], [ -94.449767287610612, 18.113539557457621 ], [ -94.448958803854907, 18.113539557457621 ], [ -94.448958803854907, 18.113809052042857 ], [ -94.448689309269668, 18.113809052042857 ], [ -94.448689309269668, 18.114078546628093 ] ] ] ] } }
]
}
